<?xml version="1.0" encoding="UTF-8" standalone="no"?>
<gpx xmlns="http://www.topografix.com/GPX/1/1" version="1.1" xmlns:xsi="http://www.w3.org/2001/XMLSchema-instance" xsi:schemaLocation="http://www.topografix.com/GPX/1/1 http://www.topografix.com/GPX/1/1/gpx.xsd" creator="Cirkwi"><metadata><name><![CDATA[LIFFRE : Circuit du Bâton Roulant]]></name><desc><![CDATA[Cette randonnée vous conduit de la ville à la forêt, en passant par la « coulée verte ». Sur le parcours : Centre équestre de Mi-Forêt]]></desc><author><name><![CDATA[Club Aubinois]]></name></author><link href="http://fichier0.cirkwi.com/image/photo/circuit/1300x1300/341303/fr/0.jpg"><text><![CDATA[|]]></text></link><time>2024-12-23T17:46:08Z</time></metadata><trk><trkseg><trkpt lat="48.21369" lon="-1.50456"><ele>96.2</ele></trkpt><trkpt lat="48.21355" lon="-1.50465"><ele>96.4</ele></trkpt><trkpt lat="48.21331" lon="-1.5043"><ele>95.8</ele></trkpt><trkpt lat="48.21313" lon="-1.5046"><ele>96.7</ele></trkpt><trkpt lat="48.21289" lon="-1.50542"><ele>95.4</ele></trkpt><trkpt lat="48.21309" lon="-1.50562"><ele>95.9</ele></trkpt><trkpt lat="48.21265" lon="-1.50848"><ele>97.8</ele></trkpt><trkpt lat="48.21254" lon="-1.50857"><ele>97.6</ele></trkpt><trkpt lat="48.21249" lon="-1.50872"><ele>97.6</ele></trkpt><trkpt lat="48.21254" lon="-1.5089"><ele>97.7</ele></trkpt><trkpt lat="48.21262" lon="-1.50898"><ele>97.7</ele></trkpt><trkpt lat="48.21262" lon="-1.50911"><ele>97.5</ele></trkpt><trkpt lat="48.21247" lon="-1.50901"><ele>97.6</ele></trkpt><trkpt lat="48.21235" lon="-1.50887"><ele>97.1</ele></trkpt><trkpt lat="48.21178" lon="-1.5089"><ele>95.3</ele></trkpt><trkpt lat="48.21158" lon="-1.50895"><ele>94.7</ele></trkpt><trkpt lat="48.21169" lon="-1.50989"><ele>94.2</ele></trkpt><trkpt lat="48.21166" lon="-1.51005"><ele>94.4</ele></trkpt><trkpt lat="48.21152" lon="-1.51049"><ele>94.9</ele></trkpt><trkpt lat="48.21142" lon="-1.51051"><ele>95</ele></trkpt><trkpt lat="48.21133" lon="-1.51093"><ele>95.2</ele></trkpt><trkpt lat="48.21129" lon="-1.5112"><ele>95</ele></trkpt><trkpt lat="48.2107" lon="-1.51174"><ele>93.6</ele></trkpt><trkpt lat="48.21034" lon="-1.51199"><ele>92.3</ele></trkpt><trkpt lat="48.21029" lon="-1.51198"><ele>92.1</ele></trkpt><trkpt lat="48.21014" lon="-1.5121"><ele>91.7</ele></trkpt><trkpt lat="48.20967" lon="-1.51214"><ele>90.4</ele></trkpt><trkpt lat="48.20955" lon="-1.51251"><ele>90.6</ele></trkpt><trkpt lat="48.20923" lon="-1.51271"><ele>90</ele></trkpt><trkpt lat="48.20906" lon="-1.51258"><ele>89.9</ele></trkpt><trkpt lat="48.20769" lon="-1.51367"><ele>92</ele></trkpt><trkpt lat="48.20756" lon="-1.51369"><ele>92.3</ele></trkpt><trkpt lat="48.20656" lon="-1.51437"><ele>96.4</ele></trkpt><trkpt lat="48.2064" lon="-1.5144"><ele>96.5</ele></trkpt><trkpt lat="48.2049" lon="-1.51446"><ele>95.2</ele></trkpt><trkpt lat="48.20457" lon="-1.51434"><ele>94.5</ele></trkpt><trkpt lat="48.20451" lon="-1.514"><ele>93.5</ele></trkpt><trkpt lat="48.20447" lon="-1.51392"><ele>93.1</ele></trkpt><trkpt lat="48.20436" lon="-1.51423"><ele>93.7</ele></trkpt><trkpt lat="48.20426" lon="-1.51472"><ele>93.9</ele></trkpt><trkpt lat="48.2041" lon="-1.5166"><ele>95.8</ele></trkpt><trkpt lat="48.2038" lon="-1.51752"><ele>95.9</ele></trkpt><trkpt lat="48.20368" lon="-1.51736"><ele>95.3</ele></trkpt><trkpt lat="48.20355" lon="-1.51699"><ele>94.9</ele></trkpt><trkpt lat="48.20331" lon="-1.51629"><ele>92.9</ele></trkpt><trkpt lat="48.20307" lon="-1.51584"><ele>91.3</ele></trkpt><trkpt lat="48.20284" lon="-1.51545"><ele>90.2</ele></trkpt><trkpt lat="48.20264" lon="-1.51569"><ele>90.3</ele></trkpt><trkpt lat="48.20221" lon="-1.51579"><ele>89.7</ele></trkpt><trkpt lat="48.20206" lon="-1.51591"><ele>89.9</ele></trkpt><trkpt lat="48.202" lon="-1.51653"><ele>91</ele></trkpt><trkpt lat="48.20128" lon="-1.51822"><ele>94.7</ele></trkpt><trkpt lat="48.20108" lon="-1.51814"><ele>94</ele></trkpt><trkpt lat="48.20097" lon="-1.51796"><ele>93.6</ele></trkpt><trkpt lat="48.20069" lon="-1.51935"><ele>95.7</ele></trkpt><trkpt lat="48.20052" lon="-1.52078"><ele>95.6</ele></trkpt><trkpt lat="48.19991" lon="-1.52069"><ele>94.2</ele></trkpt><trkpt lat="48.19864" lon="-1.5201"><ele>90.8</ele></trkpt><trkpt lat="48.19699" lon="-1.51932"><ele>93.4</ele></trkpt><trkpt lat="48.19641" lon="-1.51932"><ele>94.6</ele></trkpt><trkpt lat="48.19566" lon="-1.51941"><ele>93.6</ele></trkpt><trkpt lat="48.19527" lon="-1.51913"><ele>92.6</ele></trkpt><trkpt lat="48.19508" lon="-1.51949"><ele>92.3</ele></trkpt><trkpt lat="48.19487" lon="-1.51972"><ele>91.9</ele></trkpt><trkpt lat="48.19391" lon="-1.51962"><ele>89.9</ele></trkpt><trkpt lat="48.19159" lon="-1.51886"><ele>85</ele></trkpt><trkpt lat="48.19158" lon="-1.51872"><ele>85</ele></trkpt><trkpt lat="48.19115" lon="-1.51867"><ele>85.2</ele></trkpt><trkpt lat="48.19056" lon="-1.51826"><ele>85.66</ele></trkpt><trkpt lat="48.18965" lon="-1.51789"><ele>87.07</ele></trkpt><trkpt lat="48.18961" lon="-1.51762"><ele>86.79</ele></trkpt><trkpt lat="48.18802" lon="-1.51684"><ele>88.55</ele></trkpt><trkpt lat="48.18778" lon="-1.51695"><ele>88.12</ele></trkpt><trkpt lat="48.18803" lon="-1.51913"><ele>90.54</ele></trkpt><trkpt lat="48.18742" lon="-1.51901"><ele>88.4</ele></trkpt><trkpt lat="48.18725" lon="-1.51877"><ele>88.21</ele></trkpt><trkpt lat="48.187" lon="-1.51829"><ele>87.15</ele></trkpt><trkpt lat="48.18574" lon="-1.51876"><ele>83.85</ele></trkpt><trkpt lat="48.1858" lon="-1.51896"><ele>83.99</ele></trkpt><trkpt lat="48.18519" lon="-1.52064"><ele>86.72</ele></trkpt><trkpt lat="48.18484" lon="-1.52123"><ele>87.4</ele></trkpt><trkpt lat="48.18313" lon="-1.52403"><ele>92.77</ele></trkpt><trkpt lat="48.18327" lon="-1.52403"><ele>93.38</ele></trkpt><trkpt lat="48.18346" lon="-1.5244"><ele>94.15</ele></trkpt><trkpt lat="48.18357" lon="-1.52444"><ele>94.53</ele></trkpt><trkpt lat="48.18376" lon="-1.5248"><ele>95.89</ele></trkpt><trkpt lat="48.18401" lon="-1.52509"><ele>96.7</ele></trkpt><trkpt lat="48.18429" lon="-1.52569"><ele>97.92</ele></trkpt><trkpt lat="48.18498" lon="-1.52649"><ele>99.09</ele></trkpt><trkpt lat="48.1854" lon="-1.52633"><ele>100.04</ele></trkpt><trkpt lat="48.18557" lon="-1.52631"><ele>100.22</ele></trkpt><trkpt lat="48.18567" lon="-1.52647"><ele>100.58</ele></trkpt><trkpt lat="48.18668" lon="-1.52765"><ele>101.32</ele></trkpt><trkpt lat="48.18698" lon="-1.5275"><ele>101.84</ele></trkpt><trkpt lat="48.1876" lon="-1.5284"><ele>101</ele></trkpt><trkpt lat="48.18783" lon="-1.52922"><ele>101</ele></trkpt><trkpt lat="48.18819" lon="-1.53007"><ele>102</ele></trkpt><trkpt lat="48.18826" lon="-1.53011"><ele>102.2</ele></trkpt><trkpt lat="48.18835" lon="-1.53032"><ele>102.4</ele></trkpt><trkpt lat="48.18858" lon="-1.53125"><ele>102.2</ele></trkpt><trkpt lat="48.18896" lon="-1.53176"><ele>102.8</ele></trkpt><trkpt lat="48.18932" lon="-1.53188"><ele>102.5</ele></trkpt><trkpt lat="48.18939" lon="-1.53211"><ele>103.4</ele></trkpt><trkpt lat="48.18939" lon="-1.53252"><ele>103.9</ele></trkpt><trkpt lat="48.18944" lon="-1.53311"><ele>104.3</ele></trkpt><trkpt lat="48.18929" lon="-1.53406"><ele>103.6</ele></trkpt><trkpt lat="48.18939" lon="-1.53412"><ele>103.9</ele></trkpt><trkpt lat="48.18979" lon="-1.53407"><ele>103.5</ele></trkpt><trkpt lat="48.19018" lon="-1.53325"><ele>103.5</ele></trkpt><trkpt lat="48.19036" lon="-1.5329"><ele>103.5</ele></trkpt><trkpt lat="48.19091" lon="-1.53211"><ele>102.3</ele></trkpt><trkpt lat="48.1918" lon="-1.53123"><ele>99.7</ele></trkpt><trkpt lat="48.19263" lon="-1.53039"><ele>99.2</ele></trkpt><trkpt lat="48.19348" lon="-1.52951"><ele>99.4</ele></trkpt><trkpt lat="48.19392" lon="-1.52915"><ele>99.6</ele></trkpt><trkpt lat="48.19457" lon="-1.52898"><ele>100.3</ele></trkpt><trkpt lat="48.19542" lon="-1.52853"><ele>100.8</ele></trkpt><trkpt lat="48.19626" lon="-1.52863"><ele>100.2</ele></trkpt><trkpt lat="48.19694" lon="-1.52838"><ele>99.3</ele></trkpt><trkpt lat="48.19795" lon="-1.52773"><ele>98.5</ele></trkpt><trkpt lat="48.19863" lon="-1.52706"><ele>98.3</ele></trkpt><trkpt lat="48.19911" lon="-1.52682"><ele>97.8</ele></trkpt><trkpt lat="48.19936" lon="-1.5265"><ele>97.8</ele></trkpt><trkpt lat="48.19949" lon="-1.5261"><ele>97.7</ele></trkpt><trkpt lat="48.20348" lon="-1.5237"><ele>100.5</ele></trkpt><trkpt lat="48.20365" lon="-1.52367"><ele>100.5</ele></trkpt><trkpt lat="48.20418" lon="-1.52172"><ele>102.5</ele></trkpt><trkpt lat="48.20432" lon="-1.52146"><ele>102.8</ele></trkpt><trkpt lat="48.20471" lon="-1.52144"><ele>102.6</ele></trkpt><trkpt lat="48.20468" lon="-1.52084"><ele>102.9</ele></trkpt><trkpt lat="48.20458" lon="-1.52034"><ele>101.9</ele></trkpt><trkpt lat="48.20469" lon="-1.52018"><ele>102</ele></trkpt><trkpt lat="48.20536" lon="-1.51979"><ele>102.2</ele></trkpt><trkpt lat="48.20536" lon="-1.51967"><ele>102.1</ele></trkpt><trkpt lat="48.20573" lon="-1.51919"><ele>103</ele></trkpt><trkpt lat="48.20625" lon="-1.51841"><ele>103.3</ele></trkpt><trkpt lat="48.20611" lon="-1.51775"><ele>102.1</ele></trkpt><trkpt lat="48.20598" lon="-1.51735"><ele>101.4</ele></trkpt><trkpt lat="48.20568" lon="-1.51661"><ele>99.3</ele></trkpt><trkpt lat="48.20558" lon="-1.51648"><ele>98.6</ele></trkpt><trkpt lat="48.20547" lon="-1.51641"><ele>97.9</ele></trkpt><trkpt lat="48.20554" lon="-1.51608"><ele>98.2</ele></trkpt><trkpt lat="48.20579" lon="-1.5156"><ele>98.3</ele></trkpt><trkpt lat="48.20599" lon="-1.51539"><ele>98.6</ele></trkpt><trkpt lat="48.20625" lon="-1.51505"><ele>98.4</ele></trkpt><trkpt lat="48.20606" lon="-1.51465"><ele>97.2</ele></trkpt><trkpt lat="48.20606" lon="-1.51447"><ele>96.3</ele></trkpt><trkpt lat="48.2064" lon="-1.51445"><ele>96.6</ele></trkpt><trkpt lat="48.20657" lon="-1.51442"><ele>96.5</ele></trkpt><trkpt lat="48.20758" lon="-1.51375"><ele>92.4</ele></trkpt><trkpt lat="48.20771" lon="-1.51372"><ele>92.1</ele></trkpt><trkpt lat="48.20907" lon="-1.51265"><ele>89.9</ele></trkpt><trkpt lat="48.20922" lon="-1.51277"><ele>90.1</ele></trkpt><trkpt lat="48.20957" lon="-1.51256"><ele>90.7</ele></trkpt><trkpt lat="48.2097" lon="-1.51219"><ele>90.6</ele></trkpt><trkpt lat="48.21014" lon="-1.51214"><ele>91.8</ele></trkpt><trkpt lat="48.21029" lon="-1.51203"><ele>92.2</ele></trkpt><trkpt lat="48.21071" lon="-1.51178"><ele>93.7</ele></trkpt><trkpt lat="48.21131" lon="-1.51125"><ele>95.1</ele></trkpt><trkpt lat="48.21138" lon="-1.51092"><ele>95.2</ele></trkpt><trkpt lat="48.21143" lon="-1.51057"><ele>95.1</ele></trkpt><trkpt lat="48.21156" lon="-1.51049"><ele>94.9</ele></trkpt><trkpt lat="48.21168" lon="-1.51005"><ele>94.4</ele></trkpt><trkpt lat="48.21172" lon="-1.50986"><ele>94.2</ele></trkpt><trkpt lat="48.21157" lon="-1.50888"><ele>94.8</ele></trkpt><trkpt lat="48.21245" lon="-1.50869"><ele>97.4</ele></trkpt><trkpt lat="48.21262" lon="-1.50852"><ele>97.7</ele></trkpt><trkpt lat="48.21305" lon="-1.50565"><ele>95.8</ele></trkpt><trkpt lat="48.21286" lon="-1.50548"><ele>95.4</ele></trkpt><trkpt lat="48.2131" lon="-1.50461"><ele>96.7</ele></trkpt><trkpt lat="48.21328" lon="-1.50428"><ele>95.8</ele></trkpt><trkpt lat="48.21355" lon="-1.50458"><ele>96.3</ele></trkpt><trkpt lat="48.21364" lon="-1.50447"><ele>96.2</ele></trkpt></trkseg></trk></gpx>
