<?xml version="1.0" encoding="UTF-8" standalone="no"?>
<gpx xmlns="http://www.topografix.com/GPX/1/1" version="1.1" xmlns:xsi="http://www.w3.org/2001/XMLSchema-instance" xsi:schemaLocation="http://www.topografix.com/GPX/1/1 http://www.topografix.com/GPX/1/1/gpx.xsd" creator="Cirkwi"><metadata><name><![CDATA[L’étang de Chevré à La Bouëxière]]></name><desc><![CDATA[La Bouëxière est un vaste territoire vallonné de 50 km2 situé à 19km à l'est de Rennes. La population (3850) est répartie entre le bourg et une dizaine de villages. Dans cet environnement préservé, l’espace se partage entre habitat, bocage, et forêts. Les Bouëxièrais, ses artisans et commerçants vous accueillent chaleureusement.  Balisage : Pays de Liffré  Retrouvez ce circuit dans le guide des "Balades en Pays de Rennes" disponible en Offices de Tourisme et dans certaines mairies.]]></desc><author><name><![CDATA[Pays de Rennes]]></name></author><link href="http://fichier0.cirkwi.com/image/photo/circuit/1300x1300/44838/fr/0.jpg"><text><![CDATA[|Benoit Gendron]]></text></link><time>2024-12-23T15:57:43Z</time></metadata><trk><name><![CDATA[L’étang de Chevré à La Bouëxière]]></name><trkseg><trkpt lat="48.18563" lon="-1.43762"><ele>89.83</ele></trkpt><trkpt lat="48.18755" lon="-1.43642"><ele>81.14</ele></trkpt><trkpt lat="48.18937" lon="-1.43589"><ele>68.77</ele></trkpt><trkpt lat="48.1914" lon="-1.43553"><ele>67.64</ele></trkpt><trkpt lat="48.19292" lon="-1.43551"><ele>52.61</ele></trkpt><trkpt lat="48.1929" lon="-1.43633"><ele>53.48</ele></trkpt><trkpt lat="48.19273" lon="-1.43651"><ele>52.99</ele></trkpt><trkpt lat="48.19324" lon="-1.43715"><ele>52.53</ele></trkpt><trkpt lat="48.19346" lon="-1.4373"><ele>53.57</ele></trkpt><trkpt lat="48.19347" lon="-1.43784"><ele>53.41</ele></trkpt><trkpt lat="48.19347" lon="-1.43831"><ele>53.37</ele></trkpt><trkpt lat="48.19347" lon="-1.43874"><ele>52.98</ele></trkpt><trkpt lat="48.19401" lon="-1.43942"><ele>53.23</ele></trkpt><trkpt lat="48.19414" lon="-1.43988"><ele>53.49</ele></trkpt><trkpt lat="48.19454" lon="-1.43994"><ele>53.37</ele></trkpt><trkpt lat="48.19502" lon="-1.4398"><ele>53.38</ele></trkpt><trkpt lat="48.19553" lon="-1.43951"><ele>52.6</ele></trkpt><trkpt lat="48.19612" lon="-1.43949"><ele>52.53</ele></trkpt><trkpt lat="48.19661" lon="-1.43975"><ele>53.01</ele></trkpt><trkpt lat="48.19725" lon="-1.43994"><ele>53.62</ele></trkpt><trkpt lat="48.19779" lon="-1.44044"><ele>54.9</ele></trkpt><trkpt lat="48.19818" lon="-1.44138"><ele>55.95</ele></trkpt><trkpt lat="48.19836" lon="-1.44206"><ele>56.39</ele></trkpt><trkpt lat="48.19834" lon="-1.44251"><ele>56.1</ele></trkpt><trkpt lat="48.19832" lon="-1.44285"><ele>56.53</ele></trkpt><trkpt lat="48.19832" lon="-1.44299"><ele>56.66</ele></trkpt><trkpt lat="48.19831" lon="-1.44311"><ele>56.82</ele></trkpt><trkpt lat="48.19826" lon="-1.44354"><ele>56.57</ele></trkpt><trkpt lat="48.19818" lon="-1.44361"><ele>56.16</ele></trkpt><trkpt lat="48.19789" lon="-1.44361"><ele>53.18</ele></trkpt><trkpt lat="48.19789" lon="-1.4437"><ele>53.34</ele></trkpt><trkpt lat="48.19769" lon="-1.44353"><ele>52.99</ele></trkpt><trkpt lat="48.19752" lon="-1.44376"><ele>52.57</ele></trkpt><trkpt lat="48.19736" lon="-1.44381"><ele>52.62</ele></trkpt><trkpt lat="48.1973" lon="-1.44382"><ele>52.63</ele></trkpt><trkpt lat="48.19723" lon="-1.44382"><ele>52.65</ele></trkpt><trkpt lat="48.19716" lon="-1.44378"><ele>52.8</ele></trkpt><trkpt lat="48.19708" lon="-1.44378"><ele>52.65</ele></trkpt><trkpt lat="48.19693" lon="-1.4438"><ele>52.74</ele></trkpt><trkpt lat="48.19685" lon="-1.44387"><ele>52.64</ele></trkpt><trkpt lat="48.19668" lon="-1.44399"><ele>53.29</ele></trkpt><trkpt lat="48.19662" lon="-1.44414"><ele>53.84</ele></trkpt><trkpt lat="48.19656" lon="-1.44425"><ele>53.34</ele></trkpt><trkpt lat="48.19652" lon="-1.44435"><ele>53.48</ele></trkpt><trkpt lat="48.19645" lon="-1.44452"><ele>53.95</ele></trkpt><trkpt lat="48.19643" lon="-1.44461"><ele>53</ele></trkpt><trkpt lat="48.19637" lon="-1.44476"><ele>53.98</ele></trkpt><trkpt lat="48.19634" lon="-1.44484"><ele>53.03</ele></trkpt><trkpt lat="48.1963" lon="-1.44494"><ele>53.38</ele></trkpt><trkpt lat="48.19628" lon="-1.44503"><ele>53.56</ele></trkpt><trkpt lat="48.19625" lon="-1.44512"><ele>53.11</ele></trkpt><trkpt lat="48.19566" lon="-1.44691"><ele>53.37</ele></trkpt><trkpt lat="48.19553" lon="-1.44719"><ele>53.7</ele></trkpt><trkpt lat="48.19539" lon="-1.44752"><ele>55.3</ele></trkpt><trkpt lat="48.19524" lon="-1.44799"><ele>54.19</ele></trkpt><trkpt lat="48.19515" lon="-1.44827"><ele>54.26</ele></trkpt><trkpt lat="48.19507" lon="-1.44883"><ele>54.56</ele></trkpt><trkpt lat="48.19499" lon="-1.44958"><ele>55.71</ele></trkpt><trkpt lat="48.19501" lon="-1.44988"><ele>53.34</ele></trkpt><trkpt lat="48.19511" lon="-1.45023"><ele>53.03</ele></trkpt><trkpt lat="48.19521" lon="-1.45054"><ele>54.09</ele></trkpt><trkpt lat="48.19533" lon="-1.45083"><ele>53.47</ele></trkpt><trkpt lat="48.19549" lon="-1.45108"><ele>52.55</ele></trkpt><trkpt lat="48.19568" lon="-1.4513"><ele>52.56</ele></trkpt><trkpt lat="48.19593" lon="-1.45146"><ele>53.1</ele></trkpt><trkpt lat="48.19617" lon="-1.45165"><ele>52.64</ele></trkpt><trkpt lat="48.19632" lon="-1.45188"><ele>52.94</ele></trkpt><trkpt lat="48.19642" lon="-1.45202"><ele>53.03</ele></trkpt><trkpt lat="48.19631" lon="-1.45226"><ele>52.97</ele></trkpt><trkpt lat="48.19627" lon="-1.45244"><ele>53.07</ele></trkpt><trkpt lat="48.1962" lon="-1.45268"><ele>52.95</ele></trkpt><trkpt lat="48.19614" lon="-1.45292"><ele>53.09</ele></trkpt><trkpt lat="48.19587" lon="-1.45335"><ele>53.18</ele></trkpt><trkpt lat="48.19563" lon="-1.45364"><ele>53.22</ele></trkpt><trkpt lat="48.19547" lon="-1.45389"><ele>53.27</ele></trkpt><trkpt lat="48.19532" lon="-1.45416"><ele>53.28</ele></trkpt><trkpt lat="48.19511" lon="-1.45447"><ele>54.45</ele></trkpt><trkpt lat="48.19494" lon="-1.45471"><ele>53.73</ele></trkpt><trkpt lat="48.19467" lon="-1.45504"><ele>54.53</ele></trkpt><trkpt lat="48.19457" lon="-1.45521"><ele>54.8</ele></trkpt><trkpt lat="48.19449" lon="-1.45537"><ele>53.36</ele></trkpt><trkpt lat="48.19435" lon="-1.4557"><ele>53.38</ele></trkpt><trkpt lat="48.19424" lon="-1.45606"><ele>53.18</ele></trkpt><trkpt lat="48.1942" lon="-1.45618"><ele>53.27</ele></trkpt><trkpt lat="48.1938" lon="-1.45754"><ele>53.53</ele></trkpt><trkpt lat="48.19363" lon="-1.45828"><ele>53.51</ele></trkpt><trkpt lat="48.19358" lon="-1.45869"><ele>53.19</ele></trkpt><trkpt lat="48.19355" lon="-1.45886"><ele>53.03</ele></trkpt><trkpt lat="48.19353" lon="-1.45901"><ele>53.46</ele></trkpt><trkpt lat="48.19351" lon="-1.45908"><ele>53.44</ele></trkpt><trkpt lat="48.19349" lon="-1.45922"><ele>53.63</ele></trkpt><trkpt lat="48.19346" lon="-1.45936"><ele>53.27</ele></trkpt><trkpt lat="48.19336" lon="-1.45982"><ele>53.37</ele></trkpt><trkpt lat="48.19335" lon="-1.46001"><ele>53.68</ele></trkpt><trkpt lat="48.19336" lon="-1.46011"><ele>54.19</ele></trkpt><trkpt lat="48.19336" lon="-1.46025"><ele>54.93</ele></trkpt><trkpt lat="48.19286" lon="-1.46049"><ele>65.05</ele></trkpt><trkpt lat="48.19334" lon="-1.46037"><ele>55.29</ele></trkpt><trkpt lat="48.19368" lon="-1.46135"><ele>53.83</ele></trkpt><trkpt lat="48.19373" lon="-1.46147"><ele>54.65</ele></trkpt><trkpt lat="48.19375" lon="-1.46155"><ele>55.06</ele></trkpt><trkpt lat="48.19383" lon="-1.46159"><ele>55.03</ele></trkpt><trkpt lat="48.19396" lon="-1.46148"><ele>54.73</ele></trkpt><trkpt lat="48.1942" lon="-1.46118"><ele>55.05</ele></trkpt><trkpt lat="48.19429" lon="-1.461"><ele>54.41</ele></trkpt><trkpt lat="48.19437" lon="-1.46107"><ele>53.47</ele></trkpt><trkpt lat="48.19451" lon="-1.46072"><ele>54.79</ele></trkpt><trkpt lat="48.19469" lon="-1.46048"><ele>54.53</ele></trkpt><trkpt lat="48.19485" lon="-1.46032"><ele>52.12</ele></trkpt><trkpt lat="48.19504" lon="-1.46022"><ele>55.72</ele></trkpt><trkpt lat="48.195" lon="-1.46007"><ele>54.16</ele></trkpt><trkpt lat="48.19497" lon="-1.46"><ele>54.01</ele></trkpt><trkpt lat="48.19494" lon="-1.45994"><ele>53.2</ele></trkpt><trkpt lat="48.19494" lon="-1.45986"><ele>52.76</ele></trkpt><trkpt lat="48.19493" lon="-1.45977"><ele>52.72</ele></trkpt><trkpt lat="48.19493" lon="-1.45968"><ele>52.7</ele></trkpt><trkpt lat="48.19493" lon="-1.45963"><ele>52.86</ele></trkpt><trkpt lat="48.1949" lon="-1.4596"><ele>52.53</ele></trkpt><trkpt lat="48.19485" lon="-1.45965"><ele>52.53</ele></trkpt><trkpt lat="48.19483" lon="-1.45967"><ele>52.53</ele></trkpt><trkpt lat="48.1948" lon="-1.4597"><ele>52.53</ele></trkpt><trkpt lat="48.19476" lon="-1.45971"><ele>52.53</ele></trkpt><trkpt lat="48.1947" lon="-1.45968"><ele>52.53</ele></trkpt><trkpt lat="48.19467" lon="-1.45963"><ele>52.53</ele></trkpt><trkpt lat="48.1946" lon="-1.45954"><ele>52.53</ele></trkpt><trkpt lat="48.19459" lon="-1.45947"><ele>52.53</ele></trkpt><trkpt lat="48.19457" lon="-1.45939"><ele>52.53</ele></trkpt><trkpt lat="48.19458" lon="-1.4593"><ele>52.55</ele></trkpt><trkpt lat="48.19464" lon="-1.45919"><ele>53.55</ele></trkpt><trkpt lat="48.19467" lon="-1.45908"><ele>53.61</ele></trkpt><trkpt lat="48.1947" lon="-1.45893"><ele>53.57</ele></trkpt><trkpt lat="48.19477" lon="-1.45879"><ele>53.7</ele></trkpt><trkpt lat="48.19483" lon="-1.45868"><ele>53.72</ele></trkpt><trkpt lat="48.19485" lon="-1.45857"><ele>53.81</ele></trkpt><trkpt lat="48.1951" lon="-1.45802"><ele>53.82</ele></trkpt><trkpt lat="48.19536" lon="-1.45751"><ele>53.59</ele></trkpt><trkpt lat="48.19549" lon="-1.45731"><ele>54.42</ele></trkpt><trkpt lat="48.19557" lon="-1.45718"><ele>54.82</ele></trkpt><trkpt lat="48.19567" lon="-1.45693"><ele>54.58</ele></trkpt><trkpt lat="48.19575" lon="-1.45672"><ele>55.17</ele></trkpt><trkpt lat="48.19617" lon="-1.45566"><ele>55.04</ele></trkpt><trkpt lat="48.19641" lon="-1.45513"><ele>54.67</ele></trkpt><trkpt lat="48.1965" lon="-1.45493"><ele>54.27</ele></trkpt><trkpt lat="48.19656" lon="-1.45481"><ele>54.1</ele></trkpt><trkpt lat="48.19667" lon="-1.4546"><ele>53.41</ele></trkpt><trkpt lat="48.19673" lon="-1.45447"><ele>54.81</ele></trkpt><trkpt lat="48.19677" lon="-1.45434"><ele>54.75</ele></trkpt><trkpt lat="48.19686" lon="-1.45408"><ele>54.86</ele></trkpt><trkpt lat="48.19692" lon="-1.45389"><ele>54.33</ele></trkpt><trkpt lat="48.19708" lon="-1.45325"><ele>55.18</ele></trkpt><trkpt lat="48.19715" lon="-1.45303"><ele>54.09</ele></trkpt><trkpt lat="48.19718" lon="-1.45288"><ele>54.17</ele></trkpt><trkpt lat="48.1972" lon="-1.45271"><ele>55.8</ele></trkpt><trkpt lat="48.1972" lon="-1.45258"><ele>54.73</ele></trkpt><trkpt lat="48.19722" lon="-1.45245"><ele>54.16</ele></trkpt><trkpt lat="48.19725" lon="-1.45237"><ele>57</ele></trkpt><trkpt lat="48.19723" lon="-1.45222"><ele>53.44</ele></trkpt><trkpt lat="48.19724" lon="-1.45205"><ele>55.35</ele></trkpt><trkpt lat="48.19723" lon="-1.45184"><ele>53.24</ele></trkpt><trkpt lat="48.19719" lon="-1.45166"><ele>53.08</ele></trkpt><trkpt lat="48.19717" lon="-1.45156"><ele>53.91</ele></trkpt><trkpt lat="48.19713" lon="-1.45144"><ele>53.26</ele></trkpt><trkpt lat="48.19708" lon="-1.45133"><ele>53.31</ele></trkpt><trkpt lat="48.19701" lon="-1.45124"><ele>53.19</ele></trkpt><trkpt lat="48.19694" lon="-1.45114"><ele>53.28</ele></trkpt><trkpt lat="48.19689" lon="-1.45103"><ele>52.87</ele></trkpt><trkpt lat="48.19682" lon="-1.45091"><ele>53.29</ele></trkpt><trkpt lat="48.19676" lon="-1.45084"><ele>52.78</ele></trkpt><trkpt lat="48.19668" lon="-1.45073"><ele>53.11</ele></trkpt><trkpt lat="48.19661" lon="-1.45061"><ele>53.18</ele></trkpt><trkpt lat="48.19654" lon="-1.45055"><ele>53.05</ele></trkpt><trkpt lat="48.19644" lon="-1.4504"><ele>53.34</ele></trkpt><trkpt lat="48.19636" lon="-1.45024"><ele>53.25</ele></trkpt><trkpt lat="48.19632" lon="-1.45016"><ele>53.28</ele></trkpt><trkpt lat="48.19627" lon="-1.45001"><ele>53.37</ele></trkpt><trkpt lat="48.19621" lon="-1.4498"><ele>53.3</ele></trkpt><trkpt lat="48.19619" lon="-1.44965"><ele>53.42</ele></trkpt><trkpt lat="48.19616" lon="-1.44951"><ele>53.24</ele></trkpt><trkpt lat="48.19614" lon="-1.44939"><ele>53.34</ele></trkpt><trkpt lat="48.19612" lon="-1.44926"><ele>52.97</ele></trkpt><trkpt lat="48.19613" lon="-1.44895"><ele>53.38</ele></trkpt><trkpt lat="48.19617" lon="-1.44852"><ele>53.19</ele></trkpt><trkpt lat="48.19621" lon="-1.44841"><ele>53.45</ele></trkpt><trkpt lat="48.19623" lon="-1.44824"><ele>53.26</ele></trkpt><trkpt lat="48.19627" lon="-1.44805"><ele>53.2</ele></trkpt><trkpt lat="48.19632" lon="-1.44778"><ele>53.15</ele></trkpt><trkpt lat="48.19634" lon="-1.44765"><ele>53.14</ele></trkpt><trkpt lat="48.19636" lon="-1.44751"><ele>53.17</ele></trkpt><trkpt lat="48.19641" lon="-1.44736"><ele>53.2</ele></trkpt><trkpt lat="48.19645" lon="-1.4472"><ele>53.26</ele></trkpt><trkpt lat="48.19649" lon="-1.44707"><ele>53.25</ele></trkpt><trkpt lat="48.19652" lon="-1.44697"><ele>53.27</ele></trkpt><trkpt lat="48.19657" lon="-1.44685"><ele>53.3</ele></trkpt><trkpt lat="48.19663" lon="-1.44672"><ele>53.24</ele></trkpt><trkpt lat="48.19668" lon="-1.44663"><ele>53.36</ele></trkpt><trkpt lat="48.19682" lon="-1.44645"><ele>53.48</ele></trkpt><trkpt lat="48.19694" lon="-1.44626"><ele>53.56</ele></trkpt><trkpt lat="48.197" lon="-1.44615"><ele>53.6</ele></trkpt><trkpt lat="48.19703" lon="-1.44602"><ele>53.55</ele></trkpt><trkpt lat="48.19708" lon="-1.44591"><ele>53.53</ele></trkpt><trkpt lat="48.19713" lon="-1.4458"><ele>53.45</ele></trkpt><trkpt lat="48.19718" lon="-1.44569"><ele>53.43</ele></trkpt><trkpt lat="48.19724" lon="-1.44557"><ele>53.49</ele></trkpt><trkpt lat="48.19726" lon="-1.44545"><ele>53.4</ele></trkpt><trkpt lat="48.19768" lon="-1.44441"><ele>53.5</ele></trkpt><trkpt lat="48.19779" lon="-1.44408"><ele>53.3</ele></trkpt><trkpt lat="48.19784" lon="-1.44393"><ele>53.47</ele></trkpt><trkpt lat="48.19788" lon="-1.44378"><ele>53.42</ele></trkpt><trkpt lat="48.19788" lon="-1.44375"><ele>53.31</ele></trkpt><trkpt lat="48.19795" lon="-1.4436"><ele>53.68</ele></trkpt><trkpt lat="48.19805" lon="-1.44363"><ele>54.48</ele></trkpt><trkpt lat="48.19813" lon="-1.44362"><ele>55.47</ele></trkpt><trkpt lat="48.19827" lon="-1.44355"><ele>56.8</ele></trkpt><trkpt lat="48.19833" lon="-1.4425"><ele>56.1</ele></trkpt><trkpt lat="48.19836" lon="-1.44207"><ele>56.39</ele></trkpt><trkpt lat="48.19824" lon="-1.44154"><ele>56.36</ele></trkpt><trkpt lat="48.19779" lon="-1.44045"><ele>54.9</ele></trkpt><trkpt lat="48.19746" lon="-1.44014"><ele>54.17</ele></trkpt><trkpt lat="48.196" lon="-1.43945"><ele>52.53</ele></trkpt><trkpt lat="48.19549" lon="-1.4394"><ele>53.33</ele></trkpt><trkpt lat="48.19502" lon="-1.43973"><ele>53.31</ele></trkpt><trkpt lat="48.19451" lon="-1.43984"><ele>53.26</ele></trkpt><trkpt lat="48.19418" lon="-1.4398"><ele>53.26</ele></trkpt><trkpt lat="48.19406" lon="-1.43935"><ele>53.51</ele></trkpt><trkpt lat="48.19353" lon="-1.43872"><ele>53.53</ele></trkpt><trkpt lat="48.19352" lon="-1.43782"><ele>53.44</ele></trkpt><trkpt lat="48.19351" lon="-1.43726"><ele>53.61</ele></trkpt><trkpt lat="48.19329" lon="-1.43714"><ele>53.33</ele></trkpt><trkpt lat="48.19281" lon="-1.43653"><ele>53.49</ele></trkpt><trkpt lat="48.19298" lon="-1.43631"><ele>53.52</ele></trkpt><trkpt lat="48.19298" lon="-1.43553"><ele>54.09</ele></trkpt><trkpt lat="48.19143" lon="-1.4356"><ele>68.2</ele></trkpt><trkpt lat="48.18935" lon="-1.43593"><ele>69.26</ele></trkpt><trkpt lat="48.18751" lon="-1.43643"><ele>80.66</ele></trkpt><trkpt lat="48.18563" lon="-1.43762"><ele>89.83</ele></trkpt></trkseg></trk></gpx>
