<?xml version="1.0" encoding="UTF-8" standalone="no"?>
<gpx xmlns="http://www.topografix.com/GPX/1/1" version="1.1" xmlns:xsi="http://www.w3.org/2001/XMLSchema-instance" xsi:schemaLocation="http://www.topografix.com/GPX/1/1 http://www.topografix.com/GPX/1/1/gpx.xsd" creator="Cirkwi"><metadata><name><![CDATA[Livré sur Changeon - La Balade de Saint-Mauron]]></name><desc><![CDATA[Départ parking du complexe sportif rue du Bois Hamon (niveau du rond point) Après avoir quitté la le bourg le circuit nous emmène jusqu'à la chapelle Saint-Anne (1638) et sa légende de Saint-Mauron. La randonnée se poursuit au travers de la campagne bocagère et ses  nombreux petits cours d'eau ce qui rend quelques passages humides. En chemin un riche patrimoine, l'étang de Changeon. Le retour se fait par la route après avoir laissé le GR 37.]]></desc><author><name><![CDATA[UTL Rennes]]></name></author><time>2025-11-18T12:17:34Z</time></metadata><wpt lat="48.2275" lon="-1.3655"><ele>91</ele><name><![CDATA[raccourci pour un circuit plus court  9 km300]]></name><desc><![CDATA[variante pour éviter un dénivelé et l'humidité du bord de l'étang]]></desc></wpt><wpt lat="48.2161" lon="-1.35894"><ele>108</ele><name><![CDATA[raccourci pour un circuit plus court  9 km300]]></name><desc><![CDATA[Quitter le tracé du circuit long. Le retour au parking se fait par la petite route sur 700m.]]></desc></wpt><trk><trkseg><trkpt lat="48.22034" lon="-1.34774"><ele>115.57</ele></trkpt><trkpt lat="48.22035" lon="-1.34773"><ele>115.57</ele></trkpt><trkpt lat="48.22037" lon="-1.34772"><ele>115.93</ele></trkpt><trkpt lat="48.22038" lon="-1.34771"><ele>115.94</ele></trkpt><trkpt lat="48.22039" lon="-1.34769"><ele>115.94</ele></trkpt><trkpt lat="48.22039" lon="-1.34768"><ele>115.94</ele></trkpt><trkpt lat="48.2204" lon="-1.34765"><ele>115.98</ele></trkpt><trkpt lat="48.22041" lon="-1.34761"><ele>116.05</ele></trkpt><trkpt lat="48.22042" lon="-1.34759"><ele>116.24</ele></trkpt><trkpt lat="48.22043" lon="-1.34757"><ele>116.28</ele></trkpt><trkpt lat="48.22045" lon="-1.34754"><ele>116.37</ele></trkpt><trkpt lat="48.22047" lon="-1.34751"><ele>116.56</ele></trkpt><trkpt lat="48.22049" lon="-1.3475"><ele>116.56</ele></trkpt><trkpt lat="48.2205" lon="-1.34748"><ele>116.82</ele></trkpt><trkpt lat="48.22055" lon="-1.34743"><ele>117.01</ele></trkpt><trkpt lat="48.22059" lon="-1.34739"><ele>117.17</ele></trkpt><trkpt lat="48.2207" lon="-1.34728"><ele>117.41</ele></trkpt><trkpt lat="48.22082" lon="-1.34717"><ele>117.6</ele></trkpt><trkpt lat="48.22085" lon="-1.34714"><ele>117.67</ele></trkpt><trkpt lat="48.22088" lon="-1.34712"><ele>117.67</ele></trkpt><trkpt lat="48.221" lon="-1.347"><ele>117.99</ele></trkpt><trkpt lat="48.22106" lon="-1.34694"><ele>118.02</ele></trkpt><trkpt lat="48.22116" lon="-1.3468"><ele>118.3</ele></trkpt><trkpt lat="48.22126" lon="-1.34667"><ele>118.41</ele></trkpt><trkpt lat="48.22135" lon="-1.34651"><ele>118.59</ele></trkpt><trkpt lat="48.22143" lon="-1.34635"><ele>118.4</ele></trkpt><trkpt lat="48.22154" lon="-1.34645"><ele>118.48</ele></trkpt><trkpt lat="48.22164" lon="-1.34654"><ele>118.5</ele></trkpt><trkpt lat="48.22176" lon="-1.34665"><ele>118.49</ele></trkpt><trkpt lat="48.22188" lon="-1.34676"><ele>118.35</ele></trkpt><trkpt lat="48.22197" lon="-1.34684"><ele>118.3</ele></trkpt><trkpt lat="48.22203" lon="-1.3469"><ele>118.37</ele></trkpt><trkpt lat="48.22206" lon="-1.34694"><ele>118.22</ele></trkpt><trkpt lat="48.22211" lon="-1.34699"><ele>118.06</ele></trkpt><trkpt lat="48.22212" lon="-1.347"><ele>118.06</ele></trkpt><trkpt lat="48.22213" lon="-1.34702"><ele>117.95</ele></trkpt><trkpt lat="48.22223" lon="-1.34714"><ele>118</ele></trkpt><trkpt lat="48.22231" lon="-1.34724"><ele>117.85</ele></trkpt><trkpt lat="48.22238" lon="-1.34734"><ele>117.9</ele></trkpt><trkpt lat="48.22255" lon="-1.34759"><ele>117.87</ele></trkpt><trkpt lat="48.22271" lon="-1.34782"><ele>117.61</ele></trkpt><trkpt lat="48.22279" lon="-1.34795"><ele>117.43</ele></trkpt><trkpt lat="48.22335" lon="-1.34963"><ele>115.95</ele></trkpt><trkpt lat="48.22339" lon="-1.34957"><ele>115.98</ele></trkpt><trkpt lat="48.22341" lon="-1.3497"><ele>115.82</ele></trkpt><trkpt lat="48.22345" lon="-1.34989"><ele>115.59</ele></trkpt><trkpt lat="48.22351" lon="-1.3501"><ele>115.31</ele></trkpt><trkpt lat="48.22355" lon="-1.35026"><ele>115.11</ele></trkpt><trkpt lat="48.22361" lon="-1.35042"><ele>114.97</ele></trkpt><trkpt lat="48.22366" lon="-1.35056"><ele>114.86</ele></trkpt><trkpt lat="48.2237" lon="-1.35065"><ele>114.8</ele></trkpt><trkpt lat="48.22376" lon="-1.35077"><ele>114.69</ele></trkpt><trkpt lat="48.22381" lon="-1.35089"><ele>114.53</ele></trkpt><trkpt lat="48.22385" lon="-1.35097"><ele>114.5</ele></trkpt><trkpt lat="48.22394" lon="-1.35112"><ele>114.3</ele></trkpt><trkpt lat="48.22403" lon="-1.35126"><ele>114.2</ele></trkpt><trkpt lat="48.22416" lon="-1.35145"><ele>113.95</ele></trkpt><trkpt lat="48.22428" lon="-1.3516"><ele>113.61</ele></trkpt><trkpt lat="48.2243" lon="-1.35162"><ele>113.57</ele></trkpt><trkpt lat="48.22433" lon="-1.35165"><ele>113.49</ele></trkpt><trkpt lat="48.22444" lon="-1.35176"><ele>113.22</ele></trkpt><trkpt lat="48.22453" lon="-1.35184"><ele>112.89</ele></trkpt><trkpt lat="48.22455" lon="-1.35186"><ele>112.77</ele></trkpt><trkpt lat="48.22459" lon="-1.35189"><ele>112.63</ele></trkpt><trkpt lat="48.22463" lon="-1.35191"><ele>112.53</ele></trkpt><trkpt lat="48.22467" lon="-1.35194"><ele>112.34</ele></trkpt><trkpt lat="48.22482" lon="-1.35203"><ele>111.93</ele></trkpt><trkpt lat="48.22496" lon="-1.35211"><ele>111.18</ele></trkpt><trkpt lat="48.2251" lon="-1.35219"><ele>110.65</ele></trkpt><trkpt lat="48.22524" lon="-1.35225"><ele>110.01</ele></trkpt><trkpt lat="48.2253" lon="-1.35227"><ele>109.74</ele></trkpt><trkpt lat="48.22537" lon="-1.35229"><ele>109.13</ele></trkpt><trkpt lat="48.22545" lon="-1.35231"><ele>108.61</ele></trkpt><trkpt lat="48.22551" lon="-1.35231"><ele>108.36</ele></trkpt><trkpt lat="48.22556" lon="-1.35231"><ele>108.08</ele></trkpt><trkpt lat="48.22563" lon="-1.3523"><ele>107.5</ele></trkpt><trkpt lat="48.22571" lon="-1.35229"><ele>106.76</ele></trkpt><trkpt lat="48.22576" lon="-1.35227"><ele>106.54</ele></trkpt><trkpt lat="48.2258" lon="-1.35226"><ele>106.01</ele></trkpt><trkpt lat="48.22585" lon="-1.35223"><ele>105.78</ele></trkpt><trkpt lat="48.22589" lon="-1.35221"><ele>105.18</ele></trkpt><trkpt lat="48.22592" lon="-1.35219"><ele>104.94</ele></trkpt><trkpt lat="48.22594" lon="-1.35216"><ele>104.77</ele></trkpt><trkpt lat="48.22596" lon="-1.35213"><ele>104.57</ele></trkpt><trkpt lat="48.22599" lon="-1.35207"><ele>104.53</ele></trkpt><trkpt lat="48.22608" lon="-1.35214"><ele>103.88</ele></trkpt><trkpt lat="48.22612" lon="-1.35217"><ele>103.68</ele></trkpt><trkpt lat="48.22614" lon="-1.35212"><ele>103.73</ele></trkpt><trkpt lat="48.22617" lon="-1.35208"><ele>103.39</ele></trkpt><trkpt lat="48.22619" lon="-1.35206"><ele>103.39</ele></trkpt><trkpt lat="48.22622" lon="-1.35204"><ele>103.02</ele></trkpt><trkpt lat="48.22626" lon="-1.35201"><ele>102.71</ele></trkpt><trkpt lat="48.22634" lon="-1.35196"><ele>102.52</ele></trkpt><trkpt lat="48.22641" lon="-1.35191"><ele>102.17</ele></trkpt><trkpt lat="48.22649" lon="-1.35187"><ele>101.62</ele></trkpt><trkpt lat="48.2267" lon="-1.35175"><ele>100.13</ele></trkpt><trkpt lat="48.22689" lon="-1.35165"><ele>98.6</ele></trkpt><trkpt lat="48.22716" lon="-1.3515"><ele>96.62</ele></trkpt><trkpt lat="48.22733" lon="-1.35141"><ele>95.65</ele></trkpt><trkpt lat="48.22746" lon="-1.35135"><ele>94.62</ele></trkpt><trkpt lat="48.22779" lon="-1.35119"><ele>92.89</ele></trkpt><trkpt lat="48.22776" lon="-1.3511"><ele>92.34</ele></trkpt><trkpt lat="48.22773" lon="-1.35099"><ele>91.72</ele></trkpt><trkpt lat="48.22771" lon="-1.35091"><ele>91.07</ele></trkpt><trkpt lat="48.2277" lon="-1.35082"><ele>90.78</ele></trkpt><trkpt lat="48.22769" lon="-1.35074"><ele>90.61</ele></trkpt><trkpt lat="48.22769" lon="-1.35066"><ele>90.38</ele></trkpt><trkpt lat="48.2277" lon="-1.35053"><ele>90.12</ele></trkpt><trkpt lat="48.2277" lon="-1.35045"><ele>89.89</ele></trkpt><trkpt lat="48.22771" lon="-1.35038"><ele>89.71</ele></trkpt><trkpt lat="48.22772" lon="-1.35031"><ele>89.48</ele></trkpt><trkpt lat="48.22773" lon="-1.35026"><ele>89.38</ele></trkpt><trkpt lat="48.22774" lon="-1.35025"><ele>89.38</ele></trkpt><trkpt lat="48.22775" lon="-1.35022"><ele>89.31</ele></trkpt><trkpt lat="48.22777" lon="-1.35017"><ele>89.3</ele></trkpt><trkpt lat="48.22779" lon="-1.35012"><ele>89.34</ele></trkpt><trkpt lat="48.22782" lon="-1.35009"><ele>89.3</ele></trkpt><trkpt lat="48.22785" lon="-1.35003"><ele>89.19</ele></trkpt><trkpt lat="48.22788" lon="-1.35"><ele>89.01</ele></trkpt><trkpt lat="48.22792" lon="-1.34996"><ele>89.01</ele></trkpt><trkpt lat="48.22799" lon="-1.34991"><ele>88.65</ele></trkpt><trkpt lat="48.22803" lon="-1.34988"><ele>88.47</ele></trkpt><trkpt lat="48.22809" lon="-1.34985"><ele>88.31</ele></trkpt><trkpt lat="48.22813" lon="-1.34982"><ele>88.11</ele></trkpt><trkpt lat="48.22816" lon="-1.34981"><ele>87.89</ele></trkpt><trkpt lat="48.22821" lon="-1.34978"><ele>87.5</ele></trkpt><trkpt lat="48.22828" lon="-1.34976"><ele>86.56</ele></trkpt><trkpt lat="48.22834" lon="-1.34974"><ele>86.16</ele></trkpt><trkpt lat="48.22842" lon="-1.34973"><ele>85.91</ele></trkpt><trkpt lat="48.22854" lon="-1.3497"><ele>85.66</ele></trkpt><trkpt lat="48.2286" lon="-1.34969"><ele>85.56</ele></trkpt><trkpt lat="48.22863" lon="-1.34969"><ele>85.47</ele></trkpt><trkpt lat="48.22868" lon="-1.34969"><ele>85.4</ele></trkpt><trkpt lat="48.22871" lon="-1.34971"><ele>85.35</ele></trkpt><trkpt lat="48.22874" lon="-1.34975"><ele>85.29</ele></trkpt><trkpt lat="48.22879" lon="-1.34982"><ele>85.24</ele></trkpt><trkpt lat="48.22884" lon="-1.34992"><ele>85.35</ele></trkpt><trkpt lat="48.2289" lon="-1.35003"><ele>85.57</ele></trkpt><trkpt lat="48.22894" lon="-1.35011"><ele>85.72</ele></trkpt><trkpt lat="48.229" lon="-1.35023"><ele>85.53</ele></trkpt><trkpt lat="48.22905" lon="-1.3504"><ele>85.69</ele></trkpt><trkpt lat="48.22908" lon="-1.35049"><ele>85.72</ele></trkpt><trkpt lat="48.22909" lon="-1.35057"><ele>85.86</ele></trkpt><trkpt lat="48.22913" lon="-1.35056"><ele>85.61</ele></trkpt><trkpt lat="48.22917" lon="-1.35054"><ele>85.34</ele></trkpt><trkpt lat="48.2293" lon="-1.35048"><ele>84.98</ele></trkpt><trkpt lat="48.22942" lon="-1.35042"><ele>84.62</ele></trkpt><trkpt lat="48.22949" lon="-1.3504"><ele>84.55</ele></trkpt><trkpt lat="48.22957" lon="-1.35037"><ele>84.25</ele></trkpt><trkpt lat="48.22964" lon="-1.35036"><ele>84.03</ele></trkpt><trkpt lat="48.22969" lon="-1.35035"><ele>83.92</ele></trkpt><trkpt lat="48.22974" lon="-1.35036"><ele>83.82</ele></trkpt><trkpt lat="48.2298" lon="-1.35037"><ele>83.73</ele></trkpt><trkpt lat="48.22985" lon="-1.35038"><ele>83.8</ele></trkpt><trkpt lat="48.22996" lon="-1.35042"><ele>83.63</ele></trkpt><trkpt lat="48.2301" lon="-1.35047"><ele>83.29</ele></trkpt><trkpt lat="48.23024" lon="-1.35051"><ele>83.57</ele></trkpt><trkpt lat="48.23026" lon="-1.35052"><ele>83.57</ele></trkpt><trkpt lat="48.23029" lon="-1.35052"><ele>83.31</ele></trkpt><trkpt lat="48.23036" lon="-1.35055"><ele>83.1</ele></trkpt><trkpt lat="48.2304" lon="-1.35056"><ele>83.37</ele></trkpt><trkpt lat="48.23071" lon="-1.35067"><ele>85.26</ele></trkpt><trkpt lat="48.23081" lon="-1.3507"><ele>86.09</ele></trkpt><trkpt lat="48.23087" lon="-1.35074"><ele>86.7</ele></trkpt><trkpt lat="48.23093" lon="-1.3508"><ele>87.53</ele></trkpt><trkpt lat="48.23098" lon="-1.35088"><ele>88.12</ele></trkpt><trkpt lat="48.23103" lon="-1.35097"><ele>88.74</ele></trkpt><trkpt lat="48.23105" lon="-1.35105"><ele>89.08</ele></trkpt><trkpt lat="48.23108" lon="-1.35117"><ele>89.88</ele></trkpt><trkpt lat="48.23108" lon="-1.35121"><ele>90.08</ele></trkpt><trkpt lat="48.23108" lon="-1.35117"><ele>89.88</ele></trkpt><trkpt lat="48.23114" lon="-1.35121"><ele>90.48</ele></trkpt><trkpt lat="48.23126" lon="-1.35127"><ele>90.85</ele></trkpt><trkpt lat="48.23152" lon="-1.35143"><ele>91.92</ele></trkpt><trkpt lat="48.23168" lon="-1.35153"><ele>92.93</ele></trkpt><trkpt lat="48.23194" lon="-1.35169"><ele>95.42</ele></trkpt><trkpt lat="48.23214" lon="-1.35181"><ele>97.68</ele></trkpt><trkpt lat="48.2325" lon="-1.35206"><ele>101.75</ele></trkpt><trkpt lat="48.23264" lon="-1.35215"><ele>103.2</ele></trkpt><trkpt lat="48.23279" lon="-1.35224"><ele>104.5</ele></trkpt><trkpt lat="48.2329" lon="-1.35231"><ele>105.45</ele></trkpt><trkpt lat="48.23315" lon="-1.35248"><ele>106.95</ele></trkpt><trkpt lat="48.23334" lon="-1.3526"><ele>108.48</ele></trkpt><trkpt lat="48.23345" lon="-1.35267"><ele>108.99</ele></trkpt><trkpt lat="48.23358" lon="-1.35275"><ele>109.57</ele></trkpt><trkpt lat="48.23365" lon="-1.3528"><ele>109.9</ele></trkpt><trkpt lat="48.23373" lon="-1.35286"><ele>110.17</ele></trkpt><trkpt lat="48.23379" lon="-1.3529"><ele>110.33</ele></trkpt><trkpt lat="48.23386" lon="-1.35293"><ele>110.63</ele></trkpt><trkpt lat="48.2339" lon="-1.35295"><ele>110.83</ele></trkpt><trkpt lat="48.2347" lon="-1.35396"><ele>113.39</ele></trkpt><trkpt lat="48.23474" lon="-1.35396"><ele>113.56</ele></trkpt><trkpt lat="48.23478" lon="-1.35397"><ele>113.73</ele></trkpt><trkpt lat="48.23489" lon="-1.35398"><ele>113.95</ele></trkpt><trkpt lat="48.23495" lon="-1.35399"><ele>114.04</ele></trkpt><trkpt lat="48.23502" lon="-1.35402"><ele>114.2</ele></trkpt><trkpt lat="48.23513" lon="-1.35407"><ele>114.23</ele></trkpt><trkpt lat="48.23522" lon="-1.35411"><ele>114.66</ele></trkpt><trkpt lat="48.2353" lon="-1.35416"><ele>114.8</ele></trkpt><trkpt lat="48.23537" lon="-1.35421"><ele>115.03</ele></trkpt><trkpt lat="48.23544" lon="-1.35425"><ele>115.19</ele></trkpt><trkpt lat="48.23563" lon="-1.35437"><ele>115.36</ele></trkpt><trkpt lat="48.23619" lon="-1.35448"><ele>115.32</ele></trkpt><trkpt lat="48.23625" lon="-1.35448"><ele>115.22</ele></trkpt><trkpt lat="48.23631" lon="-1.35448"><ele>115.15</ele></trkpt><trkpt lat="48.23637" lon="-1.35447"><ele>115.08</ele></trkpt><trkpt lat="48.23641" lon="-1.35446"><ele>115.01</ele></trkpt><trkpt lat="48.23653" lon="-1.35448"><ele>114.83</ele></trkpt><trkpt lat="48.23668" lon="-1.3545"><ele>114.51</ele></trkpt><trkpt lat="48.23684" lon="-1.35452"><ele>114.31</ele></trkpt><trkpt lat="48.2369" lon="-1.35453"><ele>114.2</ele></trkpt><trkpt lat="48.23699" lon="-1.35453"><ele>114.09</ele></trkpt><trkpt lat="48.23709" lon="-1.35454"><ele>113.98</ele></trkpt><trkpt lat="48.23736" lon="-1.35457"><ele>113.52</ele></trkpt><trkpt lat="48.23751" lon="-1.35459"><ele>113.3</ele></trkpt><trkpt lat="48.23762" lon="-1.3546"><ele>113.2</ele></trkpt><trkpt lat="48.23774" lon="-1.35463"><ele>113.15</ele></trkpt><trkpt lat="48.23788" lon="-1.35464"><ele>113.32</ele></trkpt><trkpt lat="48.23802" lon="-1.35466"><ele>113.34</ele></trkpt><trkpt lat="48.23808" lon="-1.35467"><ele>113.25</ele></trkpt><trkpt lat="48.23816" lon="-1.35469"><ele>113</ele></trkpt><trkpt lat="48.23818" lon="-1.35469"><ele>112.89</ele></trkpt><trkpt lat="48.23822" lon="-1.3547"><ele>112.89</ele></trkpt><trkpt lat="48.23829" lon="-1.35469"><ele>112.69</ele></trkpt><trkpt lat="48.23834" lon="-1.3547"><ele>112.6</ele></trkpt><trkpt lat="48.23853" lon="-1.35476"><ele>112.22</ele></trkpt><trkpt lat="48.23874" lon="-1.35482"><ele>111.86</ele></trkpt><trkpt lat="48.23897" lon="-1.35488"><ele>111.51</ele></trkpt><trkpt lat="48.23922" lon="-1.35494"><ele>111.61</ele></trkpt><trkpt lat="48.23952" lon="-1.35502"><ele>112.53</ele></trkpt><trkpt lat="48.23976" lon="-1.35509"><ele>113.15</ele></trkpt><trkpt lat="48.24004" lon="-1.35517"><ele>114.1</ele></trkpt><trkpt lat="48.2403" lon="-1.35524"><ele>114.7</ele></trkpt><trkpt lat="48.24041" lon="-1.35526"><ele>114.64</ele></trkpt><trkpt lat="48.24053" lon="-1.35527"><ele>114.6</ele></trkpt><trkpt lat="48.24057" lon="-1.35527"><ele>114.6</ele></trkpt><trkpt lat="48.24066" lon="-1.35526"><ele>114.6</ele></trkpt><trkpt lat="48.24074" lon="-1.35525"><ele>114.68</ele></trkpt><trkpt lat="48.24081" lon="-1.35523"><ele>114.68</ele></trkpt><trkpt lat="48.24087" lon="-1.35521"><ele>114.58</ele></trkpt><trkpt lat="48.24099" lon="-1.35517"><ele>114.29</ele></trkpt><trkpt lat="48.24113" lon="-1.35512"><ele>114</ele></trkpt><trkpt lat="48.24127" lon="-1.35507"><ele>113.54</ele></trkpt><trkpt lat="48.24145" lon="-1.355"><ele>113.07</ele></trkpt><trkpt lat="48.24164" lon="-1.35493"><ele>112.71</ele></trkpt><trkpt lat="48.24174" lon="-1.3549"><ele>112.56</ele></trkpt><trkpt lat="48.24183" lon="-1.35486"><ele>112.45</ele></trkpt><trkpt lat="48.24207" lon="-1.35477"><ele>111.61</ele></trkpt><trkpt lat="48.24228" lon="-1.35469"><ele>110.84</ele></trkpt><trkpt lat="48.2424" lon="-1.35464"><ele>110.59</ele></trkpt><trkpt lat="48.24251" lon="-1.35459"><ele>110.39</ele></trkpt><trkpt lat="48.24271" lon="-1.35452"><ele>110.06</ele></trkpt><trkpt lat="48.24291" lon="-1.35445"><ele>109.83</ele></trkpt><trkpt lat="48.24304" lon="-1.3544"><ele>109.89</ele></trkpt><trkpt lat="48.24318" lon="-1.35435"><ele>110.01</ele></trkpt><trkpt lat="48.24326" lon="-1.35432"><ele>110.1</ele></trkpt><trkpt lat="48.24334" lon="-1.3543"><ele>110.2</ele></trkpt><trkpt lat="48.24342" lon="-1.35426"><ele>110.42</ele></trkpt><trkpt lat="48.24349" lon="-1.35423"><ele>110.57</ele></trkpt><trkpt lat="48.24365" lon="-1.35417"><ele>110.94</ele></trkpt><trkpt lat="48.24382" lon="-1.35411"><ele>111.32</ele></trkpt><trkpt lat="48.24401" lon="-1.35404"><ele>111.82</ele></trkpt><trkpt lat="48.2442" lon="-1.35396"><ele>112.19</ele></trkpt><trkpt lat="48.24435" lon="-1.35391"><ele>112.33</ele></trkpt><trkpt lat="48.2445" lon="-1.35386"><ele>112.5</ele></trkpt><trkpt lat="48.24462" lon="-1.35381"><ele>112.44</ele></trkpt><trkpt lat="48.24477" lon="-1.35374"><ele>112.4</ele></trkpt><trkpt lat="48.24487" lon="-1.3537"><ele>112.36</ele></trkpt><trkpt lat="48.24497" lon="-1.35366"><ele>112.3</ele></trkpt><trkpt lat="48.245" lon="-1.35364"><ele>112.3</ele></trkpt><trkpt lat="48.2451" lon="-1.35361"><ele>112.2</ele></trkpt><trkpt lat="48.24525" lon="-1.35356"><ele>112.1</ele></trkpt><trkpt lat="48.24529" lon="-1.35354"><ele>112.02</ele></trkpt><trkpt lat="48.24536" lon="-1.35353"><ele>112</ele></trkpt><trkpt lat="48.24566" lon="-1.35418"><ele>112.56</ele></trkpt><trkpt lat="48.24555" lon="-1.35438"><ele>113.1</ele></trkpt><trkpt lat="48.24547" lon="-1.35454"><ele>113.3</ele></trkpt><trkpt lat="48.24538" lon="-1.35472"><ele>113.3</ele></trkpt><trkpt lat="48.24526" lon="-1.35494"><ele>113.36</ele></trkpt><trkpt lat="48.24517" lon="-1.35513"><ele>113.38</ele></trkpt><trkpt lat="48.24507" lon="-1.35531"><ele>113.67</ele></trkpt><trkpt lat="48.24497" lon="-1.3555"><ele>113.61</ele></trkpt><trkpt lat="48.2449" lon="-1.35564"><ele>113.58</ele></trkpt><trkpt lat="48.24481" lon="-1.3558"><ele>113.64</ele></trkpt><trkpt lat="48.24472" lon="-1.35599"><ele>113.69</ele></trkpt><trkpt lat="48.24467" lon="-1.35607"><ele>113.71</ele></trkpt><trkpt lat="48.24462" lon="-1.3562"><ele>113.79</ele></trkpt><trkpt lat="48.24456" lon="-1.35635"><ele>113.8</ele></trkpt><trkpt lat="48.2445" lon="-1.35649"><ele>113.87</ele></trkpt><trkpt lat="48.24443" lon="-1.35663"><ele>113.9</ele></trkpt><trkpt lat="48.24434" lon="-1.35684"><ele>114</ele></trkpt><trkpt lat="48.24425" lon="-1.35706"><ele>114.1</ele></trkpt><trkpt lat="48.24414" lon="-1.35733"><ele>114.08</ele></trkpt><trkpt lat="48.2441" lon="-1.35742"><ele>114.05</ele></trkpt><trkpt lat="48.24408" lon="-1.35745"><ele>113.98</ele></trkpt><trkpt lat="48.24406" lon="-1.35748"><ele>113.99</ele></trkpt><trkpt lat="48.24402" lon="-1.35753"><ele>113.98</ele></trkpt><trkpt lat="48.24397" lon="-1.35757"><ele>114.09</ele></trkpt><trkpt lat="48.24397" lon="-1.35762"><ele>114.19</ele></trkpt><trkpt lat="48.24395" lon="-1.35767"><ele>114.3</ele></trkpt><trkpt lat="48.24387" lon="-1.35788"><ele>114.39</ele></trkpt><trkpt lat="48.24377" lon="-1.35813"><ele>114.31</ele></trkpt><trkpt lat="48.24366" lon="-1.35837"><ele>114.26</ele></trkpt><trkpt lat="48.24354" lon="-1.35863"><ele>114.13</ele></trkpt><trkpt lat="48.24337" lon="-1.35901"><ele>113.92</ele></trkpt><trkpt lat="48.2432" lon="-1.35939"><ele>114</ele></trkpt><trkpt lat="48.24307" lon="-1.35968"><ele>113.82</ele></trkpt><trkpt lat="48.24295" lon="-1.35996"><ele>113.62</ele></trkpt><trkpt lat="48.24279" lon="-1.36032"><ele>113.49</ele></trkpt><trkpt lat="48.24263" lon="-1.36068"><ele>113.43</ele></trkpt><trkpt lat="48.24254" lon="-1.36088"><ele>113.42</ele></trkpt><trkpt lat="48.24245" lon="-1.36109"><ele>113.2</ele></trkpt><trkpt lat="48.2424" lon="-1.3612"><ele>113.02</ele></trkpt><trkpt lat="48.24236" lon="-1.36131"><ele>112.98</ele></trkpt><trkpt lat="48.24219" lon="-1.36169"><ele>112.95</ele></trkpt><trkpt lat="48.24212" lon="-1.36162"><ele>113.16</ele></trkpt><trkpt lat="48.24206" lon="-1.36155"><ele>113.41</ele></trkpt><trkpt lat="48.24192" lon="-1.36141"><ele>113.88</ele></trkpt><trkpt lat="48.2418" lon="-1.36127"><ele>114.44</ele></trkpt><trkpt lat="48.24164" lon="-1.36107"><ele>115.15</ele></trkpt><trkpt lat="48.24148" lon="-1.36087"><ele>115.96</ele></trkpt><trkpt lat="48.24131" lon="-1.36066"><ele>116.67</ele></trkpt><trkpt lat="48.24121" lon="-1.36055"><ele>116.94</ele></trkpt><trkpt lat="48.24108" lon="-1.36041"><ele>117.39</ele></trkpt><trkpt lat="48.24096" lon="-1.36027"><ele>117.78</ele></trkpt><trkpt lat="48.24081" lon="-1.36009"><ele>118.14</ele></trkpt><trkpt lat="48.24067" lon="-1.35991"><ele>118.5</ele></trkpt><trkpt lat="48.24058" lon="-1.35981"><ele>118.8</ele></trkpt><trkpt lat="48.24045" lon="-1.35968"><ele>118.95</ele></trkpt><trkpt lat="48.24033" lon="-1.35955"><ele>118.86</ele></trkpt><trkpt lat="48.24023" lon="-1.35945"><ele>118.7</ele></trkpt><trkpt lat="48.24009" lon="-1.35932"><ele>118.45</ele></trkpt><trkpt lat="48.23989" lon="-1.35912"><ele>117.87</ele></trkpt><trkpt lat="48.23975" lon="-1.35899"><ele>117.8</ele></trkpt><trkpt lat="48.23928" lon="-1.35855"><ele>117.19</ele></trkpt><trkpt lat="48.23899" lon="-1.35828"><ele>116.69</ele></trkpt><trkpt lat="48.23863" lon="-1.35794"><ele>116.3</ele></trkpt><trkpt lat="48.23841" lon="-1.35772"><ele>116.2</ele></trkpt><trkpt lat="48.2383" lon="-1.35761"><ele>116.33</ele></trkpt><trkpt lat="48.23824" lon="-1.35759"><ele>116.39</ele></trkpt><trkpt lat="48.23819" lon="-1.35756"><ele>116.4</ele></trkpt><trkpt lat="48.2382" lon="-1.3576"><ele>116.4</ele></trkpt><trkpt lat="48.2382" lon="-1.35765"><ele>116.39</ele></trkpt><trkpt lat="48.23819" lon="-1.3577"><ele>116.36</ele></trkpt><trkpt lat="48.23818" lon="-1.35774"><ele>116.37</ele></trkpt><trkpt lat="48.23815" lon="-1.35782"><ele>116.42</ele></trkpt><trkpt lat="48.23809" lon="-1.35796"><ele>116.6</ele></trkpt><trkpt lat="48.238" lon="-1.35818"><ele>116.75</ele></trkpt><trkpt lat="48.2379" lon="-1.35841"><ele>116.82</ele></trkpt><trkpt lat="48.2378" lon="-1.35867"><ele>116.9</ele></trkpt><trkpt lat="48.23769" lon="-1.35893"><ele>117</ele></trkpt><trkpt lat="48.23762" lon="-1.35908"><ele>117.27</ele></trkpt><trkpt lat="48.23756" lon="-1.35923"><ele>117.97</ele></trkpt><trkpt lat="48.23748" lon="-1.35942"><ele>118.29</ele></trkpt><trkpt lat="48.23743" lon="-1.35952"><ele>118.31</ele></trkpt><trkpt lat="48.23748" lon="-1.35956"><ele>118.38</ele></trkpt><trkpt lat="48.2375" lon="-1.35958"><ele>118.41</ele></trkpt><trkpt lat="48.23752" lon="-1.3596"><ele>118.41</ele></trkpt><trkpt lat="48.23747" lon="-1.35973"><ele>118.28</ele></trkpt><trkpt lat="48.23735" lon="-1.35998"><ele>118.2</ele></trkpt><trkpt lat="48.23729" lon="-1.36011"><ele>118.3</ele></trkpt><trkpt lat="48.23717" lon="-1.36032"><ele>118.46</ele></trkpt><trkpt lat="48.2371" lon="-1.36047"><ele>118.5</ele></trkpt><trkpt lat="48.23702" lon="-1.36061"><ele>118.47</ele></trkpt><trkpt lat="48.23697" lon="-1.3607"><ele>118.4</ele></trkpt><trkpt lat="48.23689" lon="-1.36087"><ele>118.53</ele></trkpt><trkpt lat="48.23682" lon="-1.36102"><ele>118.7</ele></trkpt><trkpt lat="48.23677" lon="-1.36111"><ele>118.6</ele></trkpt><trkpt lat="48.23674" lon="-1.36119"><ele>118.54</ele></trkpt><trkpt lat="48.23665" lon="-1.36139"><ele>118.4</ele></trkpt><trkpt lat="48.23657" lon="-1.36157"><ele>118.3</ele></trkpt><trkpt lat="48.23654" lon="-1.36164"><ele>118.3</ele></trkpt><trkpt lat="48.23649" lon="-1.36178"><ele>118.24</ele></trkpt><trkpt lat="48.23644" lon="-1.36191"><ele>118.19</ele></trkpt><trkpt lat="48.2364" lon="-1.36198"><ele>118.1</ele></trkpt><trkpt lat="48.23632" lon="-1.36214"><ele>117.89</ele></trkpt><trkpt lat="48.23624" lon="-1.36231"><ele>117.58</ele></trkpt><trkpt lat="48.2362" lon="-1.36238"><ele>117.59</ele></trkpt><trkpt lat="48.23618" lon="-1.36241"><ele>117.6</ele></trkpt><trkpt lat="48.23611" lon="-1.3625"><ele>117.55</ele></trkpt><trkpt lat="48.23605" lon="-1.36258"><ele>117.56</ele></trkpt><trkpt lat="48.23603" lon="-1.36261"><ele>117.5</ele></trkpt><trkpt lat="48.23601" lon="-1.36262"><ele>117.5</ele></trkpt><trkpt lat="48.23596" lon="-1.36264"><ele>117.48</ele></trkpt><trkpt lat="48.23594" lon="-1.36265"><ele>117.41</ele></trkpt><trkpt lat="48.23592" lon="-1.36264"><ele>117.41</ele></trkpt><trkpt lat="48.23582" lon="-1.36293"><ele>117.25</ele></trkpt><trkpt lat="48.23578" lon="-1.36302"><ele>117.14</ele></trkpt><trkpt lat="48.23572" lon="-1.36315"><ele>116.95</ele></trkpt><trkpt lat="48.23567" lon="-1.36328"><ele>116.82</ele></trkpt><trkpt lat="48.23553" lon="-1.36358"><ele>116.38</ele></trkpt><trkpt lat="48.23548" lon="-1.3637"><ele>116.21</ele></trkpt><trkpt lat="48.23542" lon="-1.36383"><ele>115.93</ele></trkpt><trkpt lat="48.23535" lon="-1.36395"><ele>115.78</ele></trkpt><trkpt lat="48.2353" lon="-1.36404"><ele>115.52</ele></trkpt><trkpt lat="48.23524" lon="-1.36412"><ele>115.34</ele></trkpt><trkpt lat="48.23523" lon="-1.36413"><ele>115.34</ele></trkpt><trkpt lat="48.23521" lon="-1.36414"><ele>115.22</ele></trkpt><trkpt lat="48.23518" lon="-1.36414"><ele>115.22</ele></trkpt><trkpt lat="48.23512" lon="-1.36414"><ele>115.01</ele></trkpt><trkpt lat="48.23506" lon="-1.36414"><ele>114.91</ele></trkpt><trkpt lat="48.23502" lon="-1.36413"><ele>114.81</ele></trkpt><trkpt lat="48.23495" lon="-1.36412"><ele>114.6</ele></trkpt><trkpt lat="48.23486" lon="-1.3641"><ele>114.39</ele></trkpt><trkpt lat="48.23471" lon="-1.36407"><ele>114.15</ele></trkpt><trkpt lat="48.23465" lon="-1.36405"><ele>113.88</ele></trkpt><trkpt lat="48.23458" lon="-1.36405"><ele>113.73</ele></trkpt><trkpt lat="48.23451" lon="-1.36404"><ele>113.45</ele></trkpt><trkpt lat="48.23438" lon="-1.36401"><ele>112.97</ele></trkpt><trkpt lat="48.23425" lon="-1.36399"><ele>112.48</ele></trkpt><trkpt lat="48.23409" lon="-1.36396"><ele>111.79</ele></trkpt><trkpt lat="48.23401" lon="-1.36394"><ele>111.49</ele></trkpt><trkpt lat="48.23393" lon="-1.36393"><ele>111.32</ele></trkpt><trkpt lat="48.23385" lon="-1.36392"><ele>111.14</ele></trkpt><trkpt lat="48.2338" lon="-1.36392"><ele>111.05</ele></trkpt><trkpt lat="48.23376" lon="-1.36392"><ele>110.93</ele></trkpt><trkpt lat="48.23371" lon="-1.36393"><ele>110.57</ele></trkpt><trkpt lat="48.23367" lon="-1.36394"><ele>110.44</ele></trkpt><trkpt lat="48.23365" lon="-1.36396"><ele>110.44</ele></trkpt><trkpt lat="48.23361" lon="-1.36401"><ele>110.41</ele></trkpt><trkpt lat="48.23356" lon="-1.36405"><ele>110.41</ele></trkpt><trkpt lat="48.23353" lon="-1.3641"><ele>110.45</ele></trkpt><trkpt lat="48.23221" lon="-1.36498"><ele>112.05</ele></trkpt><trkpt lat="48.2321" lon="-1.36501"><ele>112.11</ele></trkpt><trkpt lat="48.23194" lon="-1.36505"><ele>112.4</ele></trkpt><trkpt lat="48.23168" lon="-1.36516"><ele>112.62</ele></trkpt><trkpt lat="48.23154" lon="-1.36523"><ele>112.61</ele></trkpt><trkpt lat="48.23143" lon="-1.36528"><ele>112.9</ele></trkpt><trkpt lat="48.23132" lon="-1.36533"><ele>112.65</ele></trkpt><trkpt lat="48.23119" lon="-1.36537"><ele>112.5</ele></trkpt><trkpt lat="48.23115" lon="-1.36539"><ele>112.45</ele></trkpt><trkpt lat="48.23112" lon="-1.36543"><ele>112.41</ele></trkpt><trkpt lat="48.23108" lon="-1.36541"><ele>112.36</ele></trkpt><trkpt lat="48.23104" lon="-1.36538"><ele>112.21</ele></trkpt><trkpt lat="48.23084" lon="-1.36529"><ele>111.83</ele></trkpt><trkpt lat="48.23065" lon="-1.36521"><ele>111.43</ele></trkpt><trkpt lat="48.2304" lon="-1.36509"><ele>110.65</ele></trkpt><trkpt lat="48.23026" lon="-1.36502"><ele>110.1</ele></trkpt><trkpt lat="48.23022" lon="-1.365"><ele>109.84</ele></trkpt><trkpt lat="48.22982" lon="-1.36477"><ele>107.83</ele></trkpt><trkpt lat="48.22926" lon="-1.36458"><ele>103.93</ele></trkpt><trkpt lat="48.22881" lon="-1.36442"><ele>100.27</ele></trkpt><trkpt lat="48.22863" lon="-1.36435"><ele>98.68</ele></trkpt><trkpt lat="48.22837" lon="-1.36431"><ele>95.91</ele></trkpt><trkpt lat="48.2278" lon="-1.36422"><ele>91.44</ele></trkpt><trkpt lat="48.22732" lon="-1.36418"><ele>89.04</ele></trkpt><trkpt lat="48.22733" lon="-1.36411"><ele>88.89</ele></trkpt><trkpt lat="48.22733" lon="-1.36405"><ele>89.02</ele></trkpt><trkpt lat="48.22735" lon="-1.36398"><ele>89.02</ele></trkpt><trkpt lat="48.22736" lon="-1.36391"><ele>88.8</ele></trkpt><trkpt lat="48.2274" lon="-1.36381"><ele>89.07</ele></trkpt><trkpt lat="48.22743" lon="-1.36372"><ele>89.26</ele></trkpt><trkpt lat="48.22746" lon="-1.36366"><ele>89.44</ele></trkpt><trkpt lat="48.2275" lon="-1.36357"><ele>89.44</ele></trkpt><trkpt lat="48.22754" lon="-1.36349"><ele>89.55</ele></trkpt><trkpt lat="48.22759" lon="-1.36341"><ele>89.69</ele></trkpt><trkpt lat="48.22765" lon="-1.36331"><ele>89.98</ele></trkpt><trkpt lat="48.22777" lon="-1.36314"><ele>90.97</ele></trkpt><trkpt lat="48.22786" lon="-1.36301"><ele>91.68</ele></trkpt><trkpt lat="48.22795" lon="-1.36287"><ele>92.31</ele></trkpt><trkpt lat="48.22805" lon="-1.36272"><ele>93.55</ele></trkpt><trkpt lat="48.22759" lon="-1.362"><ele>84.16</ele></trkpt><trkpt lat="48.22743" lon="-1.36205"><ele>81.8</ele></trkpt><trkpt lat="48.22723" lon="-1.36209"><ele>79.05</ele></trkpt><trkpt lat="48.22714" lon="-1.36246"><ele>80.82</ele></trkpt><trkpt lat="48.22693" lon="-1.3627"><ele>80.25</ele></trkpt><trkpt lat="48.22685" lon="-1.36294"><ele>80.5</ele></trkpt><trkpt lat="48.22655" lon="-1.36336"><ele>79.12</ele></trkpt><trkpt lat="48.22643" lon="-1.36344"><ele>79.49</ele></trkpt><trkpt lat="48.22611" lon="-1.36396"><ele>78.59</ele></trkpt><trkpt lat="48.22587" lon="-1.36476"><ele>78.57</ele></trkpt><trkpt lat="48.22579" lon="-1.36549"><ele>78.39</ele></trkpt><trkpt lat="48.2258" lon="-1.36572"><ele>78.58</ele></trkpt><trkpt lat="48.22591" lon="-1.36608"><ele>78.78</ele></trkpt><trkpt lat="48.22604" lon="-1.36663"><ele>79.12</ele></trkpt><trkpt lat="48.22608" lon="-1.36709"><ele>78.73</ele></trkpt><trkpt lat="48.22607" lon="-1.36709"><ele>78.72</ele></trkpt><trkpt lat="48.22578" lon="-1.36727"><ele>78.75</ele></trkpt><trkpt lat="48.2254" lon="-1.36766"><ele>79.48</ele></trkpt><trkpt lat="48.22501" lon="-1.36816"><ele>80.75</ele></trkpt><trkpt lat="48.2249" lon="-1.36834"><ele>80.6</ele></trkpt><trkpt lat="48.22462" lon="-1.36897"><ele>81.85</ele></trkpt><trkpt lat="48.22437" lon="-1.36955"><ele>80.77</ele></trkpt><trkpt lat="48.2243" lon="-1.36963"><ele>80.33</ele></trkpt><trkpt lat="48.22425" lon="-1.36966"><ele>79.89</ele></trkpt><trkpt lat="48.2242" lon="-1.36967"><ele>78.71</ele></trkpt><trkpt lat="48.22416" lon="-1.36968"><ele>78.41</ele></trkpt><trkpt lat="48.22412" lon="-1.36967"><ele>78.38</ele></trkpt><trkpt lat="48.22413" lon="-1.36964"><ele>78.47</ele></trkpt><trkpt lat="48.22414" lon="-1.36959"><ele>78.55</ele></trkpt><trkpt lat="48.22415" lon="-1.36954"><ele>78.79</ele></trkpt><trkpt lat="48.22416" lon="-1.36947"><ele>78.86</ele></trkpt><trkpt lat="48.22416" lon="-1.36945"><ele>78.86</ele></trkpt><trkpt lat="48.22416" lon="-1.36942"><ele>78.98</ele></trkpt><trkpt lat="48.22416" lon="-1.36937"><ele>79.06</ele></trkpt><trkpt lat="48.22415" lon="-1.36935"><ele>79.06</ele></trkpt><trkpt lat="48.22415" lon="-1.36932"><ele>78.96</ele></trkpt><trkpt lat="48.22412" lon="-1.36926"><ele>79.02</ele></trkpt><trkpt lat="48.22407" lon="-1.36913"><ele>79.18</ele></trkpt><trkpt lat="48.22401" lon="-1.36898"><ele>79.01</ele></trkpt><trkpt lat="48.22388" lon="-1.36865"><ele>79.09</ele></trkpt><trkpt lat="48.22383" lon="-1.36853"><ele>78.99</ele></trkpt><trkpt lat="48.22376" lon="-1.36833"><ele>79.39</ele></trkpt><trkpt lat="48.22371" lon="-1.36817"><ele>77.23</ele></trkpt><trkpt lat="48.22369" lon="-1.36811"><ele>77.89</ele></trkpt><trkpt lat="48.22368" lon="-1.36808"><ele>79.82</ele></trkpt><trkpt lat="48.22364" lon="-1.36798"><ele>80.45</ele></trkpt><trkpt lat="48.22357" lon="-1.36778"><ele>81.73</ele></trkpt><trkpt lat="48.22346" lon="-1.36747"><ele>83.39</ele></trkpt><trkpt lat="48.22335" lon="-1.36717"><ele>85.24</ele></trkpt><trkpt lat="48.22329" lon="-1.367"><ele>86.05</ele></trkpt><trkpt lat="48.22323" lon="-1.36684"><ele>87.45</ele></trkpt><trkpt lat="48.22318" lon="-1.36671"><ele>88.3</ele></trkpt><trkpt lat="48.22315" lon="-1.36663"><ele>88.82</ele></trkpt><trkpt lat="48.22307" lon="-1.36647"><ele>90.04</ele></trkpt><trkpt lat="48.22302" lon="-1.36635"><ele>90.43</ele></trkpt><trkpt lat="48.22294" lon="-1.36623"><ele>91.19</ele></trkpt><trkpt lat="48.22286" lon="-1.3661"><ele>91.94</ele></trkpt><trkpt lat="48.2228" lon="-1.36599"><ele>92.91</ele></trkpt><trkpt lat="48.22276" lon="-1.36589"><ele>93.36</ele></trkpt><trkpt lat="48.22272" lon="-1.36578"><ele>93.81</ele></trkpt><trkpt lat="48.2227" lon="-1.36567"><ele>94.15</ele></trkpt><trkpt lat="48.22267" lon="-1.36548"><ele>94.91</ele></trkpt><trkpt lat="48.22263" lon="-1.36518"><ele>96.13</ele></trkpt><trkpt lat="48.22261" lon="-1.36503"><ele>96.82</ele></trkpt><trkpt lat="48.22256" lon="-1.36457"><ele>99.33</ele></trkpt><trkpt lat="48.22255" lon="-1.36451"><ele>99.6</ele></trkpt><trkpt lat="48.22253" lon="-1.36433"><ele>100.5</ele></trkpt><trkpt lat="48.2225" lon="-1.36412"><ele>101.74</ele></trkpt><trkpt lat="48.22248" lon="-1.36394"><ele>102.43</ele></trkpt><trkpt lat="48.22246" lon="-1.36384"><ele>103.23</ele></trkpt><trkpt lat="48.22243" lon="-1.36374"><ele>103.7</ele></trkpt><trkpt lat="48.2224" lon="-1.36365"><ele>104.09</ele></trkpt><trkpt lat="48.22235" lon="-1.36354"><ele>104.56</ele></trkpt><trkpt lat="48.22222" lon="-1.3633"><ele>105.59</ele></trkpt><trkpt lat="48.22211" lon="-1.3631"><ele>106.92</ele></trkpt><trkpt lat="48.222" lon="-1.36289"><ele>107.84</ele></trkpt><trkpt lat="48.22187" lon="-1.36266"><ele>108.71</ele></trkpt><trkpt lat="48.22175" lon="-1.36243"><ele>109.55</ele></trkpt><trkpt lat="48.2216" lon="-1.36213"><ele>110.98</ele></trkpt><trkpt lat="48.22144" lon="-1.36184"><ele>112.41</ele></trkpt><trkpt lat="48.22135" lon="-1.36192"><ele>112.68</ele></trkpt><trkpt lat="48.22125" lon="-1.362"><ele>113.17</ele></trkpt><trkpt lat="48.22113" lon="-1.36209"><ele>113.62</ele></trkpt><trkpt lat="48.22102" lon="-1.36219"><ele>113.64</ele></trkpt><trkpt lat="48.2209" lon="-1.36229"><ele>113.84</ele></trkpt><trkpt lat="48.22078" lon="-1.36239"><ele>113.59</ele></trkpt><trkpt lat="48.22067" lon="-1.36249"><ele>112.8</ele></trkpt><trkpt lat="48.22061" lon="-1.36254"><ele>112.49</ele></trkpt><trkpt lat="48.22058" lon="-1.36258"><ele>112.16</ele></trkpt><trkpt lat="48.22053" lon="-1.36259"><ele>112.32</ele></trkpt><trkpt lat="48.22045" lon="-1.36261"><ele>112.11</ele></trkpt><trkpt lat="48.22035" lon="-1.36263"><ele>112.19</ele></trkpt><trkpt lat="48.22032" lon="-1.36264"><ele>112.17</ele></trkpt><trkpt lat="48.22026" lon="-1.36264"><ele>112.11</ele></trkpt><trkpt lat="48.22023" lon="-1.36264"><ele>111.94</ele></trkpt><trkpt lat="48.22018" lon="-1.36263"><ele>111.8</ele></trkpt><trkpt lat="48.22012" lon="-1.36259"><ele>111.91</ele></trkpt><trkpt lat="48.22008" lon="-1.36256"><ele>112.03</ele></trkpt><trkpt lat="48.22002" lon="-1.3625"><ele>111.8</ele></trkpt><trkpt lat="48.21995" lon="-1.36244"><ele>111.8</ele></trkpt><trkpt lat="48.21991" lon="-1.3624"><ele>112.05</ele></trkpt><trkpt lat="48.21977" lon="-1.36228"><ele>112.37</ele></trkpt><trkpt lat="48.21973" lon="-1.36226"><ele>112.39</ele></trkpt><trkpt lat="48.21971" lon="-1.36226"><ele>112.15</ele></trkpt><trkpt lat="48.21966" lon="-1.3623"><ele>111.73</ele></trkpt><trkpt lat="48.21958" lon="-1.36235"><ele>111.16</ele></trkpt><trkpt lat="48.21955" lon="-1.36237"><ele>110.86</ele></trkpt><trkpt lat="48.21952" lon="-1.36238"><ele>110.86</ele></trkpt><trkpt lat="48.21948" lon="-1.36239"><ele>110.64</ele></trkpt><trkpt lat="48.21906" lon="-1.36235"><ele>108.11</ele></trkpt><trkpt lat="48.2188" lon="-1.362"><ele>110.98</ele></trkpt><trkpt lat="48.21868" lon="-1.36158"><ele>109.5</ele></trkpt><trkpt lat="48.2186" lon="-1.36141"><ele>108.71</ele></trkpt><trkpt lat="48.21858" lon="-1.36134"><ele>108.94</ele></trkpt><trkpt lat="48.21857" lon="-1.36126"><ele>109.26</ele></trkpt><trkpt lat="48.21855" lon="-1.36115"><ele>109.25</ele></trkpt><trkpt lat="48.21852" lon="-1.36102"><ele>109.32</ele></trkpt><trkpt lat="48.21849" lon="-1.36086"><ele>109.65</ele></trkpt><trkpt lat="48.21848" lon="-1.36082"><ele>109.75</ele></trkpt><trkpt lat="48.21847" lon="-1.36077"><ele>109.78</ele></trkpt><trkpt lat="48.21845" lon="-1.36074"><ele>109.86</ele></trkpt><trkpt lat="48.21844" lon="-1.36072"><ele>109.86</ele></trkpt><trkpt lat="48.2184" lon="-1.36067"><ele>110.36</ele></trkpt><trkpt lat="48.21832" lon="-1.3606"><ele>110.02</ele></trkpt><trkpt lat="48.21828" lon="-1.36056"><ele>109.92</ele></trkpt><trkpt lat="48.21817" lon="-1.36047"><ele>109.36</ele></trkpt><trkpt lat="48.21804" lon="-1.36037"><ele>108.63</ele></trkpt><trkpt lat="48.21799" lon="-1.36033"><ele>108.31</ele></trkpt><trkpt lat="48.21795" lon="-1.3603"><ele>107.94</ele></trkpt><trkpt lat="48.21791" lon="-1.36028"><ele>107.64</ele></trkpt><trkpt lat="48.21751" lon="-1.3602"><ele>106.72</ele></trkpt><trkpt lat="48.21711" lon="-1.36001"><ele>106.48</ele></trkpt><trkpt lat="48.21624" lon="-1.36262"><ele>92.94</ele></trkpt><trkpt lat="48.21614" lon="-1.36264"><ele>92.62</ele></trkpt><trkpt lat="48.21614" lon="-1.36254"><ele>92.93</ele></trkpt><trkpt lat="48.21614" lon="-1.36246"><ele>93.31</ele></trkpt><trkpt lat="48.21614" lon="-1.36243"><ele>93.45</ele></trkpt><trkpt lat="48.21614" lon="-1.36239"><ele>93.58</ele></trkpt><trkpt lat="48.2161" lon="-1.36217"><ele>94.25</ele></trkpt><trkpt lat="48.21605" lon="-1.36187"><ele>95.44</ele></trkpt><trkpt lat="48.21602" lon="-1.36171"><ele>96.05</ele></trkpt><trkpt lat="48.21599" lon="-1.36156"><ele>96.98</ele></trkpt><trkpt lat="48.21596" lon="-1.36139"><ele>97.85</ele></trkpt><trkpt lat="48.21595" lon="-1.36124"><ele>98.55</ele></trkpt><trkpt lat="48.21593" lon="-1.36109"><ele>99.47</ele></trkpt><trkpt lat="48.21591" lon="-1.36085"><ele>100.63</ele></trkpt><trkpt lat="48.21589" lon="-1.36045"><ele>102.52</ele></trkpt><trkpt lat="48.21586" lon="-1.36006"><ele>104.06</ele></trkpt><trkpt lat="48.21584" lon="-1.35983"><ele>104.86</ele></trkpt><trkpt lat="48.21583" lon="-1.35962"><ele>105.67</ele></trkpt><trkpt lat="48.21582" lon="-1.35953"><ele>106.1</ele></trkpt><trkpt lat="48.21582" lon="-1.3594"><ele>106.56</ele></trkpt><trkpt lat="48.21581" lon="-1.35917"><ele>107.67</ele></trkpt><trkpt lat="48.21582" lon="-1.35909"><ele>107.76</ele></trkpt><trkpt lat="48.21583" lon="-1.35903"><ele>108.13</ele></trkpt><trkpt lat="48.21584" lon="-1.35897"><ele>108.29</ele></trkpt><trkpt lat="48.21583" lon="-1.35903"><ele>108.13</ele></trkpt><trkpt lat="48.21574" lon="-1.35893"><ele>108.51</ele></trkpt><trkpt lat="48.21533" lon="-1.35837"><ele>110.28</ele></trkpt><trkpt lat="48.21519" lon="-1.35818"><ele>111.49</ele></trkpt><trkpt lat="48.21504" lon="-1.35792"><ele>113.66</ele></trkpt><trkpt lat="48.21494" lon="-1.35777"><ele>114.22</ele></trkpt><trkpt lat="48.2149" lon="-1.35774"><ele>114.58</ele></trkpt><trkpt lat="48.2148" lon="-1.35757"><ele>115.73</ele></trkpt><trkpt lat="48.21433" lon="-1.35707"><ele>119.71</ele></trkpt><trkpt lat="48.21428" lon="-1.35703"><ele>120.38</ele></trkpt><trkpt lat="48.21421" lon="-1.35714"><ele>120.3</ele></trkpt><trkpt lat="48.21407" lon="-1.35736"><ele>119.7</ele></trkpt><trkpt lat="48.214" lon="-1.35741"><ele>119.37</ele></trkpt><trkpt lat="48.21331" lon="-1.35715"><ele>119.01</ele></trkpt><trkpt lat="48.2133" lon="-1.3571"><ele>119.21</ele></trkpt><trkpt lat="48.21328" lon="-1.35631"><ele>122.1</ele></trkpt><trkpt lat="48.21329" lon="-1.35544"><ele>123.55</ele></trkpt><trkpt lat="48.21322" lon="-1.35453"><ele>123.23</ele></trkpt><trkpt lat="48.21316" lon="-1.35342"><ele>119.7</ele></trkpt><trkpt lat="48.21311" lon="-1.35337"><ele>119.39</ele></trkpt><trkpt lat="48.21302" lon="-1.3534"><ele>119.71</ele></trkpt><trkpt lat="48.21287" lon="-1.35342"><ele>119.54</ele></trkpt><trkpt lat="48.2117" lon="-1.35368"><ele>118.43</ele></trkpt><trkpt lat="48.21162" lon="-1.35369"><ele>118.4</ele></trkpt><trkpt lat="48.21153" lon="-1.35372"><ele>118.63</ele></trkpt><trkpt lat="48.21147" lon="-1.35373"><ele>118.94</ele></trkpt><trkpt lat="48.21143" lon="-1.35374"><ele>118.99</ele></trkpt><trkpt lat="48.21137" lon="-1.35376"><ele>119.15</ele></trkpt><trkpt lat="48.2113" lon="-1.35378"><ele>119.55</ele></trkpt><trkpt lat="48.2112" lon="-1.35381"><ele>120.07</ele></trkpt><trkpt lat="48.21111" lon="-1.35384"><ele>120.43</ele></trkpt><trkpt lat="48.21107" lon="-1.35385"><ele>120.72</ele></trkpt><trkpt lat="48.21102" lon="-1.35386"><ele>121.19</ele></trkpt><trkpt lat="48.21091" lon="-1.35388"><ele>121.67</ele></trkpt><trkpt lat="48.21087" lon="-1.35389"><ele>121.91</ele></trkpt><trkpt lat="48.21074" lon="-1.35392"><ele>122.23</ele></trkpt><trkpt lat="48.21061" lon="-1.35396"><ele>122.34</ele></trkpt><trkpt lat="48.21051" lon="-1.354"><ele>122.54</ele></trkpt><trkpt lat="48.21045" lon="-1.35401"><ele>122.63</ele></trkpt><trkpt lat="48.21037" lon="-1.35401"><ele>122.71</ele></trkpt><trkpt lat="48.21033" lon="-1.35399"><ele>122.75</ele></trkpt><trkpt lat="48.2103" lon="-1.35396"><ele>122.64</ele></trkpt><trkpt lat="48.21026" lon="-1.354"><ele>122.67</ele></trkpt><trkpt lat="48.21017" lon="-1.35407"><ele>122.79</ele></trkpt><trkpt lat="48.21006" lon="-1.35415"><ele>122.66</ele></trkpt><trkpt lat="48.20993" lon="-1.35425"><ele>122.59</ele></trkpt><trkpt lat="48.20987" lon="-1.3543"><ele>122.5</ele></trkpt><trkpt lat="48.20978" lon="-1.35436"><ele>122.31</ele></trkpt><trkpt lat="48.20963" lon="-1.35447"><ele>121.8</ele></trkpt><trkpt lat="48.20943" lon="-1.35462"><ele>121.07</ele></trkpt><trkpt lat="48.20923" lon="-1.35476"><ele>119.93</ele></trkpt><trkpt lat="48.20918" lon="-1.35466"><ele>120.06</ele></trkpt><trkpt lat="48.20894" lon="-1.35434"><ele>119.42</ele></trkpt><trkpt lat="48.20867" lon="-1.35416"><ele>118.53</ele></trkpt><trkpt lat="48.20801" lon="-1.35326"><ele>117.36</ele></trkpt><trkpt lat="48.20784" lon="-1.35303"><ele>117.24</ele></trkpt><trkpt lat="48.20767" lon="-1.35281"><ele>117.16</ele></trkpt><trkpt lat="48.20741" lon="-1.35239"><ele>117.34</ele></trkpt><trkpt lat="48.20737" lon="-1.35233"><ele>117.29</ele></trkpt><trkpt lat="48.20733" lon="-1.35227"><ele>117.23</ele></trkpt><trkpt lat="48.20731" lon="-1.35224"><ele>117.12</ele></trkpt><trkpt lat="48.20727" lon="-1.35217"><ele>117.15</ele></trkpt><trkpt lat="48.20724" lon="-1.35211"><ele>117.2</ele></trkpt><trkpt lat="48.20722" lon="-1.35208"><ele>117.04</ele></trkpt><trkpt lat="48.2072" lon="-1.35206"><ele>117.04</ele></trkpt><trkpt lat="48.20717" lon="-1.35203"><ele>116.93</ele></trkpt><trkpt lat="48.20712" lon="-1.352"><ele>116.75</ele></trkpt><trkpt lat="48.20707" lon="-1.35196"><ele>116.58</ele></trkpt><trkpt lat="48.20701" lon="-1.35192"><ele>116.25</ele></trkpt><trkpt lat="48.20697" lon="-1.35188"><ele>116.12</ele></trkpt><trkpt lat="48.20695" lon="-1.35186"><ele>116.21</ele></trkpt><trkpt lat="48.20692" lon="-1.35182"><ele>116.09</ele></trkpt><trkpt lat="48.20688" lon="-1.35176"><ele>116</ele></trkpt><trkpt lat="48.20684" lon="-1.3517"><ele>115.96</ele></trkpt><trkpt lat="48.20678" lon="-1.35162"><ele>115.89</ele></trkpt><trkpt lat="48.20672" lon="-1.35153"><ele>115.74</ele></trkpt><trkpt lat="48.20666" lon="-1.35144"><ele>115.61</ele></trkpt><trkpt lat="48.2066" lon="-1.35135"><ele>115.51</ele></trkpt><trkpt lat="48.20655" lon="-1.35128"><ele>115.4</ele></trkpt><trkpt lat="48.20648" lon="-1.35119"><ele>115.1</ele></trkpt><trkpt lat="48.2064" lon="-1.3511"><ele>114.74</ele></trkpt><trkpt lat="48.20638" lon="-1.35106"><ele>114.72</ele></trkpt><trkpt lat="48.20634" lon="-1.35097"><ele>114.63</ele></trkpt><trkpt lat="48.20633" lon="-1.35092"><ele>114.54</ele></trkpt><trkpt lat="48.20635" lon="-1.35092"><ele>114.64</ele></trkpt><trkpt lat="48.20637" lon="-1.35091"><ele>114.64</ele></trkpt><trkpt lat="48.20643" lon="-1.35085"><ele>114.39</ele></trkpt><trkpt lat="48.2065" lon="-1.35077"><ele>114.04</ele></trkpt><trkpt lat="48.20657" lon="-1.35068"><ele>113.66</ele></trkpt><trkpt lat="48.20663" lon="-1.35061"><ele>113.49</ele></trkpt><trkpt lat="48.2067" lon="-1.35054"><ele>113.29</ele></trkpt><trkpt lat="48.20678" lon="-1.35047"><ele>113.11</ele></trkpt><trkpt lat="48.20683" lon="-1.35044"><ele>113.03</ele></trkpt><trkpt lat="48.2069" lon="-1.35041"><ele>112.86</ele></trkpt><trkpt lat="48.20695" lon="-1.35038"><ele>112.75</ele></trkpt><trkpt lat="48.20702" lon="-1.35036"><ele>112.62</ele></trkpt><trkpt lat="48.20708" lon="-1.35035"><ele>112.42</ele></trkpt><trkpt lat="48.20713" lon="-1.35034"><ele>112.38</ele></trkpt><trkpt lat="48.20718" lon="-1.35032"><ele>112.13</ele></trkpt><trkpt lat="48.20727" lon="-1.35028"><ele>111.95</ele></trkpt><trkpt lat="48.20732" lon="-1.35025"><ele>111.91</ele></trkpt><trkpt lat="48.20734" lon="-1.35024"><ele>111.52</ele></trkpt><trkpt lat="48.20741" lon="-1.35019"><ele>111.13</ele></trkpt><trkpt lat="48.20746" lon="-1.35014"><ele>110.86</ele></trkpt><trkpt lat="48.20756" lon="-1.35005"><ele>110.43</ele></trkpt><trkpt lat="48.20771" lon="-1.34989"><ele>109.37</ele></trkpt><trkpt lat="48.20781" lon="-1.34977"><ele>108.59</ele></trkpt><trkpt lat="48.2079" lon="-1.34967"><ele>108.13</ele></trkpt><trkpt lat="48.20797" lon="-1.3496"><ele>107.49</ele></trkpt><trkpt lat="48.20807" lon="-1.34952"><ele>106.88</ele></trkpt><trkpt lat="48.2081" lon="-1.34951"><ele>106.64</ele></trkpt><trkpt lat="48.20814" lon="-1.34949"><ele>106.5</ele></trkpt><trkpt lat="48.20816" lon="-1.34948"><ele>106.5</ele></trkpt><trkpt lat="48.2082" lon="-1.34947"><ele>106.27</ele></trkpt><trkpt lat="48.20824" lon="-1.34946"><ele>106.14</ele></trkpt><trkpt lat="48.20826" lon="-1.34945"><ele>106.14</ele></trkpt><trkpt lat="48.20835" lon="-1.34945"><ele>105.96</ele></trkpt><trkpt lat="48.20846" lon="-1.34945"><ele>105.66</ele></trkpt><trkpt lat="48.20852" lon="-1.34944"><ele>105.52</ele></trkpt><trkpt lat="48.20864" lon="-1.34944"><ele>105.06</ele></trkpt><trkpt lat="48.20879" lon="-1.34943"><ele>104.49</ele></trkpt><trkpt lat="48.20893" lon="-1.34942"><ele>104.17</ele></trkpt><trkpt lat="48.20918" lon="-1.34941"><ele>103.38</ele></trkpt><trkpt lat="48.20945" lon="-1.3494"><ele>102.78</ele></trkpt><trkpt lat="48.20962" lon="-1.3494"><ele>102.37</ele></trkpt><trkpt lat="48.20979" lon="-1.34939"><ele>101.9</ele></trkpt><trkpt lat="48.20997" lon="-1.34939"><ele>101.47</ele></trkpt><trkpt lat="48.21014" lon="-1.34938"><ele>100.96</ele></trkpt><trkpt lat="48.2104" lon="-1.34937"><ele>100.25</ele></trkpt><trkpt lat="48.21066" lon="-1.34936"><ele>99.47</ele></trkpt><trkpt lat="48.21076" lon="-1.34936"><ele>99</ele></trkpt><trkpt lat="48.21085" lon="-1.34935"><ele>98.73</ele></trkpt><trkpt lat="48.21091" lon="-1.34935"><ele>98.61</ele></trkpt><trkpt lat="48.21096" lon="-1.34936"><ele>98.53</ele></trkpt><trkpt lat="48.21101" lon="-1.34937"><ele>98.41</ele></trkpt><trkpt lat="48.21106" lon="-1.34939"><ele>98.25</ele></trkpt><trkpt lat="48.21111" lon="-1.34941"><ele>98.06</ele></trkpt><trkpt lat="48.21115" lon="-1.3493"><ele>97.48</ele></trkpt><trkpt lat="48.21118" lon="-1.34922"><ele>97.34</ele></trkpt><trkpt lat="48.21123" lon="-1.34915"><ele>96.82</ele></trkpt><trkpt lat="48.21135" lon="-1.34895"><ele>95.85</ele></trkpt><trkpt lat="48.21144" lon="-1.3488"><ele>95.13</ele></trkpt><trkpt lat="48.21154" lon="-1.34864"><ele>94.12</ele></trkpt><trkpt lat="48.21158" lon="-1.34857"><ele>93.73</ele></trkpt><trkpt lat="48.21163" lon="-1.34851"><ele>93.41</ele></trkpt><trkpt lat="48.2117" lon="-1.34839"><ele>92.72</ele></trkpt><trkpt lat="48.21177" lon="-1.34828"><ele>92.38</ele></trkpt><trkpt lat="48.21185" lon="-1.34815"><ele>91.85</ele></trkpt><trkpt lat="48.21192" lon="-1.34804"><ele>91.45</ele></trkpt><trkpt lat="48.21201" lon="-1.3479"><ele>91.2</ele></trkpt><trkpt lat="48.2121" lon="-1.34779"><ele>91.03</ele></trkpt><trkpt lat="48.21213" lon="-1.34775"><ele>90.97</ele></trkpt><trkpt lat="48.2122" lon="-1.34768"><ele>90.91</ele></trkpt><trkpt lat="48.21225" lon="-1.34763"><ele>90.88</ele></trkpt><trkpt lat="48.21231" lon="-1.34758"><ele>90.96</ele></trkpt><trkpt lat="48.21235" lon="-1.34755"><ele>91.09</ele></trkpt><trkpt lat="48.2124" lon="-1.3475"><ele>91.15</ele></trkpt><trkpt lat="48.21249" lon="-1.34744"><ele>91.63</ele></trkpt><trkpt lat="48.21254" lon="-1.3474"><ele>91.91</ele></trkpt><trkpt lat="48.2127" lon="-1.3473"><ele>93.04</ele></trkpt><trkpt lat="48.2129" lon="-1.34718"><ele>94.04</ele></trkpt><trkpt lat="48.2131" lon="-1.34705"><ele>95.31</ele></trkpt><trkpt lat="48.21346" lon="-1.34683"><ele>97</ele></trkpt><trkpt lat="48.21374" lon="-1.34665"><ele>97.81</ele></trkpt><trkpt lat="48.21403" lon="-1.34648"><ele>98.06</ele></trkpt><trkpt lat="48.21412" lon="-1.34642"><ele>97.85</ele></trkpt><trkpt lat="48.21422" lon="-1.34637"><ele>97.56</ele></trkpt><trkpt lat="48.21447" lon="-1.34621"><ele>96.64</ele></trkpt><trkpt lat="48.21461" lon="-1.34613"><ele>96.23</ele></trkpt><trkpt lat="48.21476" lon="-1.34603"><ele>95.64</ele></trkpt><trkpt lat="48.21484" lon="-1.34598"><ele>95.46</ele></trkpt><trkpt lat="48.21492" lon="-1.34591"><ele>95.29</ele></trkpt><trkpt lat="48.21503" lon="-1.34582"><ele>95.28</ele></trkpt><trkpt lat="48.21519" lon="-1.34569"><ele>95.58</ele></trkpt><trkpt lat="48.21529" lon="-1.34561"><ele>95.73</ele></trkpt><trkpt lat="48.21549" lon="-1.34547"><ele>96.21</ele></trkpt><trkpt lat="48.21566" lon="-1.34532"><ele>97.06</ele></trkpt><trkpt lat="48.21574" lon="-1.34524"><ele>97.63</ele></trkpt><trkpt lat="48.21581" lon="-1.34519"><ele>97.89</ele></trkpt><trkpt lat="48.21593" lon="-1.34509"><ele>98.7</ele></trkpt><trkpt lat="48.21612" lon="-1.34494"><ele>100.02</ele></trkpt><trkpt lat="48.2163" lon="-1.3448"><ele>101.26</ele></trkpt><trkpt lat="48.21643" lon="-1.34471"><ele>102.26</ele></trkpt><trkpt lat="48.21655" lon="-1.34462"><ele>103.43</ele></trkpt><trkpt lat="48.21661" lon="-1.34456"><ele>103.76</ele></trkpt><trkpt lat="48.21681" lon="-1.34445"><ele>105.02</ele></trkpt><trkpt lat="48.21711" lon="-1.34426"><ele>106.91</ele></trkpt><trkpt lat="48.21752" lon="-1.34402"><ele>109.82</ele></trkpt><trkpt lat="48.21764" lon="-1.34395"><ele>110.41</ele></trkpt><trkpt lat="48.21781" lon="-1.34386"><ele>111.38</ele></trkpt><trkpt lat="48.21785" lon="-1.34384"><ele>111.61</ele></trkpt><trkpt lat="48.21802" lon="-1.34375"><ele>112.26</ele></trkpt><trkpt lat="48.21805" lon="-1.34372"><ele>112.35</ele></trkpt><trkpt lat="48.21816" lon="-1.34366"><ele>112.95</ele></trkpt><trkpt lat="48.21823" lon="-1.34362"><ele>113.09</ele></trkpt><trkpt lat="48.21827" lon="-1.34358"><ele>113.17</ele></trkpt><trkpt lat="48.21831" lon="-1.34353"><ele>113.37</ele></trkpt><trkpt lat="48.21833" lon="-1.34358"><ele>113.35</ele></trkpt><trkpt lat="48.21835" lon="-1.34366"><ele>113.43</ele></trkpt><trkpt lat="48.21837" lon="-1.34381"><ele>114.05</ele></trkpt><trkpt lat="48.21839" lon="-1.3439"><ele>114.02</ele></trkpt><trkpt lat="48.21842" lon="-1.344"><ele>114.3</ele></trkpt><trkpt lat="48.21844" lon="-1.34413"><ele>114.52</ele></trkpt><trkpt lat="48.21846" lon="-1.34425"><ele>114.46</ele></trkpt><trkpt lat="48.21849" lon="-1.34441"><ele>114.53</ele></trkpt><trkpt lat="48.21851" lon="-1.3445"><ele>114.44</ele></trkpt><trkpt lat="48.21855" lon="-1.34464"><ele>114.49</ele></trkpt><trkpt lat="48.21858" lon="-1.34474"><ele>114.39</ele></trkpt><trkpt lat="48.21859" lon="-1.3448"><ele>114.28</ele></trkpt><trkpt lat="48.21862" lon="-1.3449"><ele>114.43</ele></trkpt><trkpt lat="48.21867" lon="-1.34502"><ele>114.57</ele></trkpt><trkpt lat="48.21869" lon="-1.34508"><ele>114.51</ele></trkpt><trkpt lat="48.21873" lon="-1.34518"><ele>114.59</ele></trkpt><trkpt lat="48.21876" lon="-1.34525"><ele>114.69</ele></trkpt><trkpt lat="48.21879" lon="-1.3453"><ele>114.89</ele></trkpt><trkpt lat="48.21881" lon="-1.34534"><ele>114.79</ele></trkpt><trkpt lat="48.21882" lon="-1.34536"><ele>114.74</ele></trkpt><trkpt lat="48.21886" lon="-1.34543"><ele>114.97</ele></trkpt><trkpt lat="48.21892" lon="-1.34553"><ele>115.29</ele></trkpt><trkpt lat="48.21896" lon="-1.34558"><ele>115.4</ele></trkpt><trkpt lat="48.21899" lon="-1.34563"><ele>115.36</ele></trkpt><trkpt lat="48.21908" lon="-1.34571"><ele>115.63</ele></trkpt><trkpt lat="48.2191" lon="-1.34574"><ele>115.65</ele></trkpt><trkpt lat="48.21914" lon="-1.34576"><ele>115.72</ele></trkpt><trkpt lat="48.2192" lon="-1.34581"><ele>115.8</ele></trkpt><trkpt lat="48.21925" lon="-1.34581"><ele>115.87</ele></trkpt><trkpt lat="48.21928" lon="-1.34594"><ele>115.83</ele></trkpt><trkpt lat="48.21933" lon="-1.34608"><ele>115.88</ele></trkpt><trkpt lat="48.21937" lon="-1.34616"><ele>115.9</ele></trkpt><trkpt lat="48.21942" lon="-1.34625"><ele>115.84</ele></trkpt><trkpt lat="48.21949" lon="-1.34641"><ele>116.08</ele></trkpt><trkpt lat="48.21956" lon="-1.34659"><ele>116.23</ele></trkpt><trkpt lat="48.21959" lon="-1.34666"><ele>116.06</ele></trkpt><trkpt lat="48.21965" lon="-1.34679"><ele>116.11</ele></trkpt><trkpt lat="48.21972" lon="-1.34694"><ele>116.05</ele></trkpt><trkpt lat="48.21977" lon="-1.34704"><ele>116.19</ele></trkpt><trkpt lat="48.21979" lon="-1.34708"><ele>116.1</ele></trkpt><trkpt lat="48.21983" lon="-1.34713"><ele>116.13</ele></trkpt><trkpt lat="48.21991" lon="-1.34721"><ele>116.24</ele></trkpt><trkpt lat="48.21999" lon="-1.34729"><ele>116.26</ele></trkpt><trkpt lat="48.22007" lon="-1.34736"><ele>116.42</ele></trkpt><trkpt lat="48.22017" lon="-1.34745"><ele>116.26</ele></trkpt><trkpt lat="48.22018" lon="-1.34748"><ele>116.12</ele></trkpt><trkpt lat="48.22021" lon="-1.34751"><ele>116.05</ele></trkpt><trkpt lat="48.22022" lon="-1.34754"><ele>116.05</ele></trkpt><trkpt lat="48.22023" lon="-1.34757"><ele>115.95</ele></trkpt><trkpt lat="48.22024" lon="-1.3476"><ele>115.8</ele></trkpt><trkpt lat="48.22025" lon="-1.34764"><ele>115.68</ele></trkpt><trkpt lat="48.22026" lon="-1.34767"><ele>115.68</ele></trkpt><trkpt lat="48.22026" lon="-1.34768"><ele>115.57</ele></trkpt><trkpt lat="48.22027" lon="-1.3477"><ele>115.57</ele></trkpt><trkpt lat="48.22028" lon="-1.34772"><ele>115.44</ele></trkpt><trkpt lat="48.22029" lon="-1.34773"><ele>115.41</ele></trkpt><trkpt lat="48.22031" lon="-1.34773"><ele>115.41</ele></trkpt><trkpt lat="48.22032" lon="-1.34774"><ele>115.41</ele></trkpt><trkpt lat="48.22034" lon="-1.34774"><ele>115.57</ele></trkpt><trkpt lat="48.22035" lon="-1.34773"><ele>115.57</ele></trkpt></trkseg></trk></gpx>
