<?xml version="1.0" encoding="UTF-8" standalone="no"?>
<gpx xmlns="http://www.topografix.com/GPX/1/1" version="1.1" xmlns:xsi="http://www.w3.org/2001/XMLSchema-instance" xsi:schemaLocation="http://www.topografix.com/GPX/1/1 http://www.topografix.com/GPX/1/1/gpx.xsd" creator="Cirkwi"><metadata><name><![CDATA[La Fontaine Saint-Raoul à Liffré]]></name><desc><![CDATA[À l'origine de nombreuses légendes, la fontaine de Saint-Raoul porte le nom de Raoul de la Fustaye, fondateur de l'abbaye de Saint-Sulpice. Ce dernier y aurait construit son premier ermitage au Moyen-Âge.  On dit aussi que l'homme, très bon chasseur, se serait noyé dans la fontaine avec son cheval au cours d'une lutte contre une harde de sangliers. Ceci pourrait expliquer la marque d'un fer à cheval sur une pierre au fond de la fontaine.   Balisage : jaune, blanc et rouge et blanc  Retrouvez ce circuit dans le guide des "Balades en Pays de Rennes" disponible en Offices de Tourisme et dans certaines mairies.]]></desc><author><name><![CDATA[Pays de Rennes]]></name></author><link href="http://fichier0.cirkwi.com/image/photo/circuit/1300x1300/44846/fr/0.jpg"><text><![CDATA[|Benoit Gendron]]></text></link><time>2024-12-23T15:57:43Z</time></metadata><trk><name><![CDATA[La Fontaine Saint-Raoul à Liffré]]></name><trkseg><trkpt lat="48.20997" lon="-1.55452"><ele>66.95</ele></trkpt><trkpt lat="48.21027" lon="-1.55495"><ele>64.84</ele></trkpt><trkpt lat="48.21033" lon="-1.5551"><ele>63.65</ele></trkpt><trkpt lat="48.21036" lon="-1.55531"><ele>62.11</ele></trkpt><trkpt lat="48.2102" lon="-1.55551"><ele>61.33</ele></trkpt><trkpt lat="48.21" lon="-1.55565"><ele>61.23</ele></trkpt><trkpt lat="48.20987" lon="-1.55571"><ele>61.44</ele></trkpt><trkpt lat="48.20975" lon="-1.55577"><ele>61.33</ele></trkpt><trkpt lat="48.20955" lon="-1.55577"><ele>61.67</ele></trkpt><trkpt lat="48.20941" lon="-1.55572"><ele>62.09</ele></trkpt><trkpt lat="48.2092" lon="-1.55568"><ele>62.11</ele></trkpt><trkpt lat="48.20912" lon="-1.55568"><ele>62.88</ele></trkpt><trkpt lat="48.20902" lon="-1.55693"><ele>63.02</ele></trkpt><trkpt lat="48.20952" lon="-1.55725"><ele>60.56</ele></trkpt><trkpt lat="48.20995" lon="-1.55745"><ele>62.93</ele></trkpt><trkpt lat="48.2102" lon="-1.55757"><ele>64.12</ele></trkpt><trkpt lat="48.21036" lon="-1.55841"><ele>66.11</ele></trkpt><trkpt lat="48.2105" lon="-1.55878"><ele>67.19</ele></trkpt><trkpt lat="48.21067" lon="-1.5591"><ele>67.97</ele></trkpt><trkpt lat="48.21082" lon="-1.55935"><ele>68.18</ele></trkpt><trkpt lat="48.21092" lon="-1.55953"><ele>68.28</ele></trkpt><trkpt lat="48.21119" lon="-1.55982"><ele>68.76</ele></trkpt><trkpt lat="48.21125" lon="-1.56005"><ele>68.26</ele></trkpt><trkpt lat="48.21106" lon="-1.56027"><ele>67.55</ele></trkpt><trkpt lat="48.21096" lon="-1.56034"><ele>67.07</ele></trkpt><trkpt lat="48.21085" lon="-1.56069"><ele>66.45</ele></trkpt><trkpt lat="48.21066" lon="-1.56085"><ele>65.88</ele></trkpt><trkpt lat="48.21052" lon="-1.56099"><ele>65.12</ele></trkpt><trkpt lat="48.21026" lon="-1.56116"><ele>63.42</ele></trkpt><trkpt lat="48.21015" lon="-1.56132"><ele>62.4</ele></trkpt><trkpt lat="48.21009" lon="-1.56155"><ele>61.22</ele></trkpt><trkpt lat="48.21005" lon="-1.56165"><ele>60.67</ele></trkpt><trkpt lat="48.20893" lon="-1.55967"><ele>58.95</ele></trkpt><trkpt lat="48.20884" lon="-1.56"><ele>58.65</ele></trkpt><trkpt lat="48.20877" lon="-1.5602"><ele>58.5</ele></trkpt><trkpt lat="48.20861" lon="-1.56034"><ele>58.62</ele></trkpt><trkpt lat="48.20852" lon="-1.5605"><ele>58.72</ele></trkpt><trkpt lat="48.20837" lon="-1.56058"><ele>58.84</ele></trkpt><trkpt lat="48.20827" lon="-1.56066"><ele>58.82</ele></trkpt><trkpt lat="48.20823" lon="-1.56105"><ele>58.27</ele></trkpt><trkpt lat="48.20813" lon="-1.56129"><ele>58.16</ele></trkpt><trkpt lat="48.20802" lon="-1.5615"><ele>58.32</ele></trkpt><trkpt lat="48.20786" lon="-1.56147"><ele>58.29</ele></trkpt><trkpt lat="48.20778" lon="-1.56146"><ele>58.53</ele></trkpt><trkpt lat="48.20769" lon="-1.56191"><ele>58.9</ele></trkpt><trkpt lat="48.20762" lon="-1.56208"><ele>59.37</ele></trkpt><trkpt lat="48.20744" lon="-1.5624"><ele>59.69</ele></trkpt><trkpt lat="48.2073" lon="-1.56235"><ele>60.12</ele></trkpt><trkpt lat="48.20711" lon="-1.56232"><ele>60.13</ele></trkpt><trkpt lat="48.20706" lon="-1.56225"><ele>60.24</ele></trkpt><trkpt lat="48.20702" lon="-1.56217"><ele>60.45</ele></trkpt><trkpt lat="48.20701" lon="-1.56199"><ele>60.54</ele></trkpt><trkpt lat="48.20695" lon="-1.56163"><ele>60.04</ele></trkpt><trkpt lat="48.20698" lon="-1.56143"><ele>59.42</ele></trkpt><trkpt lat="48.20697" lon="-1.56128"><ele>59.32</ele></trkpt><trkpt lat="48.20688" lon="-1.56123"><ele>59.41</ele></trkpt><trkpt lat="48.20674" lon="-1.56112"><ele>59.47</ele></trkpt><trkpt lat="48.20653" lon="-1.56102"><ele>59.53</ele></trkpt><trkpt lat="48.20648" lon="-1.56103"><ele>59.49</ele></trkpt><trkpt lat="48.20641" lon="-1.561"><ele>59.58</ele></trkpt><trkpt lat="48.20631" lon="-1.561"><ele>59.78</ele></trkpt><trkpt lat="48.20629" lon="-1.56087"><ele>59.56</ele></trkpt><trkpt lat="48.2062" lon="-1.56082"><ele>59.87</ele></trkpt><trkpt lat="48.20596" lon="-1.56088"><ele>60.16</ele></trkpt><trkpt lat="48.2058" lon="-1.56096"><ele>60.35</ele></trkpt><trkpt lat="48.20567" lon="-1.561"><ele>60.18</ele></trkpt><trkpt lat="48.20556" lon="-1.56099"><ele>60.47</ele></trkpt><trkpt lat="48.20541" lon="-1.56085"><ele>60.63</ele></trkpt><trkpt lat="48.20539" lon="-1.56081"><ele>60.72</ele></trkpt><trkpt lat="48.20533" lon="-1.56075"><ele>60.85</ele></trkpt><trkpt lat="48.20523" lon="-1.56058"><ele>60.9</ele></trkpt><trkpt lat="48.20518" lon="-1.56053"><ele>60.93</ele></trkpt><trkpt lat="48.20516" lon="-1.56038"><ele>61.57</ele></trkpt><trkpt lat="48.2051" lon="-1.56031"><ele>61.79</ele></trkpt><trkpt lat="48.2067" lon="-1.56274"><ele>60.85</ele></trkpt><trkpt lat="48.2067" lon="-1.56349"><ele>63.91</ele></trkpt><trkpt lat="48.20649" lon="-1.56351"><ele>64.95</ele></trkpt><trkpt lat="48.20621" lon="-1.5636"><ele>65.47</ele></trkpt><trkpt lat="48.20659" lon="-1.56411"><ele>67.15</ele></trkpt><trkpt lat="48.20503" lon="-1.56765"><ele>68.61</ele></trkpt><trkpt lat="48.20501" lon="-1.56783"><ele>69.21</ele></trkpt><trkpt lat="48.20506" lon="-1.56815"><ele>70.02</ele></trkpt><trkpt lat="48.20504" lon="-1.56853"><ele>70.2</ele></trkpt><trkpt lat="48.205" lon="-1.56888"><ele>70.85</ele></trkpt><trkpt lat="48.20493" lon="-1.56918"><ele>71.47</ele></trkpt><trkpt lat="48.20491" lon="-1.56956"><ele>72.48</ele></trkpt><trkpt lat="48.20484" lon="-1.56989"><ele>73.3</ele></trkpt><trkpt lat="48.20463" lon="-1.57021"><ele>73.33</ele></trkpt><trkpt lat="48.20431" lon="-1.57038"><ele>72.25</ele></trkpt><trkpt lat="48.20384" lon="-1.57072"><ele>73.83</ele></trkpt><trkpt lat="48.2034" lon="-1.571"><ele>75.14</ele></trkpt><trkpt lat="48.203" lon="-1.57122"><ele>75.76</ele></trkpt><trkpt lat="48.20261" lon="-1.57137"><ele>75.91</ele></trkpt><trkpt lat="48.20215" lon="-1.57145"><ele>77.26</ele></trkpt><trkpt lat="48.20175" lon="-1.57143"><ele>78.23</ele></trkpt><trkpt lat="48.20167" lon="-1.57177"><ele>77.83</ele></trkpt><trkpt lat="48.20151" lon="-1.57205"><ele>78.31</ele></trkpt><trkpt lat="48.20135" lon="-1.57229"><ele>78.97</ele></trkpt><trkpt lat="48.20114" lon="-1.57265"><ele>79.38</ele></trkpt><trkpt lat="48.20091" lon="-1.57302"><ele>80.41</ele></trkpt><trkpt lat="48.20065" lon="-1.57332"><ele>81.01</ele></trkpt><trkpt lat="48.20051" lon="-1.57345"><ele>81.42</ele></trkpt><trkpt lat="48.20035" lon="-1.57336"><ele>81.55</ele></trkpt><trkpt lat="48.20011" lon="-1.57313"><ele>82.08</ele></trkpt><trkpt lat="48.19994" lon="-1.57298"><ele>81.78</ele></trkpt><trkpt lat="48.19966" lon="-1.57276"><ele>82.24</ele></trkpt><trkpt lat="48.19962" lon="-1.57253"><ele>82.29</ele></trkpt><trkpt lat="48.19941" lon="-1.57227"><ele>82.44</ele></trkpt><trkpt lat="48.19935" lon="-1.57203"><ele>83.05</ele></trkpt><trkpt lat="48.19915" lon="-1.57177"><ele>83.52</ele></trkpt><trkpt lat="48.19898" lon="-1.57145"><ele>83.77</ele></trkpt><trkpt lat="48.19872" lon="-1.57098"><ele>84.35</ele></trkpt><trkpt lat="48.19836" lon="-1.57017"><ele>84.73</ele></trkpt><trkpt lat="48.19808" lon="-1.56969"><ele>84.67</ele></trkpt><trkpt lat="48.1979" lon="-1.56933"><ele>84.72</ele></trkpt><trkpt lat="48.19779" lon="-1.56873"><ele>84.02</ele></trkpt><trkpt lat="48.19768" lon="-1.56804"><ele>83.29</ele></trkpt><trkpt lat="48.19733" lon="-1.5677"><ele>83.03</ele></trkpt><trkpt lat="48.19745" lon="-1.56697"><ele>81.8</ele></trkpt><trkpt lat="48.19728" lon="-1.56641"><ele>81.03</ele></trkpt><trkpt lat="48.19696" lon="-1.56615"><ele>80.06</ele></trkpt><trkpt lat="48.1965" lon="-1.56568"><ele>78.62</ele></trkpt><trkpt lat="48.1963" lon="-1.56581"><ele>78.28</ele></trkpt><trkpt lat="48.19622" lon="-1.56637"><ele>78.99</ele></trkpt><trkpt lat="48.19633" lon="-1.56727"><ele>80.48</ele></trkpt><trkpt lat="48.19633" lon="-1.56761"><ele>80.6</ele></trkpt><trkpt lat="48.19636" lon="-1.56826"><ele>81.8</ele></trkpt><trkpt lat="48.19633" lon="-1.56856"><ele>81.96</ele></trkpt><trkpt lat="48.19607" lon="-1.56881"><ele>81.63</ele></trkpt><trkpt lat="48.19564" lon="-1.56834"><ele>80.96</ele></trkpt><trkpt lat="48.19542" lon="-1.56787"><ele>80.66</ele></trkpt><trkpt lat="48.19522" lon="-1.5674"><ele>80.57</ele></trkpt><trkpt lat="48.19496" lon="-1.56697"><ele>80.57</ele></trkpt><trkpt lat="48.19479" lon="-1.5665"><ele>80.85</ele></trkpt><trkpt lat="48.19476" lon="-1.56598"><ele>80.57</ele></trkpt><trkpt lat="48.19496" lon="-1.56525"><ele>79.78</ele></trkpt><trkpt lat="48.19484" lon="-1.56469"><ele>79.85</ele></trkpt><trkpt lat="48.19464" lon="-1.56456"><ele>80.75</ele></trkpt><trkpt lat="48.19444" lon="-1.56435"><ele>81.93</ele></trkpt><trkpt lat="48.19424" lon="-1.56426"><ele>82.27</ele></trkpt><trkpt lat="48.19384" lon="-1.56396"><ele>83.92</ele></trkpt><trkpt lat="48.19367" lon="-1.56379"><ele>84.84</ele></trkpt><trkpt lat="48.19473" lon="-1.56319"><ele>83.77</ele></trkpt><trkpt lat="48.19573" lon="-1.56268"><ele>81.92</ele></trkpt><trkpt lat="48.19739" lon="-1.56117"><ele>77.54</ele></trkpt><trkpt lat="48.19839" lon="-1.56057"><ele>77.48</ele></trkpt><trkpt lat="48.19934" lon="-1.55963"><ele>77.32</ele></trkpt><trkpt lat="48.20008" lon="-1.55817"><ele>74.27</ele></trkpt><trkpt lat="48.20317" lon="-1.5519"><ele>75.96</ele></trkpt><trkpt lat="48.20526" lon="-1.55628"><ele>70.82</ele></trkpt><trkpt lat="48.20651" lon="-1.55877"><ele>65.34</ele></trkpt><trkpt lat="48.20997" lon="-1.55452"><ele>66.95</ele></trkpt></trkseg></trk></gpx>
