<?xml version="1.0" encoding="UTF-8" standalone="no"?>
<gpx xmlns="http://www.topografix.com/GPX/1/1" version="1.1" xmlns:xsi="http://www.w3.org/2001/XMLSchema-instance" xsi:schemaLocation="http://www.topografix.com/GPX/1/1 http://www.topografix.com/GPX/1/1/gpx.xsd" creator="Cirkwi"><metadata><name><![CDATA[La lande de la Rencontre]]></name><desc><![CDATA[La bataille du 28 juillet 1488, entre les Bretons et les Français, se déroula dans la lande à travers laquelle le sentier conduit les promeneurs. Dans le bois d’Uzel, on découvre la stèle « Mémorial aux Bretons » commémorant cette fameuse bataille.]]></desc><author><name><![CDATA[Ille & Vilaine Tourisme]]></name></author><link href="http://fichier0.cirkwi.com/image/photo/circuit/1300x1300/52911/fr/0.jpg"><text><![CDATA[StAubinM+®zi+¿res1|Com Onze]]></text></link><time>2025-12-16T04:19:45Z</time></metadata><wpt lat="48.2720665" lon="-0.999995"><ele>0</ele><name><![CDATA[Départ]]></name><desc><![CDATA[Se diriger vers la stèle. Rejoindre le GR® 37 en empruntant le sentier à gauche]]></desc><link href="http://fichier0.cirkwi.com/image/photo/poi/1300x1300/1553693/fr/0.jpg"><text><![CDATA[Stele4|Com Onze]]></text></link></wpt><wpt lat="48.2717525" lon="-0.999995"><ele>0</ele><name><![CDATA[Etape 2]]></name><desc><![CDATA[S’avancer à gauche, longer la lisière du bois et atteindre un carrefour. Tourner à gauche en direction du « carrefour de la Grande-Brèche ». À la route, continuer en face jusqu’à la D 794 ; la suivre à droite sur 250 m.]]></desc></wpt><wpt lat="48.2811275" lon="-0.999995"><ele>0</ele><name><![CDATA[Etape 3]]></name><desc><![CDATA[Tourner à gauche sur un chemin herbeux se dirigeant dans les bois. Atteindre un carrefour de pistes. S’avancer à gauche sur 150 m.]]></desc></wpt><wpt lat="48.2778435" lon="-0.999995"><ele>0</ele><name><![CDATA[Etape 4]]></name><desc><![CDATA[Abandonner le GR® 37 en poursuivant tout droit son chemin. Traverser le ruisseau de Moroval au moyen d’une passerelle. Couper la D 202 pour suivre en face la C 21 longeant un camp militaire (à gauche, lande où s’est déroulée la bataille sanglante du 28 juillet 1488). Couper une petite route et filer tout droit.]]></desc></wpt><wpt lat="48.2593256" lon="-0.999995"><ele>0</ele><name><![CDATA[Etape 5]]></name><desc><![CDATA[À hauteur du ruisseau de la Ripotière, quitter la petite route pour emprunter un chemin à droite, puis tourner à gauche au premier croisement. Traverser la lande, couper la route et longer le bois du Milieu. S’avancer ensuite à gauche en contrebas de l’autoroute.]]></desc></wpt><wpt lat="48.2639536" lon="-0.999995"><ele>0</ele><name><![CDATA[Etape 6]]></name><desc><![CDATA[Déboucher au bout d’une route : aller à droite, puis à gauche le long du grillage. Plus loin, traverser la D 794 et continuer en face jusqu’à une piste.]]></desc></wpt><wpt lat="48.2669746" lon="-0.999995"><ele>0</ele><name><![CDATA[Etape 7]]></name><desc><![CDATA[Longer la route à gauche (GR® 37 ; bas-côté, puis sentier aménagé) et pénétrer ensuite dans le bois d’Uzel.]]></desc></wpt><wpt lat="48.2717525" lon="-0.999995"><ele>0</ele><name><![CDATA[Etape 8]]></name><desc><![CDATA[Au premier croisement, reprendre à gauche le sentier vers la stèle et le départ.]]></desc></wpt><trk><trkseg><trkpt lat="48.271709764" lon="-1.421572625"><ele>112.7</ele></trkpt><trkpt lat="48.271758323" lon="-1.420162348"><ele>116.3</ele></trkpt><trkpt lat="48.272440781" lon="-1.42006187"><ele>114.82</ele></trkpt><trkpt lat="48.27375" lon="-1.419552356"><ele>111.91</ele></trkpt><trkpt lat="48.277418472" lon="-1.417928083"><ele>119.15</ele></trkpt><trkpt lat="48.278699634" lon="-1.416703027"><ele>117.17</ele></trkpt><trkpt lat="48.280130703" lon="-1.415381412"><ele>112.54</ele></trkpt><trkpt lat="48.280495" lon="-1.417728"><ele>106.12</ele></trkpt><trkpt lat="48.280550844" lon="-1.418878865"><ele>106.66</ele></trkpt><trkpt lat="48.280563848" lon="-1.420222849"><ele>107.83</ele></trkpt><trkpt lat="48.280302658" lon="-1.422918458"><ele>103.82</ele></trkpt><trkpt lat="48.27974942" lon="-1.425111102"><ele>104.64</ele></trkpt><trkpt lat="48.279519416" lon="-1.4261845"><ele>107</ele></trkpt><trkpt lat="48.279221" lon="-1.427333"><ele>110.79</ele></trkpt><trkpt lat="48.279945" lon="-1.428386627"><ele>107.54</ele></trkpt><trkpt lat="48.28100272" lon="-1.430057542"><ele>102.68</ele></trkpt><trkpt lat="48.280205" lon="-1.431625"><ele>100.41</ele></trkpt><trkpt lat="48.277882" lon="-1.431997"><ele>103.76</ele></trkpt><trkpt lat="48.27784" lon="-1.432709"><ele>101.42</ele></trkpt><trkpt lat="48.276501" lon="-1.432343"><ele>109.32</ele></trkpt><trkpt lat="48.276031" lon="-1.432242"><ele>107.51</ele></trkpt><trkpt lat="48.271653331" lon="-1.432665663"><ele>110.19</ele></trkpt><trkpt lat="48.271588706" lon="-1.432552884"><ele>110.36</ele></trkpt><trkpt lat="48.264786" lon="-1.43382"><ele>107.23</ele></trkpt><trkpt lat="48.262669" lon="-1.433533"><ele>96.36</ele></trkpt><trkpt lat="48.261631" lon="-1.433729915"><ele>95.4</ele></trkpt><trkpt lat="48.259293" lon="-1.434396"><ele>100.86</ele></trkpt><trkpt lat="48.259274798" lon="-1.431157459"><ele>106.37</ele></trkpt><trkpt lat="48.259156054" lon="-1.430337481"><ele>108.28</ele></trkpt><trkpt lat="48.259065882" lon="-1.429517502"><ele>110.72</ele></trkpt><trkpt lat="48.259511747" lon="-1.42794752"><ele>112.4</ele></trkpt><trkpt lat="48.259397588" lon="-1.4235637"><ele>107.7</ele></trkpt><trkpt lat="48.259365508" lon="-1.420229169"><ele>103.96</ele></trkpt><trkpt lat="48.259304857" lon="-1.419426643"><ele>104.3</ele></trkpt><trkpt lat="48.259308857" lon="-1.418174796"><ele>107.19</ele></trkpt><trkpt lat="48.260657284" lon="-1.417657542"><ele>104.73</ele></trkpt><trkpt lat="48.260785919" lon="-1.416861737"><ele>104.73</ele></trkpt><trkpt lat="48.26102257" lon="-1.415986187"><ele>104.54</ele></trkpt><trkpt lat="48.26117693" lon="-1.415587915"><ele>104.96</ele></trkpt><trkpt lat="48.261343392" lon="-1.415372687"><ele>104.73</ele></trkpt><trkpt lat="48.261509853" lon="-1.415050169"><ele>105.12</ele></trkpt><trkpt lat="48.261847686" lon="-1.414785552"><ele>103.6</ele></trkpt><trkpt lat="48.262249798" lon="-1.4142849"><ele>103.9</ele></trkpt><trkpt lat="48.26354371" lon="-1.413952793"><ele>105.45</ele></trkpt><trkpt lat="48.263962703" lon="-1.413827474"><ele>107.64</ele></trkpt><trkpt lat="48.263924516" lon="-1.413130252"><ele>106.96</ele></trkpt><trkpt lat="48.264886166" lon="-1.412784903"><ele>113.26</ele></trkpt><trkpt lat="48.265696467" lon="-1.413297309"><ele>116.31</ele></trkpt><trkpt lat="48.265918057" lon="-1.412937957"><ele>116.68</ele></trkpt><trkpt lat="48.266306354" lon="-1.413203351"><ele>117.59</ele></trkpt><trkpt lat="48.266673652" lon="-1.413546751"><ele>116.73</ele></trkpt><trkpt lat="48.266955992" lon="-1.413859842"><ele>116.25</ele></trkpt><trkpt lat="48.267128685" lon="-1.413851211"><ele>115.78</ele></trkpt><trkpt lat="48.267761911" lon="-1.416481496"><ele>115.18</ele></trkpt><trkpt lat="48.268430836" lon="-1.419122511"><ele>111.53</ele></trkpt><trkpt lat="48.268637067" lon="-1.41941605"><ele>111.39</ele></trkpt><trkpt lat="48.269064386" lon="-1.419845728"><ele>111.36</ele></trkpt><trkpt lat="48.269734508" lon="-1.420404152"><ele>111.02</ele></trkpt><trkpt lat="48.270805" lon="-1.421235652"><ele>112</ele></trkpt><trkpt lat="48.270893" lon="-1.420061"><ele>115.76</ele></trkpt><trkpt lat="48.271773323" lon="-1.420169923"><ele>116.3</ele></trkpt><trkpt lat="48.271705222" lon="-1.421607927"><ele>112.7</ele></trkpt></trkseg></trk></gpx>
