<?xml version="1.0" encoding="UTF-8" standalone="no"?>
<gpx xmlns="http://www.topografix.com/GPX/1/1" version="1.1" xmlns:xsi="http://www.w3.org/2001/XMLSchema-instance" xsi:schemaLocation="http://www.topografix.com/GPX/1/1 http://www.topografix.com/GPX/1/1/gpx.xsd" creator="Cirkwi"><metadata><name><![CDATA[La Voie Romaine à La Bouëxière]]></name><desc><![CDATA[Parking rue du stade près du centre des pompiers. Randonnée peu vallonnée avec de beaux chemins et des petites routes.]]></desc><author><name><![CDATA[UTL Rennes]]></name></author><link href="http://fichier0.cirkwi.com/image/photo/circuit/1300x1300/883515/fr/0.jpg"><text><![CDATA[La voie romaine|La Bouëxière]]></text></link><time>2025-11-18T12:20:24Z</time></metadata><trk><name><![CDATA[La Voie Romaine à La Bouëxière]]></name><trkseg><trkpt lat="48.17983" lon="-1.43447"><ele>115.87</ele></trkpt><trkpt lat="48.17968" lon="-1.43421"><ele>116.13</ele></trkpt><trkpt lat="48.17961" lon="-1.43409"><ele>116.26</ele></trkpt><trkpt lat="48.17957" lon="-1.43403"><ele>116.33</ele></trkpt><trkpt lat="48.17952" lon="-1.43395"><ele>116.43</ele></trkpt><trkpt lat="48.17937" lon="-1.43376"><ele>116.62</ele></trkpt><trkpt lat="48.17916" lon="-1.43347"><ele>116.6</ele></trkpt><trkpt lat="48.17893" lon="-1.43318"><ele>116.38</ele></trkpt><trkpt lat="48.17884" lon="-1.43307"><ele>116.38</ele></trkpt><trkpt lat="48.17885" lon="-1.43303"><ele>116.38</ele></trkpt><trkpt lat="48.17885" lon="-1.43299"><ele>116.33</ele></trkpt><trkpt lat="48.17884" lon="-1.43295"><ele>116.24</ele></trkpt><trkpt lat="48.17881" lon="-1.43292"><ele>116.27</ele></trkpt><trkpt lat="48.17878" lon="-1.43292"><ele>116.34</ele></trkpt><trkpt lat="48.17875" lon="-1.43292"><ele>116.34</ele></trkpt><trkpt lat="48.17872" lon="-1.43295"><ele>116.51</ele></trkpt><trkpt lat="48.17864" lon="-1.43288"><ele>116.54</ele></trkpt><trkpt lat="48.17858" lon="-1.43282"><ele>116.59</ele></trkpt><trkpt lat="48.17848" lon="-1.43275"><ele>116.71</ele></trkpt><trkpt lat="48.17833" lon="-1.43261"><ele>116.72</ele></trkpt><trkpt lat="48.17818" lon="-1.43249"><ele>116.84</ele></trkpt><trkpt lat="48.1781" lon="-1.43241"><ele>116.73</ele></trkpt><trkpt lat="48.17804" lon="-1.43234"><ele>116.6</ele></trkpt><trkpt lat="48.17797" lon="-1.4323"><ele>116.73</ele></trkpt><trkpt lat="48.17791" lon="-1.43226"><ele>117.01</ele></trkpt><trkpt lat="48.17786" lon="-1.43223"><ele>116.74</ele></trkpt><trkpt lat="48.17782" lon="-1.4322"><ele>116.65</ele></trkpt><trkpt lat="48.17778" lon="-1.43217"><ele>116.62</ele></trkpt><trkpt lat="48.17774" lon="-1.43213"><ele>116.61</ele></trkpt><trkpt lat="48.17772" lon="-1.4321"><ele>116.54</ele></trkpt><trkpt lat="48.17771" lon="-1.43209"><ele>116.54</ele></trkpt><trkpt lat="48.17765" lon="-1.43203"><ele>116.41</ele></trkpt><trkpt lat="48.17761" lon="-1.43198"><ele>116.32</ele></trkpt><trkpt lat="48.17756" lon="-1.43191"><ele>116.16</ele></trkpt><trkpt lat="48.17749" lon="-1.43181"><ele>116.17</ele></trkpt><trkpt lat="48.17728" lon="-1.43147"><ele>115.52</ele></trkpt><trkpt lat="48.17721" lon="-1.43137"><ele>115.43</ele></trkpt><trkpt lat="48.17717" lon="-1.43132"><ele>115.43</ele></trkpt><trkpt lat="48.17713" lon="-1.43126"><ele>115.32</ele></trkpt><trkpt lat="48.17709" lon="-1.43121"><ele>115.3</ele></trkpt><trkpt lat="48.17704" lon="-1.43116"><ele>115.29</ele></trkpt><trkpt lat="48.17698" lon="-1.4311"><ele>115.36</ele></trkpt><trkpt lat="48.17693" lon="-1.43104"><ele>115.32</ele></trkpt><trkpt lat="48.17686" lon="-1.43099"><ele>115.39</ele></trkpt><trkpt lat="48.17679" lon="-1.43093"><ele>115.53</ele></trkpt><trkpt lat="48.17659" lon="-1.43076"><ele>116.02</ele></trkpt><trkpt lat="48.1763" lon="-1.43056"><ele>116.55</ele></trkpt><trkpt lat="48.176" lon="-1.43038"><ele>117.27</ele></trkpt><trkpt lat="48.17581" lon="-1.43031"><ele>117.84</ele></trkpt><trkpt lat="48.17558" lon="-1.43015"><ele>117.8</ele></trkpt><trkpt lat="48.17501" lon="-1.42969"><ele>117.02</ele></trkpt><trkpt lat="48.17495" lon="-1.42963"><ele>116.79</ele></trkpt><trkpt lat="48.17466" lon="-1.4294"><ele>116.15</ele></trkpt><trkpt lat="48.17458" lon="-1.42943"><ele>116.24</ele></trkpt><trkpt lat="48.17453" lon="-1.42945"><ele>116.08</ele></trkpt><trkpt lat="48.17449" lon="-1.42946"><ele>116.1</ele></trkpt><trkpt lat="48.17446" lon="-1.42946"><ele>116.1</ele></trkpt><trkpt lat="48.17442" lon="-1.42946"><ele>116.12</ele></trkpt><trkpt lat="48.17439" lon="-1.42945"><ele>116.15</ele></trkpt><trkpt lat="48.17429" lon="-1.42942"><ele>115.96</ele></trkpt><trkpt lat="48.1743" lon="-1.4294"><ele>115.96</ele></trkpt><trkpt lat="48.1743" lon="-1.42936"><ele>115.83</ele></trkpt><trkpt lat="48.17429" lon="-1.42932"><ele>115.74</ele></trkpt><trkpt lat="48.17429" lon="-1.42927"><ele>115.68</ele></trkpt><trkpt lat="48.17428" lon="-1.42923"><ele>115.58</ele></trkpt><trkpt lat="48.17421" lon="-1.42903"><ele>115.19</ele></trkpt><trkpt lat="48.1741" lon="-1.42875"><ele>114.74</ele></trkpt><trkpt lat="48.17406" lon="-1.42866"><ele>114.74</ele></trkpt><trkpt lat="48.17405" lon="-1.42864"><ele>114.67</ele></trkpt><trkpt lat="48.17402" lon="-1.42862"><ele>114.67</ele></trkpt><trkpt lat="48.174" lon="-1.42861"><ele>114.66</ele></trkpt><trkpt lat="48.17397" lon="-1.4286"><ele>114.81</ele></trkpt><trkpt lat="48.17384" lon="-1.42799"><ele>112.25</ele></trkpt><trkpt lat="48.17368" lon="-1.42689"><ele>104.86</ele></trkpt><trkpt lat="48.17357" lon="-1.42581"><ele>102.08</ele></trkpt><trkpt lat="48.17357" lon="-1.42574"><ele>102.11</ele></trkpt><trkpt lat="48.17357" lon="-1.42566"><ele>102.23</ele></trkpt><trkpt lat="48.17357" lon="-1.42555"><ele>102.54</ele></trkpt><trkpt lat="48.17357" lon="-1.42544"><ele>102.88</ele></trkpt><trkpt lat="48.17356" lon="-1.42533"><ele>103.49</ele></trkpt><trkpt lat="48.17356" lon="-1.42524"><ele>104.03</ele></trkpt><trkpt lat="48.17355" lon="-1.42513"><ele>104.71</ele></trkpt><trkpt lat="48.17355" lon="-1.42502"><ele>105.14</ele></trkpt><trkpt lat="48.17355" lon="-1.42494"><ele>105.7</ele></trkpt><trkpt lat="48.17355" lon="-1.42485"><ele>106.27</ele></trkpt><trkpt lat="48.17354" lon="-1.42476"><ele>106.74</ele></trkpt><trkpt lat="48.17355" lon="-1.42467"><ele>107.47</ele></trkpt><trkpt lat="48.17355" lon="-1.42456"><ele>108.34</ele></trkpt><trkpt lat="48.17356" lon="-1.42444"><ele>109.06</ele></trkpt><trkpt lat="48.17357" lon="-1.4243"><ele>109.67</ele></trkpt><trkpt lat="48.17335" lon="-1.42346"><ele>112.44</ele></trkpt><trkpt lat="48.17312" lon="-1.42299"><ele>112.84</ele></trkpt><trkpt lat="48.17306" lon="-1.42284"><ele>112.8</ele></trkpt><trkpt lat="48.17299" lon="-1.42271"><ele>112.9</ele></trkpt><trkpt lat="48.17293" lon="-1.42258"><ele>112.73</ele></trkpt><trkpt lat="48.17277" lon="-1.42227"><ele>112.31</ele></trkpt><trkpt lat="48.17271" lon="-1.42214"><ele>112.26</ele></trkpt><trkpt lat="48.17266" lon="-1.42206"><ele>112.27</ele></trkpt><trkpt lat="48.17262" lon="-1.42201"><ele>112</ele></trkpt><trkpt lat="48.17259" lon="-1.42197"><ele>111.65</ele></trkpt><trkpt lat="48.17257" lon="-1.42195"><ele>111.95</ele></trkpt><trkpt lat="48.17254" lon="-1.42195"><ele>111.37</ele></trkpt><trkpt lat="48.17252" lon="-1.42195"><ele>111.37</ele></trkpt><trkpt lat="48.17249" lon="-1.42196"><ele>110.72</ele></trkpt><trkpt lat="48.17247" lon="-1.42198"><ele>110.38</ele></trkpt><trkpt lat="48.17244" lon="-1.42201"><ele>110.12</ele></trkpt><trkpt lat="48.17231" lon="-1.42218"><ele>108.97</ele></trkpt><trkpt lat="48.17228" lon="-1.42222"><ele>108.76</ele></trkpt><trkpt lat="48.17226" lon="-1.42224"><ele>108.76</ele></trkpt><trkpt lat="48.17221" lon="-1.42228"><ele>108.59</ele></trkpt><trkpt lat="48.17221" lon="-1.42224"><ele>108.72</ele></trkpt><trkpt lat="48.17221" lon="-1.42218"><ele>108.83</ele></trkpt><trkpt lat="48.17221" lon="-1.42212"><ele>109.1</ele></trkpt><trkpt lat="48.1722" lon="-1.42206"><ele>109.19</ele></trkpt><trkpt lat="48.17219" lon="-1.422"><ele>109.32</ele></trkpt><trkpt lat="48.17218" lon="-1.42193"><ele>109.52</ele></trkpt><trkpt lat="48.17217" lon="-1.42186"><ele>109.5</ele></trkpt><trkpt lat="48.17216" lon="-1.42179"><ele>109.61</ele></trkpt><trkpt lat="48.17212" lon="-1.42165"><ele>109.9</ele></trkpt><trkpt lat="48.17207" lon="-1.42151"><ele>110.13</ele></trkpt><trkpt lat="48.17188" lon="-1.42101"><ele>111.51</ele></trkpt><trkpt lat="48.17186" lon="-1.42091"><ele>111.93</ele></trkpt><trkpt lat="48.17185" lon="-1.42086"><ele>112.1</ele></trkpt><trkpt lat="48.17184" lon="-1.42082"><ele>112.23</ele></trkpt><trkpt lat="48.17183" lon="-1.42077"><ele>112.51</ele></trkpt><trkpt lat="48.17183" lon="-1.42072"><ele>112.67</ele></trkpt><trkpt lat="48.17182" lon="-1.42067"><ele>112.82</ele></trkpt><trkpt lat="48.17182" lon="-1.42062"><ele>113.13</ele></trkpt><trkpt lat="48.17183" lon="-1.42056"><ele>113.25</ele></trkpt><trkpt lat="48.17184" lon="-1.4205"><ele>113.23</ele></trkpt><trkpt lat="48.17185" lon="-1.42046"><ele>113.42</ele></trkpt><trkpt lat="48.17186" lon="-1.42042"><ele>113.57</ele></trkpt><trkpt lat="48.17189" lon="-1.42038"><ele>113.59</ele></trkpt><trkpt lat="48.17184" lon="-1.42038"><ele>113.69</ele></trkpt><trkpt lat="48.1718" lon="-1.4204"><ele>113.61</ele></trkpt><trkpt lat="48.17176" lon="-1.42042"><ele>113.48</ele></trkpt><trkpt lat="48.17172" lon="-1.42046"><ele>113.47</ele></trkpt><trkpt lat="48.17168" lon="-1.4205"><ele>113.38</ele></trkpt><trkpt lat="48.17165" lon="-1.42052"><ele>113.09</ele></trkpt><trkpt lat="48.17162" lon="-1.42054"><ele>113.09</ele></trkpt><trkpt lat="48.17158" lon="-1.42056"><ele>113.01</ele></trkpt><trkpt lat="48.17154" lon="-1.42058"><ele>112.85</ele></trkpt><trkpt lat="48.1715" lon="-1.42061"><ele>112.6</ele></trkpt><trkpt lat="48.17146" lon="-1.42063"><ele>112.29</ele></trkpt><trkpt lat="48.17142" lon="-1.42067"><ele>111.93</ele></trkpt><trkpt lat="48.17138" lon="-1.4207"><ele>111.71</ele></trkpt><trkpt lat="48.17135" lon="-1.42073"><ele>111.43</ele></trkpt><trkpt lat="48.17131" lon="-1.42077"><ele>111.23</ele></trkpt><trkpt lat="48.17127" lon="-1.42081"><ele>111.07</ele></trkpt><trkpt lat="48.17125" lon="-1.42085"><ele>110.97</ele></trkpt><trkpt lat="48.17107" lon="-1.421"><ele>110.97</ele></trkpt><trkpt lat="48.17068" lon="-1.42069"><ele>110.9</ele></trkpt><trkpt lat="48.17044" lon="-1.42099"><ele>112.12</ele></trkpt><trkpt lat="48.17027" lon="-1.42119"><ele>113.03</ele></trkpt><trkpt lat="48.16981" lon="-1.42159"><ele>115.8</ele></trkpt><trkpt lat="48.16932" lon="-1.42192"><ele>118.89</ele></trkpt><trkpt lat="48.16871" lon="-1.42228"><ele>121.06</ele></trkpt><trkpt lat="48.16846" lon="-1.42239"><ele>121.16</ele></trkpt><trkpt lat="48.16844" lon="-1.42233"><ele>120.97</ele></trkpt><trkpt lat="48.16842" lon="-1.42226"><ele>121.16</ele></trkpt><trkpt lat="48.1684" lon="-1.4222"><ele>121.04</ele></trkpt><trkpt lat="48.16837" lon="-1.42213"><ele>121.17</ele></trkpt><trkpt lat="48.16833" lon="-1.42203"><ele>121.21</ele></trkpt><trkpt lat="48.16825" lon="-1.42185"><ele>121.14</ele></trkpt><trkpt lat="48.16776" lon="-1.42013"><ele>121.58</ele></trkpt><trkpt lat="48.16774" lon="-1.42"><ele>121.56</ele></trkpt><trkpt lat="48.16772" lon="-1.41992"><ele>121.54</ele></trkpt><trkpt lat="48.16771" lon="-1.41984"><ele>121.63</ele></trkpt><trkpt lat="48.16769" lon="-1.41975"><ele>121.47</ele></trkpt><trkpt lat="48.16768" lon="-1.41965"><ele>121.35</ele></trkpt><trkpt lat="48.16766" lon="-1.41956"><ele>121.3</ele></trkpt><trkpt lat="48.16765" lon="-1.41948"><ele>121.14</ele></trkpt><trkpt lat="48.16763" lon="-1.41934"><ele>121.05</ele></trkpt><trkpt lat="48.16759" lon="-1.4191"><ele>120.88</ele></trkpt><trkpt lat="48.16757" lon="-1.41893"><ele>120.92</ele></trkpt><trkpt lat="48.16756" lon="-1.41885"><ele>120.89</ele></trkpt><trkpt lat="48.16755" lon="-1.41876"><ele>120.87</ele></trkpt><trkpt lat="48.16754" lon="-1.41869"><ele>120.8</ele></trkpt><trkpt lat="48.16753" lon="-1.41861"><ele>120.88</ele></trkpt><trkpt lat="48.16753" lon="-1.41855"><ele>120.85</ele></trkpt><trkpt lat="48.16752" lon="-1.41848"><ele>120.89</ele></trkpt><trkpt lat="48.16752" lon="-1.41842"><ele>120.88</ele></trkpt><trkpt lat="48.16751" lon="-1.41829"><ele>120.87</ele></trkpt><trkpt lat="48.16746" lon="-1.41832"><ele>120.97</ele></trkpt><trkpt lat="48.16741" lon="-1.41836"><ele>121.08</ele></trkpt><trkpt lat="48.16727" lon="-1.41848"><ele>121.39</ele></trkpt><trkpt lat="48.16633" lon="-1.41931"><ele>123.04</ele></trkpt><trkpt lat="48.1663" lon="-1.41933"><ele>123.04</ele></trkpt><trkpt lat="48.16627" lon="-1.41935"><ele>123.12</ele></trkpt><trkpt lat="48.16623" lon="-1.41936"><ele>123.13</ele></trkpt><trkpt lat="48.16613" lon="-1.41938"><ele>123.14</ele></trkpt><trkpt lat="48.16579" lon="-1.41943"><ele>123.09</ele></trkpt><trkpt lat="48.16568" lon="-1.41944"><ele>123.21</ele></trkpt><trkpt lat="48.16558" lon="-1.41946"><ele>123.25</ele></trkpt><trkpt lat="48.16547" lon="-1.41948"><ele>123.48</ele></trkpt><trkpt lat="48.16536" lon="-1.41951"><ele>123.61</ele></trkpt><trkpt lat="48.1653" lon="-1.41938"><ele>123.61</ele></trkpt><trkpt lat="48.16509" lon="-1.41846"><ele>122.65</ele></trkpt><trkpt lat="48.16487" lon="-1.41757"><ele>122.35</ele></trkpt><trkpt lat="48.16474" lon="-1.417"><ele>122.25</ele></trkpt><trkpt lat="48.16446" lon="-1.41623"><ele>121.69</ele></trkpt><trkpt lat="48.16435" lon="-1.41588"><ele>121.55</ele></trkpt><trkpt lat="48.16429" lon="-1.4157"><ele>121.5</ele></trkpt><trkpt lat="48.16419" lon="-1.41552"><ele>121.5</ele></trkpt><trkpt lat="48.16415" lon="-1.4154"><ele>121.44</ele></trkpt><trkpt lat="48.16418" lon="-1.41515"><ele>121.09</ele></trkpt><trkpt lat="48.16413" lon="-1.41514"><ele>121.12</ele></trkpt><trkpt lat="48.16409" lon="-1.41513"><ele>121.1</ele></trkpt><trkpt lat="48.16406" lon="-1.41511"><ele>121.09</ele></trkpt><trkpt lat="48.16402" lon="-1.41509"><ele>121.06</ele></trkpt><trkpt lat="48.16399" lon="-1.41507"><ele>121.05</ele></trkpt><trkpt lat="48.16396" lon="-1.41505"><ele>121.03</ele></trkpt><trkpt lat="48.16393" lon="-1.41503"><ele>121</ele></trkpt><trkpt lat="48.16389" lon="-1.415"><ele>121</ele></trkpt><trkpt lat="48.16385" lon="-1.41494"><ele>121</ele></trkpt><trkpt lat="48.16376" lon="-1.41486"><ele>120.9</ele></trkpt><trkpt lat="48.16342" lon="-1.41443"><ele>120</ele></trkpt><trkpt lat="48.16334" lon="-1.41432"><ele>120</ele></trkpt><trkpt lat="48.16325" lon="-1.41423"><ele>119.93</ele></trkpt><trkpt lat="48.16315" lon="-1.41415"><ele>119.38</ele></trkpt><trkpt lat="48.16305" lon="-1.41408"><ele>119.02</ele></trkpt><trkpt lat="48.16295" lon="-1.414"><ele>118.87</ele></trkpt><trkpt lat="48.16261" lon="-1.41377"><ele>118.26</ele></trkpt><trkpt lat="48.16234" lon="-1.41359"><ele>117.71</ele></trkpt><trkpt lat="48.1623" lon="-1.41356"><ele>117.63</ele></trkpt><trkpt lat="48.16227" lon="-1.41354"><ele>117.65</ele></trkpt><trkpt lat="48.16222" lon="-1.41351"><ele>117.57</ele></trkpt><trkpt lat="48.16214" lon="-1.4135"><ele>117.35</ele></trkpt><trkpt lat="48.16212" lon="-1.4135"><ele>117.18</ele></trkpt><trkpt lat="48.16207" lon="-1.41349"><ele>116.99</ele></trkpt><trkpt lat="48.16201" lon="-1.41349"><ele>116.8</ele></trkpt><trkpt lat="48.1615" lon="-1.41348"><ele>114.75</ele></trkpt><trkpt lat="48.16133" lon="-1.41348"><ele>114.07</ele></trkpt><trkpt lat="48.16118" lon="-1.41347"><ele>113.38</ele></trkpt><trkpt lat="48.16106" lon="-1.41346"><ele>113.1</ele></trkpt><trkpt lat="48.16093" lon="-1.41342"><ele>112.8</ele></trkpt><trkpt lat="48.16084" lon="-1.41339"><ele>112.55</ele></trkpt><trkpt lat="48.16075" lon="-1.41336"><ele>112.39</ele></trkpt><trkpt lat="48.16063" lon="-1.41332"><ele>112.29</ele></trkpt><trkpt lat="48.16046" lon="-1.41324"><ele>112.1</ele></trkpt><trkpt lat="48.16009" lon="-1.41304"><ele>111.8</ele></trkpt><trkpt lat="48.15999" lon="-1.41299"><ele>111.75</ele></trkpt><trkpt lat="48.1596" lon="-1.41279"><ele>112.21</ele></trkpt><trkpt lat="48.15938" lon="-1.41268"><ele>112.59</ele></trkpt><trkpt lat="48.15934" lon="-1.41266"><ele>112.67</ele></trkpt><trkpt lat="48.15916" lon="-1.41257"><ele>112.7</ele></trkpt><trkpt lat="48.15871" lon="-1.41235"><ele>112.6</ele></trkpt><trkpt lat="48.15833" lon="-1.41215"><ele>112.49</ele></trkpt><trkpt lat="48.15823" lon="-1.4121"><ele>112.4</ele></trkpt><trkpt lat="48.15801" lon="-1.41198"><ele>112.28</ele></trkpt><trkpt lat="48.15721" lon="-1.41156"><ele>110.53</ele></trkpt><trkpt lat="48.15716" lon="-1.41155"><ele>110.44</ele></trkpt><trkpt lat="48.15712" lon="-1.41155"><ele>110.35</ele></trkpt><trkpt lat="48.15708" lon="-1.41155"><ele>110.26</ele></trkpt><trkpt lat="48.15705" lon="-1.41156"><ele>110.16</ele></trkpt><trkpt lat="48.15703" lon="-1.41158"><ele>110.16</ele></trkpt><trkpt lat="48.157" lon="-1.41161"><ele>110.08</ele></trkpt><trkpt lat="48.15698" lon="-1.41165"><ele>110</ele></trkpt><trkpt lat="48.15683" lon="-1.41194"><ele>110.41</ele></trkpt><trkpt lat="48.15674" lon="-1.41183"><ele>110.17</ele></trkpt><trkpt lat="48.15598" lon="-1.41087"><ele>108.04</ele></trkpt><trkpt lat="48.15585" lon="-1.41071"><ele>107.79</ele></trkpt><trkpt lat="48.15573" lon="-1.41056"><ele>107.37</ele></trkpt><trkpt lat="48.15563" lon="-1.41045"><ele>107.08</ele></trkpt><trkpt lat="48.15557" lon="-1.41038"><ele>106.98</ele></trkpt><trkpt lat="48.15549" lon="-1.41032"><ele>106.77</ele></trkpt><trkpt lat="48.15543" lon="-1.41025"><ele>106.49</ele></trkpt><trkpt lat="48.15535" lon="-1.41018"><ele>106.13</ele></trkpt><trkpt lat="48.15528" lon="-1.41013"><ele>106.01</ele></trkpt><trkpt lat="48.15526" lon="-1.41011"><ele>105.9</ele></trkpt><trkpt lat="48.15516" lon="-1.41004"><ele>105.71</ele></trkpt><trkpt lat="48.15519" lon="-1.40992"><ele>105.88</ele></trkpt><trkpt lat="48.15528" lon="-1.40959"><ele>106.81</ele></trkpt><trkpt lat="48.15531" lon="-1.40948"><ele>106.95</ele></trkpt><trkpt lat="48.15534" lon="-1.40935"><ele>107</ele></trkpt><trkpt lat="48.15537" lon="-1.40923"><ele>107</ele></trkpt><trkpt lat="48.15538" lon="-1.40916"><ele>107.04</ele></trkpt><trkpt lat="48.1554" lon="-1.40907"><ele>107.27</ele></trkpt><trkpt lat="48.15542" lon="-1.40899"><ele>107.47</ele></trkpt><trkpt lat="48.15544" lon="-1.4089"><ele>107.75</ele></trkpt><trkpt lat="48.15546" lon="-1.40882"><ele>107.84</ele></trkpt><trkpt lat="48.15547" lon="-1.40872"><ele>107.87</ele></trkpt><trkpt lat="48.15548" lon="-1.40863"><ele>107.95</ele></trkpt><trkpt lat="48.1555" lon="-1.4085"><ele>107.86</ele></trkpt><trkpt lat="48.15552" lon="-1.40835"><ele>107.43</ele></trkpt><trkpt lat="48.15553" lon="-1.40821"><ele>107.13</ele></trkpt><trkpt lat="48.15554" lon="-1.40809"><ele>107</ele></trkpt><trkpt lat="48.15556" lon="-1.40798"><ele>107</ele></trkpt><trkpt lat="48.15558" lon="-1.40787"><ele>107</ele></trkpt><trkpt lat="48.1556" lon="-1.40776"><ele>106.9</ele></trkpt><trkpt lat="48.15561" lon="-1.40767"><ele>106.72</ele></trkpt><trkpt lat="48.15563" lon="-1.40759"><ele>106.59</ele></trkpt><trkpt lat="48.15571" lon="-1.40722"><ele>105.97</ele></trkpt><trkpt lat="48.15605" lon="-1.40565"><ele>100.4</ele></trkpt><trkpt lat="48.15624" lon="-1.40496"><ele>99.56</ele></trkpt><trkpt lat="48.15679" lon="-1.40305"><ele>106.89</ele></trkpt><trkpt lat="48.15694" lon="-1.40263"><ele>110.69</ele></trkpt><trkpt lat="48.15703" lon="-1.4024"><ele>111.88</ele></trkpt><trkpt lat="48.1574" lon="-1.40221"><ele>114.55</ele></trkpt><trkpt lat="48.15847" lon="-1.40175"><ele>117</ele></trkpt><trkpt lat="48.15849" lon="-1.40176"><ele>117</ele></trkpt><trkpt lat="48.15853" lon="-1.40176"><ele>117</ele></trkpt><trkpt lat="48.15849" lon="-1.40176"><ele>117</ele></trkpt><trkpt lat="48.15847" lon="-1.40175"><ele>117</ele></trkpt><trkpt lat="48.15845" lon="-1.40172"><ele>117</ele></trkpt><trkpt lat="48.15843" lon="-1.40168"><ele>117</ele></trkpt><trkpt lat="48.1584" lon="-1.40159"><ele>117</ele></trkpt><trkpt lat="48.15838" lon="-1.40152"><ele>117</ele></trkpt><trkpt lat="48.15828" lon="-1.40118"><ele>116.46</ele></trkpt><trkpt lat="48.15818" lon="-1.40082"><ele>115.48</ele></trkpt><trkpt lat="48.15808" lon="-1.40044"><ele>114.35</ele></trkpt><trkpt lat="48.15795" lon="-1.39992"><ele>112.86</ele></trkpt><trkpt lat="48.15768" lon="-1.39893"><ele>109.03</ele></trkpt><trkpt lat="48.15719" lon="-1.39841"><ele>106.53</ele></trkpt><trkpt lat="48.15678" lon="-1.398"><ele>103.89</ele></trkpt><trkpt lat="48.15661" lon="-1.39783"><ele>102.94</ele></trkpt><trkpt lat="48.15562" lon="-1.39818"><ele>100.23</ele></trkpt><trkpt lat="48.15544" lon="-1.39817"><ele>99.24</ele></trkpt><trkpt lat="48.1554" lon="-1.39811"><ele>98.93</ele></trkpt><trkpt lat="48.15532" lon="-1.39796"><ele>97.99</ele></trkpt><trkpt lat="48.15508" lon="-1.3961"><ele>92.16</ele></trkpt><trkpt lat="48.15458" lon="-1.3918"><ele>104.71</ele></trkpt><trkpt lat="48.1543" lon="-1.3894"><ele>106.6</ele></trkpt><trkpt lat="48.15366" lon="-1.38708"><ele>112</ele></trkpt><trkpt lat="48.15485" lon="-1.38651"><ele>111.96</ele></trkpt><trkpt lat="48.15567" lon="-1.38607"><ele>110.9</ele></trkpt><trkpt lat="48.15569" lon="-1.38608"><ele>110.89</ele></trkpt><trkpt lat="48.15572" lon="-1.38609"><ele>110.83</ele></trkpt><trkpt lat="48.15575" lon="-1.38608"><ele>110.76</ele></trkpt><trkpt lat="48.15578" lon="-1.38606"><ele>110.79</ele></trkpt><trkpt lat="48.15582" lon="-1.38604"><ele>110.79</ele></trkpt><trkpt lat="48.15587" lon="-1.38601"><ele>110.73</ele></trkpt><trkpt lat="48.15592" lon="-1.38598"><ele>110.67</ele></trkpt><trkpt lat="48.15599" lon="-1.38594"><ele>110.59</ele></trkpt><trkpt lat="48.15604" lon="-1.38592"><ele>110.34</ele></trkpt><trkpt lat="48.15618" lon="-1.38582"><ele>110.6</ele></trkpt><trkpt lat="48.15633" lon="-1.38574"><ele>110.78</ele></trkpt><trkpt lat="48.15637" lon="-1.38572"><ele>110.93</ele></trkpt><trkpt lat="48.15654" lon="-1.38564"><ele>111.27</ele></trkpt><trkpt lat="48.15703" lon="-1.38539"><ele>113.32</ele></trkpt><trkpt lat="48.15733" lon="-1.38524"><ele>114.75</ele></trkpt><trkpt lat="48.15795" lon="-1.38494"><ele>116.94</ele></trkpt><trkpt lat="48.15847" lon="-1.38468"><ele>116.31</ele></trkpt><trkpt lat="48.15894" lon="-1.38445"><ele>114.93</ele></trkpt><trkpt lat="48.15902" lon="-1.38441"><ele>114.82</ele></trkpt><trkpt lat="48.15905" lon="-1.38441"><ele>114.8</ele></trkpt><trkpt lat="48.15908" lon="-1.38441"><ele>114.8</ele></trkpt><trkpt lat="48.1591" lon="-1.38443"><ele>114.8</ele></trkpt><trkpt lat="48.15911" lon="-1.38444"><ele>114.8</ele></trkpt><trkpt lat="48.15912" lon="-1.38447"><ele>114.8</ele></trkpt><trkpt lat="48.15913" lon="-1.38453"><ele>114.8</ele></trkpt><trkpt lat="48.15915" lon="-1.38464"><ele>114.9</ele></trkpt><trkpt lat="48.15917" lon="-1.3848"><ele>115</ele></trkpt><trkpt lat="48.1592" lon="-1.38495"><ele>115.07</ele></trkpt><trkpt lat="48.15922" lon="-1.38507"><ele>115.1</ele></trkpt><trkpt lat="48.15927" lon="-1.38539"><ele>115.3</ele></trkpt><trkpt lat="48.1593" lon="-1.38556"><ele>115.39</ele></trkpt><trkpt lat="48.15933" lon="-1.38572"><ele>115.5</ele></trkpt><trkpt lat="48.15938" lon="-1.38602"><ele>115.66</ele></trkpt><trkpt lat="48.1594" lon="-1.38612"><ele>115.7</ele></trkpt><trkpt lat="48.15942" lon="-1.38623"><ele>115.77</ele></trkpt><trkpt lat="48.15944" lon="-1.38643"><ele>115.88</ele></trkpt><trkpt lat="48.15946" lon="-1.38654"><ele>115.9</ele></trkpt><trkpt lat="48.15947" lon="-1.38665"><ele>116</ele></trkpt><trkpt lat="48.1595" lon="-1.38684"><ele>116.1</ele></trkpt><trkpt lat="48.15951" lon="-1.38693"><ele>116.11</ele></trkpt><trkpt lat="48.15952" lon="-1.38706"><ele>116.2</ele></trkpt><trkpt lat="48.15953" lon="-1.38718"><ele>116.28</ele></trkpt><trkpt lat="48.15956" lon="-1.38737"><ele>116.4</ele></trkpt><trkpt lat="48.15957" lon="-1.38754"><ele>116.52</ele></trkpt><trkpt lat="48.15959" lon="-1.38768"><ele>116.89</ele></trkpt><trkpt lat="48.15961" lon="-1.38783"><ele>117</ele></trkpt><trkpt lat="48.15962" lon="-1.3879"><ele>117.04</ele></trkpt><trkpt lat="48.15963" lon="-1.38797"><ele>117</ele></trkpt><trkpt lat="48.15965" lon="-1.38814"><ele>117</ele></trkpt><trkpt lat="48.15968" lon="-1.38837"><ele>117</ele></trkpt><trkpt lat="48.15972" lon="-1.38864"><ele>117</ele></trkpt><trkpt lat="48.15977" lon="-1.38905"><ele>117</ele></trkpt><trkpt lat="48.15979" lon="-1.38922"><ele>117</ele></trkpt><trkpt lat="48.1598" lon="-1.38931"><ele>117</ele></trkpt><trkpt lat="48.1598" lon="-1.38937"><ele>117</ele></trkpt><trkpt lat="48.15981" lon="-1.38948"><ele>117</ele></trkpt><trkpt lat="48.15981" lon="-1.38953"><ele>117</ele></trkpt><trkpt lat="48.15981" lon="-1.38957"><ele>117</ele></trkpt><trkpt lat="48.15982" lon="-1.38964"><ele>117</ele></trkpt><trkpt lat="48.15983" lon="-1.38972"><ele>117</ele></trkpt><trkpt lat="48.15984" lon="-1.38984"><ele>117</ele></trkpt><trkpt lat="48.15987" lon="-1.38999"><ele>117</ele></trkpt><trkpt lat="48.15988" lon="-1.39009"><ele>117</ele></trkpt><trkpt lat="48.15991" lon="-1.39025"><ele>117</ele></trkpt><trkpt lat="48.15992" lon="-1.39033"><ele>117</ele></trkpt><trkpt lat="48.15993" lon="-1.39041"><ele>117</ele></trkpt><trkpt lat="48.15995" lon="-1.39059"><ele>117</ele></trkpt><trkpt lat="48.15998" lon="-1.3908"><ele>116.97</ele></trkpt><trkpt lat="48.15999" lon="-1.39091"><ele>116.99</ele></trkpt><trkpt lat="48.16" lon="-1.39102"><ele>116.97</ele></trkpt><trkpt lat="48.16002" lon="-1.39112"><ele>116.96</ele></trkpt><trkpt lat="48.16003" lon="-1.39123"><ele>117</ele></trkpt><trkpt lat="48.16004" lon="-1.39129"><ele>117</ele></trkpt><trkpt lat="48.16005" lon="-1.3914"><ele>116.92</ele></trkpt><trkpt lat="48.16008" lon="-1.39159"><ele>116.79</ele></trkpt><trkpt lat="48.16009" lon="-1.39167"><ele>116.7</ele></trkpt><trkpt lat="48.16009" lon="-1.39172"><ele>116.64</ele></trkpt><trkpt lat="48.1601" lon="-1.39178"><ele>116.58</ele></trkpt><trkpt lat="48.16032" lon="-1.39342"><ele>116.82</ele></trkpt><trkpt lat="48.16034" lon="-1.39353"><ele>116.92</ele></trkpt><trkpt lat="48.16035" lon="-1.39362"><ele>116.92</ele></trkpt><trkpt lat="48.16037" lon="-1.39382"><ele>116.93</ele></trkpt><trkpt lat="48.1604" lon="-1.39404"><ele>116.99</ele></trkpt><trkpt lat="48.16042" lon="-1.39419"><ele>117</ele></trkpt><trkpt lat="48.16047" lon="-1.39463"><ele>117.49</ele></trkpt><trkpt lat="48.16049" lon="-1.39492"><ele>117.87</ele></trkpt><trkpt lat="48.16051" lon="-1.39508"><ele>117.95</ele></trkpt><trkpt lat="48.16054" lon="-1.39533"><ele>117.97</ele></trkpt><trkpt lat="48.16057" lon="-1.39554"><ele>118</ele></trkpt><trkpt lat="48.16059" lon="-1.39577"><ele>118</ele></trkpt><trkpt lat="48.16063" lon="-1.396"><ele>118</ele></trkpt><trkpt lat="48.16066" lon="-1.39627"><ele>118</ele></trkpt><trkpt lat="48.16066" lon="-1.39635"><ele>118</ele></trkpt><trkpt lat="48.16068" lon="-1.39645"><ele>118</ele></trkpt><trkpt lat="48.1607" lon="-1.39663"><ele>118</ele></trkpt><trkpt lat="48.16073" lon="-1.39685"><ele>118</ele></trkpt><trkpt lat="48.16075" lon="-1.39703"><ele>118.27</ele></trkpt><trkpt lat="48.16077" lon="-1.39716"><ele>118.58</ele></trkpt><trkpt lat="48.1608" lon="-1.39732"><ele>118.67</ele></trkpt><trkpt lat="48.16083" lon="-1.39753"><ele>118.86</ele></trkpt><trkpt lat="48.16084" lon="-1.39762"><ele>118.87</ele></trkpt><trkpt lat="48.16089" lon="-1.39782"><ele>118.94</ele></trkpt><trkpt lat="48.16092" lon="-1.39802"><ele>118.66</ele></trkpt><trkpt lat="48.16095" lon="-1.39817"><ele>118.59</ele></trkpt><trkpt lat="48.16098" lon="-1.39829"><ele>118.54</ele></trkpt><trkpt lat="48.16102" lon="-1.39852"><ele>118.22</ele></trkpt><trkpt lat="48.16106" lon="-1.39867"><ele>118.13</ele></trkpt><trkpt lat="48.16109" lon="-1.39874"><ele>118.06</ele></trkpt><trkpt lat="48.16131" lon="-1.39958"><ele>117.9</ele></trkpt><trkpt lat="48.16133" lon="-1.39968"><ele>117.83</ele></trkpt><trkpt lat="48.16137" lon="-1.39977"><ele>117.7</ele></trkpt><trkpt lat="48.16141" lon="-1.39987"><ele>117.72</ele></trkpt><trkpt lat="48.16139" lon="-1.39998"><ele>117.74</ele></trkpt><trkpt lat="48.16144" lon="-1.40007"><ele>117.8</ele></trkpt><trkpt lat="48.16146" lon="-1.40014"><ele>117.9</ele></trkpt><trkpt lat="48.1615" lon="-1.40027"><ele>118</ele></trkpt><trkpt lat="48.16155" lon="-1.40042"><ele>118.1</ele></trkpt><trkpt lat="48.16162" lon="-1.40066"><ele>118.27</ele></trkpt><trkpt lat="48.16167" lon="-1.40085"><ele>118.3</ele></trkpt><trkpt lat="48.16171" lon="-1.401"><ele>118.49</ele></trkpt><trkpt lat="48.16176" lon="-1.40114"><ele>118.69</ele></trkpt><trkpt lat="48.16179" lon="-1.40125"><ele>118.88</ele></trkpt><trkpt lat="48.16183" lon="-1.40147"><ele>119.15</ele></trkpt><trkpt lat="48.16186" lon="-1.4016"><ele>119.35</ele></trkpt><trkpt lat="48.16191" lon="-1.40175"><ele>119.6</ele></trkpt><trkpt lat="48.16195" lon="-1.40192"><ele>119.86</ele></trkpt><trkpt lat="48.162" lon="-1.40207"><ele>120.05</ele></trkpt><trkpt lat="48.16212" lon="-1.40247"><ele>120.6</ele></trkpt><trkpt lat="48.16218" lon="-1.40266"><ele>120.9</ele></trkpt><trkpt lat="48.16223" lon="-1.40287"><ele>121</ele></trkpt><trkpt lat="48.16229" lon="-1.40307"><ele>121</ele></trkpt><trkpt lat="48.16238" lon="-1.40333"><ele>121</ele></trkpt><trkpt lat="48.1624" lon="-1.40346"><ele>121</ele></trkpt><trkpt lat="48.16246" lon="-1.40365"><ele>121</ele></trkpt><trkpt lat="48.16251" lon="-1.4038"><ele>121</ele></trkpt><trkpt lat="48.16255" lon="-1.40391"><ele>121</ele></trkpt><trkpt lat="48.16259" lon="-1.40403"><ele>121</ele></trkpt><trkpt lat="48.16271" lon="-1.40433"><ele>121</ele></trkpt><trkpt lat="48.1628" lon="-1.40456"><ele>121</ele></trkpt><trkpt lat="48.16291" lon="-1.40483"><ele>121</ele></trkpt><trkpt lat="48.16296" lon="-1.40498"><ele>120.98</ele></trkpt><trkpt lat="48.16307" lon="-1.40522"><ele>120.82</ele></trkpt><trkpt lat="48.16313" lon="-1.40536"><ele>120.48</ele></trkpt><trkpt lat="48.16318" lon="-1.40548"><ele>120.25</ele></trkpt><trkpt lat="48.1632" lon="-1.40555"><ele>120.24</ele></trkpt><trkpt lat="48.16322" lon="-1.40562"><ele>120.07</ele></trkpt><trkpt lat="48.16324" lon="-1.40569"><ele>120.06</ele></trkpt><trkpt lat="48.16336" lon="-1.40599"><ele>120</ele></trkpt><trkpt lat="48.16346" lon="-1.40624"><ele>120</ele></trkpt><trkpt lat="48.16354" lon="-1.40646"><ele>120</ele></trkpt><trkpt lat="48.16435" lon="-1.4086"><ele>118.92</ele></trkpt><trkpt lat="48.16467" lon="-1.40942"><ele>117.66</ele></trkpt><trkpt lat="48.16481" lon="-1.40977"><ele>117.32</ele></trkpt><trkpt lat="48.16485" lon="-1.40986"><ele>117.21</ele></trkpt><trkpt lat="48.16487" lon="-1.40992"><ele>117.11</ele></trkpt><trkpt lat="48.16489" lon="-1.40997"><ele>117.13</ele></trkpt><trkpt lat="48.16491" lon="-1.41001"><ele>117.08</ele></trkpt><trkpt lat="48.16492" lon="-1.41003"><ele>117.08</ele></trkpt><trkpt lat="48.16494" lon="-1.41005"><ele>117.24</ele></trkpt><trkpt lat="48.16498" lon="-1.41009"><ele>117.46</ele></trkpt><trkpt lat="48.16498" lon="-1.4102"><ele>117.48</ele></trkpt><trkpt lat="48.16498" lon="-1.41026"><ele>117.48</ele></trkpt><trkpt lat="48.16499" lon="-1.41031"><ele>117.49</ele></trkpt><trkpt lat="48.16506" lon="-1.41053"><ele>117.84</ele></trkpt><trkpt lat="48.16518" lon="-1.4109"><ele>118</ele></trkpt><trkpt lat="48.16524" lon="-1.41112"><ele>118.05</ele></trkpt><trkpt lat="48.16526" lon="-1.4112"><ele>118.01</ele></trkpt><trkpt lat="48.1653" lon="-1.41134"><ele>118.02</ele></trkpt><trkpt lat="48.16536" lon="-1.41156"><ele>118.21</ele></trkpt><trkpt lat="48.16548" lon="-1.41196"><ele>118.32</ele></trkpt><trkpt lat="48.16561" lon="-1.41236"><ele>118.25</ele></trkpt><trkpt lat="48.16573" lon="-1.41279"><ele>117.97</ele></trkpt><trkpt lat="48.16587" lon="-1.41323"><ele>117.97</ele></trkpt><trkpt lat="48.16599" lon="-1.4136"><ele>118.01</ele></trkpt><trkpt lat="48.16608" lon="-1.4139"><ele>117.85</ele></trkpt><trkpt lat="48.16623" lon="-1.41434"><ele>117.97</ele></trkpt><trkpt lat="48.16638" lon="-1.41475"><ele>118.01</ele></trkpt><trkpt lat="48.16647" lon="-1.41504"><ele>118.12</ele></trkpt><trkpt lat="48.1665" lon="-1.41511"><ele>118.09</ele></trkpt><trkpt lat="48.16652" lon="-1.41517"><ele>118.08</ele></trkpt><trkpt lat="48.16653" lon="-1.41523"><ele>118.1</ele></trkpt><trkpt lat="48.16655" lon="-1.41529"><ele>118.11</ele></trkpt><trkpt lat="48.16656" lon="-1.41535"><ele>118.13</ele></trkpt><trkpt lat="48.16659" lon="-1.41545"><ele>118.26</ele></trkpt><trkpt lat="48.16672" lon="-1.41581"><ele>118.29</ele></trkpt><trkpt lat="48.16731" lon="-1.41736"><ele>119.77</ele></trkpt><trkpt lat="48.16737" lon="-1.41756"><ele>120.09</ele></trkpt><trkpt lat="48.16746" lon="-1.41782"><ele>120.47</ele></trkpt><trkpt lat="48.16749" lon="-1.4179"><ele>120.48</ele></trkpt><trkpt lat="48.1675" lon="-1.41796"><ele>120.49</ele></trkpt><trkpt lat="48.16751" lon="-1.41801"><ele>120.53</ele></trkpt><trkpt lat="48.16751" lon="-1.41807"><ele>120.59</ele></trkpt><trkpt lat="48.16752" lon="-1.41814"><ele>120.72</ele></trkpt><trkpt lat="48.16751" lon="-1.41821"><ele>120.71</ele></trkpt><trkpt lat="48.16751" lon="-1.41829"><ele>120.87</ele></trkpt><trkpt lat="48.16752" lon="-1.41842"><ele>120.88</ele></trkpt><trkpt lat="48.16752" lon="-1.41848"><ele>120.89</ele></trkpt><trkpt lat="48.16753" lon="-1.41855"><ele>120.85</ele></trkpt><trkpt lat="48.16753" lon="-1.41861"><ele>120.88</ele></trkpt><trkpt lat="48.16754" lon="-1.41869"><ele>120.8</ele></trkpt><trkpt lat="48.16755" lon="-1.41876"><ele>120.87</ele></trkpt><trkpt lat="48.16756" lon="-1.41885"><ele>120.89</ele></trkpt><trkpt lat="48.16757" lon="-1.41893"><ele>120.92</ele></trkpt><trkpt lat="48.16759" lon="-1.4191"><ele>120.88</ele></trkpt><trkpt lat="48.16763" lon="-1.41934"><ele>121.05</ele></trkpt><trkpt lat="48.16765" lon="-1.41948"><ele>121.14</ele></trkpt><trkpt lat="48.16766" lon="-1.41956"><ele>121.3</ele></trkpt><trkpt lat="48.16768" lon="-1.41965"><ele>121.35</ele></trkpt><trkpt lat="48.16769" lon="-1.41975"><ele>121.47</ele></trkpt><trkpt lat="48.16771" lon="-1.41984"><ele>121.63</ele></trkpt><trkpt lat="48.16772" lon="-1.41992"><ele>121.54</ele></trkpt><trkpt lat="48.16774" lon="-1.42"><ele>121.56</ele></trkpt><trkpt lat="48.16776" lon="-1.42013"><ele>121.58</ele></trkpt><trkpt lat="48.16825" lon="-1.42185"><ele>121.14</ele></trkpt><trkpt lat="48.16833" lon="-1.42203"><ele>121.21</ele></trkpt><trkpt lat="48.16837" lon="-1.42213"><ele>121.17</ele></trkpt><trkpt lat="48.1684" lon="-1.4222"><ele>121.04</ele></trkpt><trkpt lat="48.16842" lon="-1.42226"><ele>121.16</ele></trkpt><trkpt lat="48.16844" lon="-1.42233"><ele>120.97</ele></trkpt><trkpt lat="48.16846" lon="-1.42239"><ele>121.16</ele></trkpt><trkpt lat="48.16847" lon="-1.42245"><ele>121.15</ele></trkpt><trkpt lat="48.16849" lon="-1.42256"><ele>121.19</ele></trkpt><trkpt lat="48.16847" lon="-1.42245"><ele>121.15</ele></trkpt><trkpt lat="48.16846" lon="-1.42239"><ele>121.16</ele></trkpt><trkpt lat="48.16871" lon="-1.42228"><ele>121.06</ele></trkpt><trkpt lat="48.16932" lon="-1.42192"><ele>118.89</ele></trkpt><trkpt lat="48.16981" lon="-1.42159"><ele>115.8</ele></trkpt><trkpt lat="48.17027" lon="-1.42119"><ele>113.03</ele></trkpt><trkpt lat="48.17044" lon="-1.42099"><ele>112.12</ele></trkpt><trkpt lat="48.17068" lon="-1.42069"><ele>110.9</ele></trkpt><trkpt lat="48.17107" lon="-1.421"><ele>110.97</ele></trkpt><trkpt lat="48.17125" lon="-1.42085"><ele>110.97</ele></trkpt><trkpt lat="48.17127" lon="-1.42081"><ele>111.07</ele></trkpt><trkpt lat="48.17131" lon="-1.42077"><ele>111.23</ele></trkpt><trkpt lat="48.17135" lon="-1.42073"><ele>111.43</ele></trkpt><trkpt lat="48.17138" lon="-1.4207"><ele>111.71</ele></trkpt><trkpt lat="48.17142" lon="-1.42067"><ele>111.93</ele></trkpt><trkpt lat="48.17146" lon="-1.42063"><ele>112.29</ele></trkpt><trkpt lat="48.1715" lon="-1.42061"><ele>112.6</ele></trkpt><trkpt lat="48.17154" lon="-1.42058"><ele>112.85</ele></trkpt><trkpt lat="48.17158" lon="-1.42056"><ele>113.01</ele></trkpt><trkpt lat="48.17162" lon="-1.42054"><ele>113.09</ele></trkpt><trkpt lat="48.17165" lon="-1.42052"><ele>113.09</ele></trkpt><trkpt lat="48.17168" lon="-1.4205"><ele>113.38</ele></trkpt><trkpt lat="48.17172" lon="-1.42046"><ele>113.47</ele></trkpt><trkpt lat="48.17176" lon="-1.42042"><ele>113.48</ele></trkpt><trkpt lat="48.1718" lon="-1.4204"><ele>113.61</ele></trkpt><trkpt lat="48.17184" lon="-1.42038"><ele>113.69</ele></trkpt><trkpt lat="48.17189" lon="-1.42038"><ele>113.59</ele></trkpt><trkpt lat="48.17191" lon="-1.42035"><ele>113.72</ele></trkpt><trkpt lat="48.17195" lon="-1.42029"><ele>113.79</ele></trkpt><trkpt lat="48.17191" lon="-1.42035"><ele>113.72</ele></trkpt><trkpt lat="48.17189" lon="-1.42038"><ele>113.59</ele></trkpt><trkpt lat="48.17186" lon="-1.42042"><ele>113.57</ele></trkpt><trkpt lat="48.17185" lon="-1.42046"><ele>113.42</ele></trkpt><trkpt lat="48.17184" lon="-1.4205"><ele>113.23</ele></trkpt><trkpt lat="48.17183" lon="-1.42056"><ele>113.25</ele></trkpt><trkpt lat="48.17182" lon="-1.42062"><ele>113.13</ele></trkpt><trkpt lat="48.17182" lon="-1.42067"><ele>112.82</ele></trkpt><trkpt lat="48.17183" lon="-1.42072"><ele>112.67</ele></trkpt><trkpt lat="48.17183" lon="-1.42077"><ele>112.51</ele></trkpt><trkpt lat="48.17184" lon="-1.42082"><ele>112.23</ele></trkpt><trkpt lat="48.17185" lon="-1.42086"><ele>112.1</ele></trkpt><trkpt lat="48.17186" lon="-1.42091"><ele>111.93</ele></trkpt><trkpt lat="48.17188" lon="-1.42101"><ele>111.51</ele></trkpt><trkpt lat="48.17207" lon="-1.42151"><ele>110.13</ele></trkpt><trkpt lat="48.17212" lon="-1.42165"><ele>109.9</ele></trkpt><trkpt lat="48.17216" lon="-1.42179"><ele>109.61</ele></trkpt><trkpt lat="48.17217" lon="-1.42186"><ele>109.5</ele></trkpt><trkpt lat="48.17218" lon="-1.42193"><ele>109.52</ele></trkpt><trkpt lat="48.17219" lon="-1.422"><ele>109.32</ele></trkpt><trkpt lat="48.1722" lon="-1.42206"><ele>109.19</ele></trkpt><trkpt lat="48.17221" lon="-1.42212"><ele>109.1</ele></trkpt><trkpt lat="48.17221" lon="-1.42218"><ele>108.83</ele></trkpt><trkpt lat="48.17221" lon="-1.42224"><ele>108.72</ele></trkpt><trkpt lat="48.17221" lon="-1.42228"><ele>108.59</ele></trkpt><trkpt lat="48.17226" lon="-1.42224"><ele>108.76</ele></trkpt><trkpt lat="48.17228" lon="-1.42222"><ele>108.76</ele></trkpt><trkpt lat="48.17231" lon="-1.42218"><ele>108.97</ele></trkpt><trkpt lat="48.17244" lon="-1.42201"><ele>110.12</ele></trkpt><trkpt lat="48.17247" lon="-1.42198"><ele>110.38</ele></trkpt><trkpt lat="48.17249" lon="-1.42196"><ele>110.72</ele></trkpt><trkpt lat="48.17252" lon="-1.42195"><ele>111.37</ele></trkpt><trkpt lat="48.17254" lon="-1.42195"><ele>111.37</ele></trkpt><trkpt lat="48.17257" lon="-1.42195"><ele>111.95</ele></trkpt><trkpt lat="48.17259" lon="-1.42197"><ele>111.65</ele></trkpt><trkpt lat="48.17262" lon="-1.42201"><ele>112</ele></trkpt><trkpt lat="48.17266" lon="-1.42206"><ele>112.27</ele></trkpt><trkpt lat="48.17271" lon="-1.42214"><ele>112.26</ele></trkpt><trkpt lat="48.17277" lon="-1.42227"><ele>112.31</ele></trkpt><trkpt lat="48.17293" lon="-1.42258"><ele>112.73</ele></trkpt><trkpt lat="48.17299" lon="-1.42271"><ele>112.9</ele></trkpt><trkpt lat="48.17306" lon="-1.42284"><ele>112.8</ele></trkpt><trkpt lat="48.17312" lon="-1.42299"><ele>112.84</ele></trkpt><trkpt lat="48.17335" lon="-1.42346"><ele>112.44</ele></trkpt><trkpt lat="48.17357" lon="-1.4243"><ele>109.67</ele></trkpt><trkpt lat="48.17356" lon="-1.42444"><ele>109.06</ele></trkpt><trkpt lat="48.17355" lon="-1.42456"><ele>108.34</ele></trkpt><trkpt lat="48.17355" lon="-1.42467"><ele>107.47</ele></trkpt><trkpt lat="48.17354" lon="-1.42476"><ele>106.74</ele></trkpt><trkpt lat="48.17355" lon="-1.42485"><ele>106.27</ele></trkpt><trkpt lat="48.17355" lon="-1.42494"><ele>105.7</ele></trkpt><trkpt lat="48.17355" lon="-1.42502"><ele>105.14</ele></trkpt><trkpt lat="48.17355" lon="-1.42513"><ele>104.71</ele></trkpt><trkpt lat="48.17356" lon="-1.42524"><ele>104.03</ele></trkpt><trkpt lat="48.17356" lon="-1.42533"><ele>103.49</ele></trkpt><trkpt lat="48.17357" lon="-1.42544"><ele>102.88</ele></trkpt><trkpt lat="48.17357" lon="-1.42555"><ele>102.54</ele></trkpt><trkpt lat="48.17357" lon="-1.42566"><ele>102.23</ele></trkpt><trkpt lat="48.17357" lon="-1.42574"><ele>102.11</ele></trkpt><trkpt lat="48.17357" lon="-1.42581"><ele>102.08</ele></trkpt><trkpt lat="48.17368" lon="-1.42689"><ele>104.86</ele></trkpt><trkpt lat="48.17384" lon="-1.42799"><ele>112.25</ele></trkpt><trkpt lat="48.17397" lon="-1.4286"><ele>114.81</ele></trkpt><trkpt lat="48.174" lon="-1.42861"><ele>114.66</ele></trkpt><trkpt lat="48.17402" lon="-1.42862"><ele>114.67</ele></trkpt><trkpt lat="48.17405" lon="-1.42864"><ele>114.67</ele></trkpt><trkpt lat="48.17406" lon="-1.42866"><ele>114.74</ele></trkpt><trkpt lat="48.1741" lon="-1.42875"><ele>114.74</ele></trkpt><trkpt lat="48.17421" lon="-1.42903"><ele>115.19</ele></trkpt><trkpt lat="48.17428" lon="-1.42923"><ele>115.58</ele></trkpt><trkpt lat="48.17429" lon="-1.42927"><ele>115.68</ele></trkpt><trkpt lat="48.17429" lon="-1.42932"><ele>115.74</ele></trkpt><trkpt lat="48.1743" lon="-1.42936"><ele>115.83</ele></trkpt><trkpt lat="48.1743" lon="-1.4294"><ele>115.96</ele></trkpt><trkpt lat="48.17429" lon="-1.42942"><ele>115.96</ele></trkpt><trkpt lat="48.17439" lon="-1.42945"><ele>116.15</ele></trkpt><trkpt lat="48.17442" lon="-1.42946"><ele>116.12</ele></trkpt><trkpt lat="48.17446" lon="-1.42946"><ele>116.1</ele></trkpt><trkpt lat="48.17449" lon="-1.42946"><ele>116.1</ele></trkpt><trkpt lat="48.17453" lon="-1.42945"><ele>116.08</ele></trkpt><trkpt lat="48.17458" lon="-1.42943"><ele>116.24</ele></trkpt><trkpt lat="48.17466" lon="-1.4294"><ele>116.15</ele></trkpt><trkpt lat="48.17495" lon="-1.42963"><ele>116.79</ele></trkpt><trkpt lat="48.17501" lon="-1.42969"><ele>117.02</ele></trkpt><trkpt lat="48.17558" lon="-1.43015"><ele>117.8</ele></trkpt><trkpt lat="48.17581" lon="-1.43031"><ele>117.84</ele></trkpt><trkpt lat="48.176" lon="-1.43038"><ele>117.27</ele></trkpt><trkpt lat="48.1763" lon="-1.43056"><ele>116.55</ele></trkpt><trkpt lat="48.17659" lon="-1.43076"><ele>116.02</ele></trkpt><trkpt lat="48.17679" lon="-1.43093"><ele>115.53</ele></trkpt><trkpt lat="48.17686" lon="-1.43099"><ele>115.39</ele></trkpt><trkpt lat="48.17693" lon="-1.43104"><ele>115.32</ele></trkpt><trkpt lat="48.17698" lon="-1.4311"><ele>115.36</ele></trkpt><trkpt lat="48.17704" lon="-1.43116"><ele>115.29</ele></trkpt><trkpt lat="48.17709" lon="-1.43121"><ele>115.3</ele></trkpt><trkpt lat="48.17713" lon="-1.43126"><ele>115.32</ele></trkpt><trkpt lat="48.17717" lon="-1.43132"><ele>115.43</ele></trkpt><trkpt lat="48.17721" lon="-1.43137"><ele>115.43</ele></trkpt><trkpt lat="48.17728" lon="-1.43147"><ele>115.52</ele></trkpt><trkpt lat="48.17749" lon="-1.43181"><ele>116.17</ele></trkpt><trkpt lat="48.17756" lon="-1.43191"><ele>116.16</ele></trkpt><trkpt lat="48.17761" lon="-1.43198"><ele>116.32</ele></trkpt><trkpt lat="48.17765" lon="-1.43203"><ele>116.41</ele></trkpt><trkpt lat="48.17771" lon="-1.43209"><ele>116.54</ele></trkpt><trkpt lat="48.17772" lon="-1.4321"><ele>116.54</ele></trkpt><trkpt lat="48.17774" lon="-1.43213"><ele>116.61</ele></trkpt><trkpt lat="48.17778" lon="-1.43217"><ele>116.62</ele></trkpt><trkpt lat="48.17782" lon="-1.4322"><ele>116.65</ele></trkpt><trkpt lat="48.17786" lon="-1.43223"><ele>116.74</ele></trkpt><trkpt lat="48.17791" lon="-1.43226"><ele>117.01</ele></trkpt><trkpt lat="48.17797" lon="-1.4323"><ele>116.73</ele></trkpt><trkpt lat="48.17804" lon="-1.43234"><ele>116.6</ele></trkpt><trkpt lat="48.1781" lon="-1.43241"><ele>116.73</ele></trkpt><trkpt lat="48.17818" lon="-1.43249"><ele>116.84</ele></trkpt><trkpt lat="48.17833" lon="-1.43261"><ele>116.72</ele></trkpt><trkpt lat="48.17848" lon="-1.43275"><ele>116.71</ele></trkpt><trkpt lat="48.17858" lon="-1.43282"><ele>116.59</ele></trkpt><trkpt lat="48.17864" lon="-1.43288"><ele>116.54</ele></trkpt><trkpt lat="48.17872" lon="-1.43295"><ele>116.51</ele></trkpt><trkpt lat="48.17875" lon="-1.43292"><ele>116.34</ele></trkpt><trkpt lat="48.17878" lon="-1.43292"><ele>116.34</ele></trkpt><trkpt lat="48.17881" lon="-1.43292"><ele>116.27</ele></trkpt><trkpt lat="48.17884" lon="-1.43295"><ele>116.24</ele></trkpt><trkpt lat="48.17885" lon="-1.43299"><ele>116.33</ele></trkpt><trkpt lat="48.17885" lon="-1.43303"><ele>116.38</ele></trkpt><trkpt lat="48.17884" lon="-1.43307"><ele>116.38</ele></trkpt><trkpt lat="48.17893" lon="-1.43318"><ele>116.38</ele></trkpt><trkpt lat="48.17916" lon="-1.43347"><ele>116.6</ele></trkpt><trkpt lat="48.17937" lon="-1.43376"><ele>116.62</ele></trkpt><trkpt lat="48.17952" lon="-1.43395"><ele>116.43</ele></trkpt><trkpt lat="48.17957" lon="-1.43403"><ele>116.33</ele></trkpt><trkpt lat="48.17961" lon="-1.43409"><ele>116.26</ele></trkpt><trkpt lat="48.17968" lon="-1.43421"><ele>116.13</ele></trkpt><trkpt lat="48.17983" lon="-1.43447"><ele>115.87</ele></trkpt></trkseg></trk></gpx>
