<?xml version="1.0" encoding="UTF-8" standalone="no"?>
<gpx xmlns="http://www.topografix.com/GPX/1/1" version="1.1" xmlns:xsi="http://www.w3.org/2001/XMLSchema-instance" xsi:schemaLocation="http://www.topografix.com/GPX/1/1 http://www.topografix.com/GPX/1/1/gpx.xsd" creator="Cirkwi"><metadata><name><![CDATA[La Vallée du Couesnon]]></name><desc><![CDATA[Cette randonnée au fil de l’eau vous fera découvrir la vallée du Couesnon. Cet espace naturel offre des paysages remarquables, notamment du fait de l’encaissement prononcé de la vallée, ce qui en fait un terrain de jeu idéal pour la pratique de sports nature, comme le canoë, l’escalade et la randonnée… En raison de sa configuration, le long des rives du Couesnon, cette randonnée offre de multiples possibilités de parcours, au gré des passerelles qui franchissent le cours d’eau.  Cette balade fait partie d'une sélection des "Plus belles balades" du département, réalisé par Ille & Vilaine Tourisme.  Belles découvertes en Ille-et-Vilaine avec les balades "Labellisées FFRandonnée". Ce label de qualité est attribué par le Comité Départemental de Randonnée Pédestre d'Ille-et-Vilaine selon une vingtaine de critères (balisage, entretien, intérêt patrimonial, sécurité...). Retrouvez cette balade dans les topoguides de la FFRP et sur l'appli Ma Rando.]]></desc><author><name><![CDATA[Liffré-Cormier Communauté]]></name></author><link href="http://fichier0.cirkwi.com/image/photo/circuit/1300x1300/23180/fr/0.jpg"><text><![CDATA[Point de vue sur la Vallée du Couesnon|Jc.Nicolle]]></text></link><link href="http://fichier0.cirkwi.com/image/photo/circuit/1300x1300/23180/fr/1.jpg"><text><![CDATA[Vallée du Couesnon|Jc.Nicolle]]></text></link><link href="http://fichier0.cirkwi.com/image/photo/circuit/1300x1300/23180/fr/2.jpg"><text><![CDATA[Sentiers escarpés|Jc.Nicolle]]></text></link><time>2026-04-04T02:17:13Z</time></metadata><wpt lat="48.307326" lon="-1.433142"><ele>0</ele><name><![CDATA[Château de la Ville Olivier]]></name><desc></desc><link href="http://fichier0.cirkwi.com/image/photo/poi/1300x1300/1374250/fr/0.jpg"><text><![CDATA[Château de la Ville-Olivier|Jc.Nicolle]]></text></link></wpt><wpt lat="48.307413" lon="-1.4324217"><ele>0</ele><name><![CDATA[Lavoir]]></name><desc></desc><link href="http://fichier0.cirkwi.com/image/photo/poi/1300x1300/1374251/fr/0.jpg"><text><![CDATA[Lavoir|© N. Rudelle]]></text></link></wpt><wpt lat="48.312267" lon="-1.431637"><ele>0</ele><name><![CDATA[Chemin des Comtesses]]></name><desc></desc><link href="http://fichier0.cirkwi.com/image/photo/poi/1300x1300/1374252/fr/0.jpg"><text><![CDATA[Sentier des Comtesses|Jc.Nicolle]]></text></link></wpt><wpt lat="48.316466" lon="-1.445099"><ele>0</ele><name><![CDATA[Belvédère]]></name><desc></desc><link href="http://fichier0.cirkwi.com/image/photo/poi/1300x1300/1374253/fr/0.jpg"><text><![CDATA[Le belvédère du Couesnon|©Tous droits réservés]]></text></link></wpt><wpt lat="48.321104" lon="-1.467458"><ele>0</ele><name><![CDATA[Moulin du Guyon]]></name><desc></desc><link href="http://fichier0.cirkwi.com/image/photo/poi/1300x1300/1374254/fr/0.jpg"><text><![CDATA[Moulin du Guyon|Jc.Nicolle]]></text></link></wpt><wpt lat="48.314354" lon="-1.433448"><ele>0</ele><name><![CDATA[Rocher d'escalade]]></name><desc></desc><link href="http://fichier0.cirkwi.com/image/photo/poi/1300x1300/1374255/fr/0.jpg"><text><![CDATA[Rochers d'escalade|Jc.Nicolle]]></text></link></wpt><wpt lat="48.3121" lon="-1.430851"><ele>0</ele><name><![CDATA[Pont de la Roche]]></name><desc></desc><link href="http://fichier0.cirkwi.com/image/photo/poi/1300x1300/1374256/fr/0.jpg"><text><![CDATA[Pont de la Roche|Jc.Nicolle]]></text></link></wpt><trk><trkseg><trkpt lat="48.307175" lon="-1.432971"><ele>56.51</ele></trkpt><trkpt lat="48.307236" lon="-1.432531"><ele>54.41</ele></trkpt><trkpt lat="48.307465" lon="-1.432399"><ele>50.54</ele></trkpt><trkpt lat="48.307549" lon="-1.432121"><ele>50.33</ele></trkpt><trkpt lat="48.30798" lon="-1.432085"><ele>55.06</ele></trkpt><trkpt lat="48.30904" lon="-1.431986"><ele>54.89</ele></trkpt><trkpt lat="48.309196" lon="-1.432644"><ele>54.26</ele></trkpt><trkpt lat="48.308746" lon="-1.432761"><ele>53.91</ele></trkpt><trkpt lat="48.309353" lon="-1.43271"><ele>61.49</ele></trkpt><trkpt lat="48.30983" lon="-1.432447"><ele>58.04</ele></trkpt><trkpt lat="48.310539" lon="-1.432444"><ele>60.74</ele></trkpt><trkpt lat="48.311127" lon="-1.432379"><ele>57.61</ele></trkpt><trkpt lat="48.311989" lon="-1.431712"><ele>56.97</ele></trkpt><trkpt lat="48.312286" lon="-1.431585"><ele>62.58</ele></trkpt><trkpt lat="48.312645" lon="-1.431692"><ele>61.19</ele></trkpt><trkpt lat="48.313175" lon="-1.431918"><ele>63.76</ele></trkpt><trkpt lat="48.313316" lon="-1.432036"><ele>61.41</ele></trkpt><trkpt lat="48.313282" lon="-1.432547"><ele>61.69</ele></trkpt><trkpt lat="48.313099" lon="-1.432831"><ele>67.01</ele></trkpt><trkpt lat="48.313034" lon="-1.433406"><ele>68.85</ele></trkpt><trkpt lat="48.312988" lon="-1.434308"><ele>69.43</ele></trkpt><trkpt lat="48.312939" lon="-1.435086"><ele>68.02</ele></trkpt><trkpt lat="48.312927" lon="-1.435504"><ele>74.09</ele></trkpt><trkpt lat="48.312946" lon="-1.436153"><ele>77.42</ele></trkpt><trkpt lat="48.312939" lon="-1.43699"><ele>81.28</ele></trkpt><trkpt lat="48.312927" lon="-1.437771"><ele>81.71</ele></trkpt><trkpt lat="48.313053" lon="-1.438806"><ele>80.42</ele></trkpt><trkpt lat="48.313282" lon="-1.439874"><ele>76.31</ele></trkpt><trkpt lat="48.313499" lon="-1.440012"><ele>75.77</ele></trkpt><trkpt lat="48.313702" lon="-1.440148"><ele>82.66</ele></trkpt><trkpt lat="48.313889" lon="-1.440269"><ele>83.13</ele></trkpt><trkpt lat="48.314362" lon="-1.440506"><ele>79.12</ele></trkpt><trkpt lat="48.314476" lon="-1.441081"><ele>93.25</ele></trkpt><trkpt lat="48.31488" lon="-1.441231"><ele>92.24</ele></trkpt><trkpt lat="48.315369" lon="-1.441294"><ele>83.36</ele></trkpt><trkpt lat="48.31559" lon="-1.441337"><ele>76.88</ele></trkpt><trkpt lat="48.315838" lon="-1.441557"><ele>65.55</ele></trkpt><trkpt lat="48.315868" lon="-1.441924"><ele>77.08</ele></trkpt><trkpt lat="48.316032" lon="-1.443218"><ele>84.42</ele></trkpt><trkpt lat="48.316471" lon="-1.443802"><ele>75.37</ele></trkpt><trkpt lat="48.316929" lon="-1.444713"><ele>57.33</ele></trkpt><trkpt lat="48.317211" lon="-1.445192"><ele>55.67</ele></trkpt><trkpt lat="48.317272" lon="-1.445939"><ele>57.02</ele></trkpt><trkpt lat="48.31757" lon="-1.4465"><ele>53.7</ele></trkpt><trkpt lat="48.31786" lon="-1.447277"><ele>47.56</ele></trkpt><trkpt lat="48.31815" lon="-1.447851"><ele>41.92</ele></trkpt><trkpt lat="48.318321" lon="-1.448335"><ele>40.61</ele></trkpt><trkpt lat="48.318024" lon="-1.448719"><ele>48.69</ele></trkpt><trkpt lat="48.317455" lon="-1.448934"><ele>58.04</ele></trkpt><trkpt lat="48.317497" lon="-1.44941"><ele>63.31</ele></trkpt><trkpt lat="48.317699" lon="-1.449478"><ele>64.59</ele></trkpt><trkpt lat="48.317795" lon="-1.450888"><ele>73.49</ele></trkpt><trkpt lat="48.318081" lon="-1.451719"><ele>77.78</ele></trkpt><trkpt lat="48.318272" lon="-1.452718"><ele>82.55</ele></trkpt><trkpt lat="48.318398" lon="-1.452957"><ele>81.79</ele></trkpt><trkpt lat="48.318806" lon="-1.45327"><ele>68.23</ele></trkpt><trkpt lat="48.318996" lon="-1.453742"><ele>62.67</ele></trkpt><trkpt lat="48.319061" lon="-1.454935"><ele>76.92</ele></trkpt><trkpt lat="48.318989" lon="-1.455604"><ele>74.59</ele></trkpt><trkpt lat="48.318962" lon="-1.455913"><ele>76.21</ele></trkpt><trkpt lat="48.319038" lon="-1.456323"><ele>72.31</ele></trkpt><trkpt lat="48.319286" lon="-1.457623"><ele>66.43</ele></trkpt><trkpt lat="48.319138" lon="-1.458152"><ele>56.73</ele></trkpt><trkpt lat="48.318897" lon="-1.458108"><ele>60.7</ele></trkpt><trkpt lat="48.318829" lon="-1.458333"><ele>58.95</ele></trkpt><trkpt lat="48.318966" lon="-1.458626"><ele>58.02</ele></trkpt><trkpt lat="48.319336" lon="-1.459057"><ele>64.67</ele></trkpt><trkpt lat="48.319572" lon="-1.460437"><ele>73.31</ele></trkpt><trkpt lat="48.31971" lon="-1.461163"><ele>69.4</ele></trkpt><trkpt lat="48.319706" lon="-1.46177"><ele>59.72</ele></trkpt><trkpt lat="48.31953" lon="-1.462028"><ele>52.22</ele></trkpt><trkpt lat="48.319595" lon="-1.462234"><ele>51.5</ele></trkpt><trkpt lat="48.319649" lon="-1.462562"><ele>60.62</ele></trkpt><trkpt lat="48.320042" lon="-1.46305"><ele>65.99</ele></trkpt><trkpt lat="48.320004" lon="-1.463695"><ele>69.65</ele></trkpt><trkpt lat="48.320114" lon="-1.464391"><ele>69.81</ele></trkpt><trkpt lat="48.320175" lon="-1.46476"><ele>69.53</ele></trkpt><trkpt lat="48.320305" lon="-1.465403"><ele>65.81</ele></trkpt><trkpt lat="48.320244" lon="-1.465966"><ele>60.93</ele></trkpt><trkpt lat="48.320129" lon="-1.466808"><ele>56.46</ele></trkpt><trkpt lat="48.319801" lon="-1.467499"><ele>55.45</ele></trkpt><trkpt lat="48.319614" lon="-1.467823"><ele>65.35</ele></trkpt><trkpt lat="48.319695" lon="-1.468274"><ele>60.14</ele></trkpt><trkpt lat="48.32003" lon="-1.468704"><ele>39.4</ele></trkpt><trkpt lat="48.320129" lon="-1.468887"><ele>36.68</ele></trkpt><trkpt lat="48.320267" lon="-1.468923"><ele>37.26</ele></trkpt><trkpt lat="48.320541" lon="-1.468741"><ele>38.3</ele></trkpt><trkpt lat="48.320988" lon="-1.46795"><ele>40.22</ele></trkpt><trkpt lat="48.321365" lon="-1.467343"><ele>41.69</ele></trkpt><trkpt lat="48.321552" lon="-1.466736"><ele>39.43</ele></trkpt><trkpt lat="48.3218" lon="-1.465175"><ele>50.38</ele></trkpt><trkpt lat="48.321877" lon="-1.461807"><ele>54.54</ele></trkpt><trkpt lat="48.321899" lon="-1.46139"><ele>54.78</ele></trkpt><trkpt lat="48.321709" lon="-1.461308"><ele>54.68</ele></trkpt><trkpt lat="48.321465" lon="-1.461695"><ele>50.31</ele></trkpt><trkpt lat="48.321083" lon="-1.461613"><ele>45.53</ele></trkpt><trkpt lat="48.320972" lon="-1.460985"><ele>48.84</ele></trkpt><trkpt lat="48.320957" lon="-1.459984"><ele>50.62</ele></trkpt><trkpt lat="48.320953" lon="-1.459093"><ele>50.92</ele></trkpt><trkpt lat="48.321083" lon="-1.458712"><ele>52.78</ele></trkpt><trkpt lat="48.321053" lon="-1.458426"><ele>48.96</ele></trkpt><trkpt lat="48.320869" lon="-1.457495"><ele>47.48</ele></trkpt><trkpt lat="48.320774" lon="-1.457353"><ele>41.32</ele></trkpt><trkpt lat="48.320759" lon="-1.456677"><ele>44.54</ele></trkpt><trkpt lat="48.320648" lon="-1.456332"><ele>40.9</ele></trkpt><trkpt lat="48.320644" lon="-1.455683"><ele>46.55</ele></trkpt><trkpt lat="48.320526" lon="-1.454933"><ele>45.88</ele></trkpt><trkpt lat="48.320499" lon="-1.454216"><ele>50.51</ele></trkpt><trkpt lat="48.319958" lon="-1.45195"><ele>62.64</ele></trkpt><trkpt lat="48.319935" lon="-1.45103"><ele>69.3</ele></trkpt><trkpt lat="48.319954" lon="-1.450721"><ele>70.85</ele></trkpt><trkpt lat="48.31992" lon="-1.450422"><ele>75.85</ele></trkpt><trkpt lat="48.319553" lon="-1.450098"><ele>68.55</ele></trkpt><trkpt lat="48.319447" lon="-1.449834"><ele>65.36</ele></trkpt><trkpt lat="48.319424" lon="-1.448941"><ele>76.53</ele></trkpt><trkpt lat="48.319241" lon="-1.448078"><ele>69.95</ele></trkpt><trkpt lat="48.319077" lon="-1.447581"><ele>67.46</ele></trkpt><trkpt lat="48.319057" lon="-1.447215"><ele>66.12</ele></trkpt><trkpt lat="48.31921" lon="-1.446767"><ele>70.55</ele></trkpt><trkpt lat="48.318855" lon="-1.446593"><ele>58.2</ele></trkpt><trkpt lat="48.318466" lon="-1.446429"><ele>46.27</ele></trkpt><trkpt lat="48.318218" lon="-1.446547"><ele>41.79</ele></trkpt><trkpt lat="48.31797" lon="-1.445868"><ele>40.33</ele></trkpt><trkpt lat="48.317921" lon="-1.445202"><ele>44.5</ele></trkpt><trkpt lat="48.317551" lon="-1.444123"><ele>41.86</ele></trkpt><trkpt lat="48.317337" lon="-1.443541"><ele>40.18</ele></trkpt><trkpt lat="48.317081" lon="-1.442659"><ele>40.15</ele></trkpt><trkpt lat="48.316818" lon="-1.441763"><ele>41.04</ele></trkpt><trkpt lat="48.316479" lon="-1.440645"><ele>40.44</ele></trkpt><trkpt lat="48.316242" lon="-1.440114"><ele>43.03</ele></trkpt><trkpt lat="48.315601" lon="-1.439678"><ele>44.14</ele></trkpt><trkpt lat="48.31517" lon="-1.439309"><ele>45.65</ele></trkpt><trkpt lat="48.314659" lon="-1.439029"><ele>45.95</ele></trkpt><trkpt lat="48.314327" lon="-1.438614"><ele>43.13</ele></trkpt><trkpt lat="48.31422" lon="-1.437743"><ele>44.45</ele></trkpt><trkpt lat="48.314163" lon="-1.436767"><ele>43.65</ele></trkpt><trkpt lat="48.314228" lon="-1.435355"><ele>45.55</ele></trkpt><trkpt lat="48.314243" lon="-1.434249"><ele>42.22</ele></trkpt><trkpt lat="48.31435" lon="-1.432907"><ele>40.3</ele></trkpt><trkpt lat="48.314365" lon="-1.431789"><ele>41.76</ele></trkpt><trkpt lat="48.314171" lon="-1.431518"><ele>41.42</ele></trkpt><trkpt lat="48.313965" lon="-1.431233"><ele>43.13</ele></trkpt><trkpt lat="48.313583" lon="-1.430909"><ele>43.35</ele></trkpt><trkpt lat="48.313358" lon="-1.43038"><ele>45.6</ele></trkpt><trkpt lat="48.31316" lon="-1.430001"><ele>45.87</ele></trkpt><trkpt lat="48.313076" lon="-1.429578"><ele>47.4</ele></trkpt><trkpt lat="48.312939" lon="-1.429324"><ele>49.45</ele></trkpt><trkpt lat="48.312775" lon="-1.42907"><ele>50.62</ele></trkpt><trkpt lat="48.312588" lon="-1.428652"><ele>50.06</ele></trkpt><trkpt lat="48.312222" lon="-1.42768"><ele>51.24</ele></trkpt><trkpt lat="48.312088" lon="-1.427252"><ele>50.94</ele></trkpt><trkpt lat="48.311718" lon="-1.426524"><ele>49.13</ele></trkpt><trkpt lat="48.311527" lon="-1.425741"><ele>43.84</ele></trkpt><trkpt lat="48.311535" lon="-1.424622"><ele>43.5</ele></trkpt><trkpt lat="48.311523" lon="-1.423784"><ele>46.79</ele></trkpt><trkpt lat="48.311359" lon="-1.422653"><ele>46.6</ele></trkpt><trkpt lat="48.310944" lon="-1.421678"><ele>43.58</ele></trkpt><trkpt lat="48.310734" lon="-1.420584"><ele>43.63</ele></trkpt><trkpt lat="48.310516" lon="-1.419529"><ele>44.14</ele></trkpt><trkpt lat="48.310501" lon="-1.418813"><ele>44.68</ele></trkpt><trkpt lat="48.310486" lon="-1.418029"><ele>44.06</ele></trkpt><trkpt lat="48.310524" lon="-1.41737"><ele>43.61</ele></trkpt><trkpt lat="48.310757" lon="-1.416956"><ele>49.23</ele></trkpt><trkpt lat="48.311092" lon="-1.416372"><ele>56.92</ele></trkpt><trkpt lat="48.31134" lon="-1.415163"><ele>46.82</ele></trkpt><trkpt lat="48.311493" lon="-1.414742"><ele>55.69</ele></trkpt><trkpt lat="48.311718" lon="-1.414326"><ele>60.76</ele></trkpt><trkpt lat="48.312176" lon="-1.413144"><ele>63.82</ele></trkpt><trkpt lat="48.312183" lon="-1.412523"><ele>62.66</ele></trkpt><trkpt lat="48.311954" lon="-1.412412"><ele>47.26</ele></trkpt><trkpt lat="48.311893" lon="-1.411788"><ele>50.53</ele></trkpt><trkpt lat="48.311905" lon="-1.411087"><ele>56.35</ele></trkpt><trkpt lat="48.311764" lon="-1.410632"><ele>55.5</ele></trkpt><trkpt lat="48.311813" lon="-1.409232"><ele>61.75</ele></trkpt><trkpt lat="48.311447" lon="-1.409084"><ele>56.46</ele></trkpt><trkpt lat="48.311153" lon="-1.409104"><ele>52.27</ele></trkpt><trkpt lat="48.310757" lon="-1.409588"><ele>48.17</ele></trkpt><trkpt lat="48.31041" lon="-1.409725"><ele>45.89</ele></trkpt><trkpt lat="48.309776" lon="-1.409842"><ele>48.85</ele></trkpt><trkpt lat="48.308979" lon="-1.409555"><ele>53.62</ele></trkpt><trkpt lat="48.308262" lon="-1.409356"><ele>55.31</ele></trkpt><trkpt lat="48.30761" lon="-1.409053"><ele>55.57</ele></trkpt><trkpt lat="48.307133" lon="-1.408425"><ele>57.97</ele></trkpt><trkpt lat="48.306808" lon="-1.407484"><ele>59.21</ele></trkpt><trkpt lat="48.306545" lon="-1.406872"><ele>59.57</ele></trkpt><trkpt lat="48.306114" lon="-1.406544"><ele>58.75</ele></trkpt><trkpt lat="48.305874" lon="-1.406513"><ele>57.76</ele></trkpt><trkpt lat="48.305485" lon="-1.407444"><ele>48.57</ele></trkpt><trkpt lat="48.305111" lon="-1.407836"><ele>44.13</ele></trkpt><trkpt lat="48.304867" lon="-1.407953"><ele>45.39</ele></trkpt><trkpt lat="48.304493" lon="-1.407939"><ele>45.62</ele></trkpt><trkpt lat="48.303818" lon="-1.407352"><ele>45.8</ele></trkpt><trkpt lat="48.303253" lon="-1.406744"><ele>45.51</ele></trkpt><trkpt lat="48.302765" lon="-1.406035"><ele>47.34</ele></trkpt><trkpt lat="48.302467" lon="-1.40538"><ele>50.4</ele></trkpt><trkpt lat="48.302475" lon="-1.404625"><ele>49.29</ele></trkpt><trkpt lat="48.30246" lon="-1.403828"><ele>56.75</ele></trkpt><trkpt lat="48.302601" lon="-1.403163"><ele>57.65</ele></trkpt><trkpt lat="48.302357" lon="-1.403375"><ele>61.89</ele></trkpt><trkpt lat="48.301941" lon="-1.404128"><ele>69.44</ele></trkpt><trkpt lat="48.301689" lon="-1.404312"><ele>74.98</ele></trkpt><trkpt lat="48.301052" lon="-1.404402"><ele>82.37</ele></trkpt><trkpt lat="48.301266" lon="-1.404943"><ele>82.98</ele></trkpt><trkpt lat="48.301357" lon="-1.405597"><ele>84.66</ele></trkpt><trkpt lat="48.301983" lon="-1.406087"><ele>84.8</ele></trkpt><trkpt lat="48.302139" lon="-1.406529"><ele>85.73</ele></trkpt><trkpt lat="48.302601" lon="-1.407008"><ele>85.19</ele></trkpt><trkpt lat="48.303154" lon="-1.407681"><ele>84.23</ele></trkpt><trkpt lat="48.303741" lon="-1.408223"><ele>80.11</ele></trkpt><trkpt lat="48.304058" lon="-1.408988"><ele>76.8</ele></trkpt><trkpt lat="48.3041" lon="-1.409476"><ele>79.48</ele></trkpt><trkpt lat="48.304722" lon="-1.410087"><ele>77.57</ele></trkpt><trkpt lat="48.305527" lon="-1.410955"><ele>74.88</ele></trkpt><trkpt lat="48.305737" lon="-1.411509"><ele>76.56</ele></trkpt><trkpt lat="48.30629" lon="-1.411697"><ele>73.74</ele></trkpt><trkpt lat="48.306625" lon="-1.413057"><ele>74.27</ele></trkpt><trkpt lat="48.306896" lon="-1.413009"><ele>74.23</ele></trkpt><trkpt lat="48.307789" lon="-1.413032"><ele>72.44</ele></trkpt><trkpt lat="48.308552" lon="-1.413034"><ele>71.09</ele></trkpt><trkpt lat="48.309246" lon="-1.41257"><ele>63.03</ele></trkpt><trkpt lat="48.310291" lon="-1.412536"><ele>56.83</ele></trkpt><trkpt lat="48.310577" lon="-1.412773"><ele>53.73</ele></trkpt><trkpt lat="48.310532" lon="-1.413174"><ele>52.14</ele></trkpt><trkpt lat="48.311211" lon="-1.413763"><ele>45.27</ele></trkpt><trkpt lat="48.310493" lon="-1.414778"><ele>47.36</ele></trkpt><trkpt lat="48.309616" lon="-1.415997"><ele>52.43</ele></trkpt><trkpt lat="48.309326" lon="-1.416084"><ele>53.93</ele></trkpt><trkpt lat="48.309483" lon="-1.416702"><ele>55.01</ele></trkpt><trkpt lat="48.309711" lon="-1.417124"><ele>53.41</ele></trkpt><trkpt lat="48.309841" lon="-1.417875"><ele>51.74</ele></trkpt><trkpt lat="48.309956" lon="-1.419057"><ele>47.46</ele></trkpt><trkpt lat="48.3102" lon="-1.420478"><ele>45.52</ele></trkpt><trkpt lat="48.310379" lon="-1.421975"><ele>58.09</ele></trkpt><trkpt lat="48.310738" lon="-1.423377"><ele>50.8</ele></trkpt><trkpt lat="48.310722" lon="-1.42397"><ele>52.3</ele></trkpt><trkpt lat="48.310776" lon="-1.424999"><ele>49.38</ele></trkpt><trkpt lat="48.310802" lon="-1.426256"><ele>48.31</ele></trkpt><trkpt lat="48.310913" lon="-1.427533"><ele>46.86</ele></trkpt><trkpt lat="48.311195" lon="-1.428538"><ele>43.96</ele></trkpt><trkpt lat="48.311401" lon="-1.42947"><ele>43.1</ele></trkpt><trkpt lat="48.3116" lon="-1.430213"><ele>45.56</ele></trkpt><trkpt lat="48.311722" lon="-1.430667"><ele>44.49</ele></trkpt><trkpt lat="48.311764" lon="-1.430967"><ele>44.71</ele></trkpt><trkpt lat="48.311558" lon="-1.431236"><ele>47.68</ele></trkpt><trkpt lat="48.311096" lon="-1.431634"><ele>52.05</ele></trkpt><trkpt lat="48.310383" lon="-1.431745"><ele>54.39</ele></trkpt><trkpt lat="48.309879" lon="-1.431858"><ele>53.81</ele></trkpt><trkpt lat="48.307995" lon="-1.432126"><ele>52.61</ele></trkpt><trkpt lat="48.307556" lon="-1.432081"><ele>50.78</ele></trkpt><trkpt lat="48.307465" lon="-1.432399"><ele>50.54</ele></trkpt><trkpt lat="48.307209" lon="-1.432542"><ele>54.44</ele></trkpt><trkpt lat="48.307167" lon="-1.433052"><ele>56.81</ele></trkpt></trkseg></trk></gpx>
