<?xml version="1.0" encoding="UTF-8" standalone="no"?>
<gpx xmlns="http://www.topografix.com/GPX/1/1" version="1.1" xmlns:xsi="http://www.w3.org/2001/XMLSchema-instance" xsi:schemaLocation="http://www.topografix.com/GPX/1/1 http://www.topografix.com/GPX/1/1/gpx.xsd" creator="Cirkwi"><metadata><name><![CDATA[Landes de Beaugé à Liffré]]></name><desc><![CDATA[La randonnée est facile entre les chemins bocagers de la lande de Beaugé  et un parcours sinueux sur les sentiers en forêt de Rennes. Un arrêt près de la mare et son écosystème s'impose. En fin de circuit  on emprunte le parcours sportif (priorité aux coureurs). Cette randonnée est déconseillée en période de chasse les jeudis et samedis.]]></desc><author><name><![CDATA[UTL Rennes]]></name></author><link href="http://fichier0.cirkwi.com/image/photo/circuit/1300x1300/356259/fr/0.jpg"><text><![CDATA[|Mare Bellanton en forêt de Rennes]]></text></link><time>2025-11-18T12:14:02Z</time></metadata><trk><name><![CDATA[Landes de Beaugé à Liffré]]></name><trkseg><trkpt lat="48.22039" lon="-1.51578"><ele>99.84</ele></trkpt><trkpt lat="48.22079" lon="-1.51575"><ele>99.3</ele></trkpt><trkpt lat="48.221" lon="-1.51574"><ele>98.99</ele></trkpt><trkpt lat="48.22119" lon="-1.51571"><ele>98.69</ele></trkpt><trkpt lat="48.2213" lon="-1.5157"><ele>98.62</ele></trkpt><trkpt lat="48.22144" lon="-1.51567"><ele>98.49</ele></trkpt><trkpt lat="48.22149" lon="-1.51565"><ele>98.32</ele></trkpt><trkpt lat="48.22155" lon="-1.51563"><ele>98.08</ele></trkpt><trkpt lat="48.22164" lon="-1.51556"><ele>97.8</ele></trkpt><trkpt lat="48.22175" lon="-1.51547"><ele>97.55</ele></trkpt><trkpt lat="48.22208" lon="-1.51519"><ele>97.06</ele></trkpt><trkpt lat="48.22249" lon="-1.51487"><ele>96.38</ele></trkpt><trkpt lat="48.22248" lon="-1.5148"><ele>96.36</ele></trkpt><trkpt lat="48.22249" lon="-1.5147"><ele>96.36</ele></trkpt><trkpt lat="48.22251" lon="-1.51461"><ele>96.42</ele></trkpt><trkpt lat="48.22253" lon="-1.51454"><ele>96.35</ele></trkpt><trkpt lat="48.22269" lon="-1.51438"><ele>95.97</ele></trkpt><trkpt lat="48.22288" lon="-1.51415"><ele>95.78</ele></trkpt><trkpt lat="48.22295" lon="-1.51408"><ele>95.72</ele></trkpt><trkpt lat="48.22308" lon="-1.51396"><ele>95.67</ele></trkpt><trkpt lat="48.22319" lon="-1.51384"><ele>95.69</ele></trkpt><trkpt lat="48.22328" lon="-1.51382"><ele>95.77</ele></trkpt><trkpt lat="48.22344" lon="-1.51371"><ele>96.31</ele></trkpt><trkpt lat="48.22362" lon="-1.51357"><ele>97.09</ele></trkpt><trkpt lat="48.22379" lon="-1.51342"><ele>98.04</ele></trkpt><trkpt lat="48.22389" lon="-1.51336"><ele>98.71</ele></trkpt><trkpt lat="48.22397" lon="-1.51337"><ele>98.64</ele></trkpt><trkpt lat="48.22405" lon="-1.51338"><ele>98.88</ele></trkpt><trkpt lat="48.22417" lon="-1.51342"><ele>99.17</ele></trkpt><trkpt lat="48.22428" lon="-1.51347"><ele>99.6</ele></trkpt><trkpt lat="48.22435" lon="-1.51343"><ele>99.83</ele></trkpt><trkpt lat="48.22438" lon="-1.51341"><ele>100.01</ele></trkpt><trkpt lat="48.22438" lon="-1.51334"><ele>100.13</ele></trkpt><trkpt lat="48.22441" lon="-1.51326"><ele>100.43</ele></trkpt><trkpt lat="48.22446" lon="-1.51321"><ele>100.7</ele></trkpt><trkpt lat="48.22451" lon="-1.5132"><ele>100.91</ele></trkpt><trkpt lat="48.22447" lon="-1.51295"><ele>101.23</ele></trkpt><trkpt lat="48.22444" lon="-1.51267"><ele>101.59</ele></trkpt><trkpt lat="48.22442" lon="-1.51257"><ele>101.72</ele></trkpt><trkpt lat="48.22426" lon="-1.51113"><ele>100.5</ele></trkpt><trkpt lat="48.2241" lon="-1.5098"><ele>97.7</ele></trkpt><trkpt lat="48.22404" lon="-1.5093"><ele>96.51</ele></trkpt><trkpt lat="48.22387" lon="-1.50779"><ele>95.91</ele></trkpt><trkpt lat="48.22382" lon="-1.50739"><ele>95.91</ele></trkpt><trkpt lat="48.22374" lon="-1.50673"><ele>95.81</ele></trkpt><trkpt lat="48.22373" lon="-1.50632"><ele>96.34</ele></trkpt><trkpt lat="48.22362" lon="-1.50551"><ele>97.26</ele></trkpt><trkpt lat="48.22349" lon="-1.50422"><ele>98.75</ele></trkpt><trkpt lat="48.22344" lon="-1.50372"><ele>99.11</ele></trkpt><trkpt lat="48.22332" lon="-1.50268"><ele>99.83</ele></trkpt><trkpt lat="48.22319" lon="-1.50155"><ele>101.36</ele></trkpt><trkpt lat="48.22318" lon="-1.50146"><ele>101.52</ele></trkpt><trkpt lat="48.22319" lon="-1.50155"><ele>101.36</ele></trkpt><trkpt lat="48.22328" lon="-1.50164"><ele>101.65</ele></trkpt><trkpt lat="48.22433" lon="-1.50278"><ele>105.7</ele></trkpt><trkpt lat="48.22469" lon="-1.50319"><ele>106.31</ele></trkpt><trkpt lat="48.22472" lon="-1.50321"><ele>106.2</ele></trkpt><trkpt lat="48.22487" lon="-1.50289"><ele>106.15</ele></trkpt><trkpt lat="48.2248" lon="-1.50283"><ele>106.22</ele></trkpt><trkpt lat="48.22474" lon="-1.50274"><ele>106.2</ele></trkpt><trkpt lat="48.2247" lon="-1.50262"><ele>106</ele></trkpt><trkpt lat="48.22468" lon="-1.50244"><ele>106</ele></trkpt><trkpt lat="48.22469" lon="-1.50232"><ele>106</ele></trkpt><trkpt lat="48.22472" lon="-1.50223"><ele>105.93</ele></trkpt><trkpt lat="48.22488" lon="-1.50243"><ele>105.97</ele></trkpt><trkpt lat="48.22491" lon="-1.5024"><ele>105.94</ele></trkpt><trkpt lat="48.22493" lon="-1.50238"><ele>105.78</ele></trkpt><trkpt lat="48.22496" lon="-1.50237"><ele>105.55</ele></trkpt><trkpt lat="48.22498" lon="-1.50237"><ele>105.55</ele></trkpt><trkpt lat="48.225" lon="-1.50237"><ele>105.55</ele></trkpt><trkpt lat="48.22501" lon="-1.50238"><ele>105.23</ele></trkpt><trkpt lat="48.22502" lon="-1.50239"><ele>105.46</ele></trkpt><trkpt lat="48.22539" lon="-1.50165"><ele>101.56</ele></trkpt><trkpt lat="48.22536" lon="-1.50159"><ele>101.78</ele></trkpt><trkpt lat="48.22536" lon="-1.50152"><ele>101.62</ele></trkpt><trkpt lat="48.22538" lon="-1.50148"><ele>101.62</ele></trkpt><trkpt lat="48.2254" lon="-1.50146"><ele>101.45</ele></trkpt><trkpt lat="48.22544" lon="-1.50146"><ele>101.23</ele></trkpt><trkpt lat="48.22546" lon="-1.50148"><ele>101.2</ele></trkpt><trkpt lat="48.22613" lon="-1.50001"><ele>96.04</ele></trkpt><trkpt lat="48.2264" lon="-1.49942"><ele>94.9</ele></trkpt><trkpt lat="48.22662" lon="-1.49897"><ele>94.96</ele></trkpt><trkpt lat="48.22701" lon="-1.49817"><ele>95.2</ele></trkpt><trkpt lat="48.22777" lon="-1.49657"><ele>94.93</ele></trkpt><trkpt lat="48.22802" lon="-1.49597"><ele>95.58</ele></trkpt><trkpt lat="48.22848" lon="-1.49507"><ele>96.58</ele></trkpt><trkpt lat="48.22929" lon="-1.49349"><ele>98.5</ele></trkpt><trkpt lat="48.22931" lon="-1.49351"><ele>98.18</ele></trkpt><trkpt lat="48.23036" lon="-1.4943"><ele>92.98</ele></trkpt><trkpt lat="48.23072" lon="-1.49456"><ele>92.39</ele></trkpt><trkpt lat="48.23097" lon="-1.49478"><ele>92</ele></trkpt><trkpt lat="48.23099" lon="-1.49479"><ele>91.99</ele></trkpt><trkpt lat="48.2315" lon="-1.49516"><ele>92.54</ele></trkpt><trkpt lat="48.23198" lon="-1.49553"><ele>94.26</ele></trkpt><trkpt lat="48.2323" lon="-1.49573"><ele>95.43</ele></trkpt><trkpt lat="48.23272" lon="-1.49607"><ele>96.98</ele></trkpt><trkpt lat="48.2332" lon="-1.49644"><ele>97.57</ele></trkpt><trkpt lat="48.23364" lon="-1.49675"><ele>97.5</ele></trkpt><trkpt lat="48.23405" lon="-1.49703"><ele>97.98</ele></trkpt><trkpt lat="48.2342" lon="-1.49715"><ele>98.2</ele></trkpt><trkpt lat="48.23596" lon="-1.49845"><ele>97.6</ele></trkpt><trkpt lat="48.23613" lon="-1.49858"><ele>97.55</ele></trkpt><trkpt lat="48.23659" lon="-1.49888"><ele>97.7</ele></trkpt><trkpt lat="48.23674" lon="-1.49899"><ele>97.72</ele></trkpt><trkpt lat="48.23689" lon="-1.49908"><ele>97.92</ele></trkpt><trkpt lat="48.23713" lon="-1.49924"><ele>98.22</ele></trkpt><trkpt lat="48.23729" lon="-1.49932"><ele>98.49</ele></trkpt><trkpt lat="48.23751" lon="-1.49944"><ele>99.12</ele></trkpt><trkpt lat="48.23786" lon="-1.49967"><ele>99.75</ele></trkpt><trkpt lat="48.23808" lon="-1.49985"><ele>100.31</ele></trkpt><trkpt lat="48.23818" lon="-1.49996"><ele>100.62</ele></trkpt><trkpt lat="48.23835" lon="-1.50013"><ele>101.12</ele></trkpt><trkpt lat="48.23858" lon="-1.50033"><ele>101.58</ele></trkpt><trkpt lat="48.23868" lon="-1.50041"><ele>101.83</ele></trkpt><trkpt lat="48.23881" lon="-1.50056"><ele>102.37</ele></trkpt><trkpt lat="48.23882" lon="-1.50058"><ele>102.4</ele></trkpt><trkpt lat="48.23923" lon="-1.50103"><ele>102.93</ele></trkpt><trkpt lat="48.23957" lon="-1.5014"><ele>103</ele></trkpt><trkpt lat="48.23984" lon="-1.50165"><ele>103.01</ele></trkpt><trkpt lat="48.23991" lon="-1.50172"><ele>103.06</ele></trkpt><trkpt lat="48.239" lon="-1.50241"><ele>99.93</ele></trkpt><trkpt lat="48.23829" lon="-1.50269"><ele>97.26</ele></trkpt><trkpt lat="48.23717" lon="-1.50303"><ele>93.62</ele></trkpt><trkpt lat="48.23597" lon="-1.50352"><ele>88.98</ele></trkpt><trkpt lat="48.2359" lon="-1.50355"><ele>89.58</ele></trkpt><trkpt lat="48.2351" lon="-1.5039"><ele>94.93</ele></trkpt><trkpt lat="48.23456" lon="-1.50409"><ele>99.34</ele></trkpt><trkpt lat="48.23456" lon="-1.50401"><ele>99.32</ele></trkpt><trkpt lat="48.23456" lon="-1.50409"><ele>99.34</ele></trkpt><trkpt lat="48.23456" lon="-1.50447"><ele>99.72</ele></trkpt><trkpt lat="48.23458" lon="-1.50575"><ele>99.96</ele></trkpt><trkpt lat="48.23458" lon="-1.50614"><ele>99.76</ele></trkpt><trkpt lat="48.23459" lon="-1.50699"><ele>99.26</ele></trkpt><trkpt lat="48.23463" lon="-1.50765"><ele>98.56</ele></trkpt><trkpt lat="48.23467" lon="-1.50807"><ele>97.91</ele></trkpt><trkpt lat="48.23468" lon="-1.50829"><ele>97.68</ele></trkpt><trkpt lat="48.2347" lon="-1.5085"><ele>97.72</ele></trkpt><trkpt lat="48.23482" lon="-1.5099"><ele>98.7</ele></trkpt><trkpt lat="48.23484" lon="-1.51021"><ele>98.8</ele></trkpt><trkpt lat="48.23486" lon="-1.51051"><ele>99.3</ele></trkpt><trkpt lat="48.23484" lon="-1.51073"><ele>100.28</ele></trkpt><trkpt lat="48.23484" lon="-1.51082"><ele>100.58</ele></trkpt><trkpt lat="48.23469" lon="-1.51071"><ele>100.56</ele></trkpt><trkpt lat="48.23393" lon="-1.51025"><ele>101.48</ele></trkpt><trkpt lat="48.23388" lon="-1.51023"><ele>101.67</ele></trkpt><trkpt lat="48.23394" lon="-1.51085"><ele>101.4</ele></trkpt><trkpt lat="48.23396" lon="-1.51105"><ele>101.59</ele></trkpt><trkpt lat="48.23405" lon="-1.51185"><ele>101.62</ele></trkpt><trkpt lat="48.2341" lon="-1.51227"><ele>101.69</ele></trkpt><trkpt lat="48.23418" lon="-1.51316"><ele>101</ele></trkpt><trkpt lat="48.2343" lon="-1.5143"><ele>98.81</ele></trkpt><trkpt lat="48.23435" lon="-1.51468"><ele>98.15</ele></trkpt><trkpt lat="48.23443" lon="-1.51548"><ele>96.12</ele></trkpt><trkpt lat="48.23449" lon="-1.51602"><ele>95.02</ele></trkpt><trkpt lat="48.23457" lon="-1.51677"><ele>95.22</ele></trkpt><trkpt lat="48.23463" lon="-1.51737"><ele>95.11</ele></trkpt><trkpt lat="48.23464" lon="-1.51754"><ele>94.92</ele></trkpt><trkpt lat="48.23476" lon="-1.51882"><ele>93.89</ele></trkpt><trkpt lat="48.2347" lon="-1.51885"><ele>93.58</ele></trkpt><trkpt lat="48.23385" lon="-1.51928"><ele>89.32</ele></trkpt><trkpt lat="48.23372" lon="-1.51936"><ele>88.32</ele></trkpt><trkpt lat="48.23361" lon="-1.51903"><ele>89.29</ele></trkpt><trkpt lat="48.23335" lon="-1.51906"><ele>87.38</ele></trkpt><trkpt lat="48.2333" lon="-1.51879"><ele>86.91</ele></trkpt><trkpt lat="48.2326" lon="-1.52025"><ele>80.11</ele></trkpt><trkpt lat="48.23227" lon="-1.52104"><ele>78</ele></trkpt><trkpt lat="48.23219" lon="-1.52123"><ele>77.82</ele></trkpt><trkpt lat="48.23207" lon="-1.52109"><ele>77.93</ele></trkpt><trkpt lat="48.23184" lon="-1.52084"><ele>78.23</ele></trkpt><trkpt lat="48.23168" lon="-1.52068"><ele>78.49</ele></trkpt><trkpt lat="48.23138" lon="-1.52041"><ele>78.88</ele></trkpt><trkpt lat="48.23136" lon="-1.52038"><ele>78.94</ele></trkpt><trkpt lat="48.23113" lon="-1.52051"><ele>79</ele></trkpt><trkpt lat="48.23098" lon="-1.52111"><ele>79.01</ele></trkpt><trkpt lat="48.23139" lon="-1.52143"><ele>78.88</ele></trkpt><trkpt lat="48.23176" lon="-1.52098"><ele>78.16</ele></trkpt><trkpt lat="48.23183" lon="-1.52082"><ele>78.25</ele></trkpt><trkpt lat="48.23168" lon="-1.52068"><ele>78.49</ele></trkpt><trkpt lat="48.23179" lon="-1.52045"><ele>78.87</ele></trkpt><trkpt lat="48.23184" lon="-1.52022"><ele>79.19</ele></trkpt><trkpt lat="48.23187" lon="-1.51994"><ele>79.6</ele></trkpt><trkpt lat="48.23189" lon="-1.51967"><ele>80.82</ele></trkpt><trkpt lat="48.23187" lon="-1.5192"><ele>82.94</ele></trkpt><trkpt lat="48.23186" lon="-1.51889"><ele>84.13</ele></trkpt><trkpt lat="48.23176" lon="-1.51834"><ele>85.92</ele></trkpt><trkpt lat="48.23159" lon="-1.51766"><ele>87.95</ele></trkpt><trkpt lat="48.23164" lon="-1.51723"><ele>89.14</ele></trkpt><trkpt lat="48.23165" lon="-1.5171"><ele>89.68</ele></trkpt><trkpt lat="48.2316" lon="-1.51683"><ele>90.66</ele></trkpt><trkpt lat="48.23152" lon="-1.51663"><ele>91.74</ele></trkpt><trkpt lat="48.23143" lon="-1.51617"><ele>94.86</ele></trkpt><trkpt lat="48.2314" lon="-1.51594"><ele>96.09</ele></trkpt><trkpt lat="48.23138" lon="-1.51569"><ele>97.06</ele></trkpt><trkpt lat="48.23132" lon="-1.51544"><ele>98.05</ele></trkpt><trkpt lat="48.23122" lon="-1.51521"><ele>99.37</ele></trkpt><trkpt lat="48.23119" lon="-1.51518"><ele>99.37</ele></trkpt><trkpt lat="48.23109" lon="-1.51506"><ele>99.89</ele></trkpt><trkpt lat="48.23075" lon="-1.51485"><ele>100.43</ele></trkpt><trkpt lat="48.23023" lon="-1.51448"><ele>101.15</ele></trkpt><trkpt lat="48.23005" lon="-1.51432"><ele>100.92</ele></trkpt><trkpt lat="48.22995" lon="-1.51425"><ele>100.9</ele></trkpt><trkpt lat="48.2299" lon="-1.51422"><ele>100.89</ele></trkpt><trkpt lat="48.22978" lon="-1.51421"><ele>100.4</ele></trkpt><trkpt lat="48.22966" lon="-1.51432"><ele>99.16</ele></trkpt><trkpt lat="48.22957" lon="-1.51449"><ele>97.78</ele></trkpt><trkpt lat="48.22945" lon="-1.51465"><ele>96.74</ele></trkpt><trkpt lat="48.22935" lon="-1.51476"><ele>95.95</ele></trkpt><trkpt lat="48.22924" lon="-1.51485"><ele>95.01</ele></trkpt><trkpt lat="48.22873" lon="-1.5149"><ele>92.59</ele></trkpt><trkpt lat="48.22859" lon="-1.51495"><ele>91.87</ele></trkpt><trkpt lat="48.22845" lon="-1.51494"><ele>91.48</ele></trkpt><trkpt lat="48.22824" lon="-1.51485"><ele>91.46</ele></trkpt><trkpt lat="48.22801" lon="-1.51476"><ele>90.91</ele></trkpt><trkpt lat="48.22783" lon="-1.51473"><ele>90.95</ele></trkpt><trkpt lat="48.22767" lon="-1.51474"><ele>90.79</ele></trkpt><trkpt lat="48.22736" lon="-1.51491"><ele>91.5</ele></trkpt><trkpt lat="48.22721" lon="-1.51486"><ele>92.17</ele></trkpt><trkpt lat="48.22706" lon="-1.51473"><ele>93.27</ele></trkpt><trkpt lat="48.22669" lon="-1.51473"><ele>94.74</ele></trkpt><trkpt lat="48.22647" lon="-1.51469"><ele>95.99</ele></trkpt><trkpt lat="48.22629" lon="-1.51463"><ele>96.81</ele></trkpt><trkpt lat="48.2261" lon="-1.51454"><ele>97.88</ele></trkpt><trkpt lat="48.22599" lon="-1.51459"><ele>98.36</ele></trkpt><trkpt lat="48.22591" lon="-1.51464"><ele>98.75</ele></trkpt><trkpt lat="48.2259" lon="-1.51467"><ele>98.82</ele></trkpt><trkpt lat="48.22563" lon="-1.51438"><ele>99.81</ele></trkpt><trkpt lat="48.22559" lon="-1.51434"><ele>99.91</ele></trkpt><trkpt lat="48.22563" lon="-1.51438"><ele>99.81</ele></trkpt><trkpt lat="48.22555" lon="-1.51455"><ele>99.57</ele></trkpt><trkpt lat="48.22552" lon="-1.51462"><ele>99.22</ele></trkpt><trkpt lat="48.22542" lon="-1.51485"><ele>98.01</ele></trkpt><trkpt lat="48.22534" lon="-1.51505"><ele>97.31</ele></trkpt><trkpt lat="48.22528" lon="-1.5151"><ele>97.15</ele></trkpt><trkpt lat="48.22526" lon="-1.51515"><ele>96.96</ele></trkpt><trkpt lat="48.22528" lon="-1.51538"><ele>95.82</ele></trkpt><trkpt lat="48.22529" lon="-1.51546"><ele>95.33</ele></trkpt><trkpt lat="48.22526" lon="-1.51553"><ele>94.84</ele></trkpt><trkpt lat="48.22522" lon="-1.51559"><ele>94.62</ele></trkpt><trkpt lat="48.22504" lon="-1.51568"><ele>94.44</ele></trkpt><trkpt lat="48.22498" lon="-1.51571"><ele>94.3</ele></trkpt><trkpt lat="48.22491" lon="-1.51578"><ele>93.95</ele></trkpt><trkpt lat="48.22477" lon="-1.51594"><ele>92.98</ele></trkpt><trkpt lat="48.22473" lon="-1.51602"><ele>92.5</ele></trkpt><trkpt lat="48.22468" lon="-1.51619"><ele>91.67</ele></trkpt><trkpt lat="48.22468" lon="-1.51627"><ele>91.17</ele></trkpt><trkpt lat="48.22468" lon="-1.5164"><ele>90.45</ele></trkpt><trkpt lat="48.22466" lon="-1.51651"><ele>90.01</ele></trkpt><trkpt lat="48.22465" lon="-1.51655"><ele>89.97</ele></trkpt><trkpt lat="48.22462" lon="-1.51662"><ele>89.93</ele></trkpt><trkpt lat="48.22462" lon="-1.51667"><ele>89.91</ele></trkpt><trkpt lat="48.22462" lon="-1.51673"><ele>89.87</ele></trkpt><trkpt lat="48.22461" lon="-1.51677"><ele>90.03</ele></trkpt><trkpt lat="48.22459" lon="-1.51681"><ele>90.03</ele></trkpt><trkpt lat="48.22454" lon="-1.5169"><ele>90.21</ele></trkpt><trkpt lat="48.2245" lon="-1.51695"><ele>90.39</ele></trkpt><trkpt lat="48.22447" lon="-1.51713"><ele>90.6</ele></trkpt><trkpt lat="48.22445" lon="-1.51727"><ele>90.71</ele></trkpt><trkpt lat="48.22442" lon="-1.51757"><ele>91</ele></trkpt><trkpt lat="48.22442" lon="-1.51769"><ele>91</ele></trkpt><trkpt lat="48.22444" lon="-1.51777"><ele>91</ele></trkpt><trkpt lat="48.22448" lon="-1.51784"><ele>91</ele></trkpt><trkpt lat="48.22453" lon="-1.51788"><ele>91</ele></trkpt><trkpt lat="48.22458" lon="-1.51795"><ele>91</ele></trkpt><trkpt lat="48.22459" lon="-1.51817"><ele>90.89</ele></trkpt><trkpt lat="48.22455" lon="-1.51831"><ele>90.48</ele></trkpt><trkpt lat="48.22444" lon="-1.51844"><ele>90.51</ele></trkpt><trkpt lat="48.22438" lon="-1.51855"><ele>90.5</ele></trkpt><trkpt lat="48.22435" lon="-1.51871"><ele>90.22</ele></trkpt><trkpt lat="48.22437" lon="-1.51896"><ele>89.78</ele></trkpt><trkpt lat="48.22436" lon="-1.51915"><ele>89.66</ele></trkpt><trkpt lat="48.22431" lon="-1.51929"><ele>90</ele></trkpt><trkpt lat="48.22431" lon="-1.51938"><ele>90.03</ele></trkpt><trkpt lat="48.2243" lon="-1.51957"><ele>90.28</ele></trkpt><trkpt lat="48.22423" lon="-1.51947"><ele>90.23</ele></trkpt><trkpt lat="48.22416" lon="-1.51924"><ele>90.51</ele></trkpt><trkpt lat="48.22408" lon="-1.51914"><ele>90.91</ele></trkpt><trkpt lat="48.22403" lon="-1.51904"><ele>91.11</ele></trkpt><trkpt lat="48.22391" lon="-1.51878"><ele>91.73</ele></trkpt><trkpt lat="48.22384" lon="-1.51869"><ele>91.99</ele></trkpt><trkpt lat="48.22379" lon="-1.51863"><ele>92</ele></trkpt><trkpt lat="48.22374" lon="-1.51851"><ele>92</ele></trkpt><trkpt lat="48.22369" lon="-1.51827"><ele>92</ele></trkpt><trkpt lat="48.22369" lon="-1.51814"><ele>92.01</ele></trkpt><trkpt lat="48.22372" lon="-1.5181"><ele>92</ele></trkpt><trkpt lat="48.22379" lon="-1.51811"><ele>92</ele></trkpt><trkpt lat="48.22383" lon="-1.51809"><ele>92</ele></trkpt><trkpt lat="48.22394" lon="-1.51807"><ele>91.99</ele></trkpt><trkpt lat="48.22401" lon="-1.51805"><ele>91.97</ele></trkpt><trkpt lat="48.22413" lon="-1.51793"><ele>91.84</ele></trkpt><trkpt lat="48.22417" lon="-1.51785"><ele>91.71</ele></trkpt><trkpt lat="48.22416" lon="-1.51775"><ele>91.72</ele></trkpt><trkpt lat="48.22411" lon="-1.51767"><ele>91.87</ele></trkpt><trkpt lat="48.22406" lon="-1.51763"><ele>91.97</ele></trkpt><trkpt lat="48.22398" lon="-1.5176"><ele>92</ele></trkpt><trkpt lat="48.2239" lon="-1.51756"><ele>92.02</ele></trkpt><trkpt lat="48.22385" lon="-1.51751"><ele>92.14</ele></trkpt><trkpt lat="48.22385" lon="-1.5174"><ele>92.16</ele></trkpt><trkpt lat="48.22386" lon="-1.5172"><ele>92.19</ele></trkpt><trkpt lat="48.22388" lon="-1.5171"><ele>92.21</ele></trkpt><trkpt lat="48.22391" lon="-1.51695"><ele>92.07</ele></trkpt><trkpt lat="48.22406" lon="-1.51668"><ele>91.35</ele></trkpt><trkpt lat="48.2241" lon="-1.51662"><ele>91.35</ele></trkpt><trkpt lat="48.22411" lon="-1.51655"><ele>91.18</ele></trkpt><trkpt lat="48.22413" lon="-1.51654"><ele>91.19</ele></trkpt><trkpt lat="48.22414" lon="-1.51648"><ele>91.21</ele></trkpt><trkpt lat="48.22415" lon="-1.5164"><ele>91.14</ele></trkpt><trkpt lat="48.22411" lon="-1.51628"><ele>91.54</ele></trkpt><trkpt lat="48.22402" lon="-1.51608"><ele>91.96</ele></trkpt><trkpt lat="48.224" lon="-1.51601"><ele>92</ele></trkpt><trkpt lat="48.224" lon="-1.51595"><ele>92</ele></trkpt><trkpt lat="48.22402" lon="-1.5159"><ele>92</ele></trkpt><trkpt lat="48.22406" lon="-1.51588"><ele>92</ele></trkpt><trkpt lat="48.22411" lon="-1.51581"><ele>92.05</ele></trkpt><trkpt lat="48.22413" lon="-1.51576"><ele>92.15</ele></trkpt><trkpt lat="48.22412" lon="-1.51573"><ele>92.15</ele></trkpt><trkpt lat="48.22408" lon="-1.51568"><ele>92.36</ele></trkpt><trkpt lat="48.224" lon="-1.51561"><ele>92.38</ele></trkpt><trkpt lat="48.2239" lon="-1.51556"><ele>92.57</ele></trkpt><trkpt lat="48.22385" lon="-1.51559"><ele>92.68</ele></trkpt><trkpt lat="48.2238" lon="-1.51564"><ele>92.89</ele></trkpt><trkpt lat="48.22376" lon="-1.51569"><ele>92.84</ele></trkpt><trkpt lat="48.22369" lon="-1.51577"><ele>93.13</ele></trkpt><trkpt lat="48.22363" lon="-1.51583"><ele>93.23</ele></trkpt><trkpt lat="48.22357" lon="-1.51577"><ele>93.54</ele></trkpt><trkpt lat="48.22352" lon="-1.51575"><ele>93.72</ele></trkpt><trkpt lat="48.22346" lon="-1.51575"><ele>93.79</ele></trkpt><trkpt lat="48.2234" lon="-1.51579"><ele>93.83</ele></trkpt><trkpt lat="48.22326" lon="-1.51592"><ele>94.1</ele></trkpt><trkpt lat="48.22316" lon="-1.51614"><ele>94.42</ele></trkpt><trkpt lat="48.2231" lon="-1.51637"><ele>94.76</ele></trkpt><trkpt lat="48.22311" lon="-1.51658"><ele>94.73</ele></trkpt><trkpt lat="48.22308" lon="-1.51673"><ele>94.55</ele></trkpt><trkpt lat="48.22301" lon="-1.51685"><ele>94.43</ele></trkpt><trkpt lat="48.22287" lon="-1.51697"><ele>94.68</ele></trkpt><trkpt lat="48.22281" lon="-1.51703"><ele>95</ele></trkpt><trkpt lat="48.22278" lon="-1.51712"><ele>94.96</ele></trkpt><trkpt lat="48.22278" lon="-1.51724"><ele>94.96</ele></trkpt><trkpt lat="48.22275" lon="-1.5173"><ele>95.13</ele></trkpt><trkpt lat="48.2227" lon="-1.51736"><ele>95.24</ele></trkpt><trkpt lat="48.22269" lon="-1.51738"><ele>95.24</ele></trkpt><trkpt lat="48.22263" lon="-1.51744"><ele>95.44</ele></trkpt><trkpt lat="48.2226" lon="-1.51749"><ele>95.26</ele></trkpt><trkpt lat="48.22259" lon="-1.5174"><ele>95.67</ele></trkpt><trkpt lat="48.22258" lon="-1.51714"><ele>95.92</ele></trkpt><trkpt lat="48.22258" lon="-1.51704"><ele>95.93</ele></trkpt><trkpt lat="48.22256" lon="-1.51696"><ele>95.94</ele></trkpt><trkpt lat="48.22253" lon="-1.51688"><ele>96.17</ele></trkpt><trkpt lat="48.22248" lon="-1.51683"><ele>96.37</ele></trkpt><trkpt lat="48.22244" lon="-1.51681"><ele>96.54</ele></trkpt><trkpt lat="48.22244" lon="-1.51677"><ele>96.55</ele></trkpt><trkpt lat="48.22246" lon="-1.51673"><ele>96.57</ele></trkpt><trkpt lat="48.2225" lon="-1.51668"><ele>96.39</ele></trkpt><trkpt lat="48.22253" lon="-1.51664"><ele>96.19</ele></trkpt><trkpt lat="48.22253" lon="-1.51656"><ele>96.2</ele></trkpt><trkpt lat="48.22257" lon="-1.51635"><ele>96.09</ele></trkpt><trkpt lat="48.22259" lon="-1.51626"><ele>96.11</ele></trkpt><trkpt lat="48.22268" lon="-1.51613"><ele>96</ele></trkpt><trkpt lat="48.22271" lon="-1.51605"><ele>96</ele></trkpt><trkpt lat="48.22272" lon="-1.51595"><ele>96</ele></trkpt><trkpt lat="48.22274" lon="-1.51575"><ele>96</ele></trkpt><trkpt lat="48.22276" lon="-1.51565"><ele>96</ele></trkpt><trkpt lat="48.22279" lon="-1.51558"><ele>95.96</ele></trkpt><trkpt lat="48.22288" lon="-1.51545"><ele>95.82</ele></trkpt><trkpt lat="48.2229" lon="-1.51537"><ele>95.69</ele></trkpt><trkpt lat="48.22296" lon="-1.51513"><ele>95.53</ele></trkpt><trkpt lat="48.22296" lon="-1.51488"><ele>95.6</ele></trkpt><trkpt lat="48.22294" lon="-1.51467"><ele>95.72</ele></trkpt><trkpt lat="48.2229" lon="-1.51454"><ele>95.69</ele></trkpt><trkpt lat="48.22296" lon="-1.51448"><ele>95.61</ele></trkpt><trkpt lat="48.2229" lon="-1.51454"><ele>95.69</ele></trkpt><trkpt lat="48.22278" lon="-1.51465"><ele>95.9</ele></trkpt><trkpt lat="48.22269" lon="-1.51472"><ele>96.03</ele></trkpt><trkpt lat="48.22249" lon="-1.51487"><ele>96.38</ele></trkpt><trkpt lat="48.22208" lon="-1.51519"><ele>97.06</ele></trkpt><trkpt lat="48.22175" lon="-1.51547"><ele>97.55</ele></trkpt><trkpt lat="48.22164" lon="-1.51556"><ele>97.8</ele></trkpt><trkpt lat="48.22155" lon="-1.51563"><ele>98.08</ele></trkpt><trkpt lat="48.22149" lon="-1.51565"><ele>98.32</ele></trkpt><trkpt lat="48.22144" lon="-1.51567"><ele>98.49</ele></trkpt><trkpt lat="48.2213" lon="-1.5157"><ele>98.62</ele></trkpt><trkpt lat="48.22119" lon="-1.51571"><ele>98.69</ele></trkpt><trkpt lat="48.221" lon="-1.51574"><ele>98.99</ele></trkpt><trkpt lat="48.22079" lon="-1.51575"><ele>99.3</ele></trkpt><trkpt lat="48.22039" lon="-1.51578"><ele>99.84</ele></trkpt></trkseg></trk></gpx>
