<?xml version="1.0" encoding="UTF-8" standalone="no"?>
<gpx xmlns="http://www.topografix.com/GPX/1/1" version="1.1" xmlns:xsi="http://www.w3.org/2001/XMLSchema-instance" xsi:schemaLocation="http://www.topografix.com/GPX/1/1 http://www.topografix.com/GPX/1/1/gpx.xsd" creator="Cirkwi"><metadata><name><![CDATA[Liffré circuit du Bâton Roulant et du Gué Renaie]]></name><desc><![CDATA[Parking de Mi-Forêt (liffré-cormier communauté) D 27,D227 près de l'A 84. Le circuit conduit de la forêt aux lieux dits à proximité de Liffré. Plusieurs chemins bordés d'arbres ont été conservés ce qui permet de traverser le parcours urbain en se sentant à la campagne (encore humides en cette période). Après avoir dépassé les hameaux de Bâton Roulant et de Villeneuve, le circuit retourne en forêt. Après  la séparation des deux parcours suivre le balisage du circuit du Gué Renaie et au carrefour de Bedfer prendre la route forestière à gauche pour regagner le parking.]]></desc><author><name><![CDATA[UTL Rennes]]></name></author><time>2025-11-18T12:20:56Z</time></metadata><trk><trkseg><trkpt lat="48.18866" lon="-1.54497"><ele>106.82</ele></trkpt><trkpt lat="48.1888" lon="-1.54456"><ele>106.89</ele></trkpt><trkpt lat="48.1888" lon="-1.54455"><ele>106.89</ele></trkpt><trkpt lat="48.18877" lon="-1.54435"><ele>106.78</ele></trkpt><trkpt lat="48.18884" lon="-1.54407"><ele>106.9</ele></trkpt><trkpt lat="48.18899" lon="-1.54169"><ele>105.8</ele></trkpt><trkpt lat="48.18901" lon="-1.54031"><ele>105.21</ele></trkpt><trkpt lat="48.18913" lon="-1.53804"><ele>104.04</ele></trkpt><trkpt lat="48.18928" lon="-1.53702"><ele>104</ele></trkpt><trkpt lat="48.18928" lon="-1.53684"><ele>104.1</ele></trkpt><trkpt lat="48.18926" lon="-1.53659"><ele>104.1</ele></trkpt><trkpt lat="48.18923" lon="-1.53621"><ele>104.1</ele></trkpt><trkpt lat="48.18925" lon="-1.53594"><ele>104.1</ele></trkpt><trkpt lat="48.18923" lon="-1.53565"><ele>104.1</ele></trkpt><trkpt lat="48.18923" lon="-1.53542"><ele>104.1</ele></trkpt><trkpt lat="48.18923" lon="-1.53516"><ele>104.08</ele></trkpt><trkpt lat="48.18925" lon="-1.53493"><ele>103.86</ele></trkpt><trkpt lat="48.18929" lon="-1.53476"><ele>103.62</ele></trkpt><trkpt lat="48.18933" lon="-1.53451"><ele>103.68</ele></trkpt><trkpt lat="48.18929" lon="-1.53429"><ele>103.6</ele></trkpt><trkpt lat="48.1894" lon="-1.53409"><ele>103.9</ele></trkpt><trkpt lat="48.18945" lon="-1.53404"><ele>103.93</ele></trkpt><trkpt lat="48.18949" lon="-1.53402"><ele>103.99</ele></trkpt><trkpt lat="48.18965" lon="-1.53402"><ele>103.81</ele></trkpt><trkpt lat="48.18977" lon="-1.53402"><ele>103.48</ele></trkpt><trkpt lat="48.1899" lon="-1.5338"><ele>103.3</ele></trkpt><trkpt lat="48.1902" lon="-1.53322"><ele>103.48</ele></trkpt><trkpt lat="48.19044" lon="-1.5328"><ele>103.48</ele></trkpt><trkpt lat="48.19056" lon="-1.53262"><ele>103.31</ele></trkpt><trkpt lat="48.19074" lon="-1.53237"><ele>102.77</ele></trkpt><trkpt lat="48.19098" lon="-1.53205"><ele>102.12</ele></trkpt><trkpt lat="48.19135" lon="-1.53168"><ele>101.09</ele></trkpt><trkpt lat="48.19174" lon="-1.53131"><ele>99.75</ele></trkpt><trkpt lat="48.19228" lon="-1.53081"><ele>99.39</ele></trkpt><trkpt lat="48.19248" lon="-1.53059"><ele>99.23</ele></trkpt><trkpt lat="48.19277" lon="-1.53023"><ele>99.21</ele></trkpt><trkpt lat="48.19309" lon="-1.52986"><ele>99.29</ele></trkpt><trkpt lat="48.19327" lon="-1.52969"><ele>99.31</ele></trkpt><trkpt lat="48.19346" lon="-1.52955"><ele>99.4</ele></trkpt><trkpt lat="48.19381" lon="-1.52926"><ele>99.5</ele></trkpt><trkpt lat="48.19395" lon="-1.52917"><ele>99.57</ele></trkpt><trkpt lat="48.19403" lon="-1.52914"><ele>99.69</ele></trkpt><trkpt lat="48.19412" lon="-1.52912"><ele>99.78</ele></trkpt><trkpt lat="48.19443" lon="-1.52903"><ele>100.19</ele></trkpt><trkpt lat="48.19466" lon="-1.52895"><ele>100.4</ele></trkpt><trkpt lat="48.19495" lon="-1.52882"><ele>100.68</ele></trkpt><trkpt lat="48.19515" lon="-1.52871"><ele>100.8</ele></trkpt><trkpt lat="48.19538" lon="-1.52857"><ele>100.8</ele></trkpt><trkpt lat="48.19545" lon="-1.52855"><ele>100.8</ele></trkpt><trkpt lat="48.19556" lon="-1.52855"><ele>100.79</ele></trkpt><trkpt lat="48.19599" lon="-1.52857"><ele>100.5</ele></trkpt><trkpt lat="48.19618" lon="-1.52856"><ele>100.31</ele></trkpt><trkpt lat="48.1963" lon="-1.52856"><ele>100.07</ele></trkpt><trkpt lat="48.19639" lon="-1.52854"><ele>99.97</ele></trkpt><trkpt lat="48.19652" lon="-1.52852"><ele>99.78</ele></trkpt><trkpt lat="48.1968" lon="-1.52843"><ele>99.43</ele></trkpt><trkpt lat="48.19695" lon="-1.52838"><ele>99.23</ele></trkpt><trkpt lat="48.19714" lon="-1.52828"><ele>99.11</ele></trkpt><trkpt lat="48.19737" lon="-1.52812"><ele>99</ele></trkpt><trkpt lat="48.1978" lon="-1.52782"><ele>98.67</ele></trkpt><trkpt lat="48.19799" lon="-1.52768"><ele>98.5</ele></trkpt><trkpt lat="48.19825" lon="-1.52746"><ele>98.5</ele></trkpt><trkpt lat="48.19846" lon="-1.52725"><ele>98.48</ele></trkpt><trkpt lat="48.19861" lon="-1.52712"><ele>98.3</ele></trkpt><trkpt lat="48.19869" lon="-1.52705"><ele>98.28</ele></trkpt><trkpt lat="48.19881" lon="-1.52696"><ele>98.12</ele></trkpt><trkpt lat="48.19898" lon="-1.52686"><ele>97.96</ele></trkpt><trkpt lat="48.19913" lon="-1.52677"><ele>97.79</ele></trkpt><trkpt lat="48.19917" lon="-1.52674"><ele>97.76</ele></trkpt><trkpt lat="48.19921" lon="-1.52669"><ele>97.78</ele></trkpt><trkpt lat="48.19927" lon="-1.52657"><ele>97.7</ele></trkpt><trkpt lat="48.19936" lon="-1.5264"><ele>97.73</ele></trkpt><trkpt lat="48.19939" lon="-1.52633"><ele>97.66</ele></trkpt><trkpt lat="48.19942" lon="-1.52621"><ele>97.6</ele></trkpt><trkpt lat="48.19944" lon="-1.52615"><ele>97.66</ele></trkpt><trkpt lat="48.19954" lon="-1.5261"><ele>97.78</ele></trkpt><trkpt lat="48.19978" lon="-1.526"><ele>98.16</ele></trkpt><trkpt lat="48.19995" lon="-1.52591"><ele>97.93</ele></trkpt><trkpt lat="48.20002" lon="-1.52588"><ele>97.92</ele></trkpt><trkpt lat="48.20022" lon="-1.52576"><ele>98.15</ele></trkpt><trkpt lat="48.20055" lon="-1.52551"><ele>98.08</ele></trkpt><trkpt lat="48.20069" lon="-1.52542"><ele>98.24</ele></trkpt><trkpt lat="48.2008" lon="-1.5253"><ele>98.12</ele></trkpt><trkpt lat="48.201" lon="-1.52516"><ele>98.22</ele></trkpt><trkpt lat="48.20108" lon="-1.52511"><ele>98.34</ele></trkpt><trkpt lat="48.20118" lon="-1.52506"><ele>98.5</ele></trkpt><trkpt lat="48.20157" lon="-1.52485"><ele>98.86</ele></trkpt><trkpt lat="48.20206" lon="-1.52458"><ele>98.9</ele></trkpt><trkpt lat="48.20282" lon="-1.52411"><ele>99.64</ele></trkpt><trkpt lat="48.20285" lon="-1.52409"><ele>99.69</ele></trkpt><trkpt lat="48.20329" lon="-1.52381"><ele>100.31</ele></trkpt><trkpt lat="48.20346" lon="-1.52373"><ele>100.5</ele></trkpt><trkpt lat="48.20365" lon="-1.52367"><ele>100.5</ele></trkpt><trkpt lat="48.20376" lon="-1.52329"><ele>100.98</ele></trkpt><trkpt lat="48.20384" lon="-1.52296"><ele>101.58</ele></trkpt><trkpt lat="48.20392" lon="-1.52262"><ele>102.18</ele></trkpt><trkpt lat="48.2041" lon="-1.5219"><ele>102.6</ele></trkpt><trkpt lat="48.20421" lon="-1.52162"><ele>102.53</ele></trkpt><trkpt lat="48.20428" lon="-1.52152"><ele>102.73</ele></trkpt><trkpt lat="48.20437" lon="-1.52147"><ele>102.93</ele></trkpt><trkpt lat="48.20469" lon="-1.52145"><ele>102.64</ele></trkpt><trkpt lat="48.20469" lon="-1.52146"><ele>102.64</ele></trkpt><trkpt lat="48.20473" lon="-1.52067"><ele>102.74</ele></trkpt><trkpt lat="48.20461" lon="-1.52042"><ele>102</ele></trkpt><trkpt lat="48.20459" lon="-1.52042"><ele>102</ele></trkpt><trkpt lat="48.20456" lon="-1.52029"><ele>101.77</ele></trkpt><trkpt lat="48.20437" lon="-1.51954"><ele>100.16</ele></trkpt><trkpt lat="48.20419" lon="-1.5189"><ele>98.86</ele></trkpt><trkpt lat="48.20419" lon="-1.51889"><ele>98.86</ele></trkpt><trkpt lat="48.20391" lon="-1.51827"><ele>97.25</ele></trkpt><trkpt lat="48.20379" lon="-1.51787"><ele>96.31</ele></trkpt><trkpt lat="48.20348" lon="-1.51715"><ele>95</ele></trkpt><trkpt lat="48.20304" lon="-1.51586"><ele>91.2</ele></trkpt><trkpt lat="48.20211" lon="-1.51585"><ele>89.81</ele></trkpt><trkpt lat="48.20197" lon="-1.51668"><ele>91.44</ele></trkpt><trkpt lat="48.20162" lon="-1.51758"><ele>94.43</ele></trkpt><trkpt lat="48.20148" lon="-1.51783"><ele>94.54</ele></trkpt><trkpt lat="48.20141" lon="-1.51806"><ele>94.97</ele></trkpt><trkpt lat="48.20128" lon="-1.51832"><ele>94.86</ele></trkpt><trkpt lat="48.20098" lon="-1.518"><ele>93.69</ele></trkpt><trkpt lat="48.20081" lon="-1.51867"><ele>94.6</ele></trkpt><trkpt lat="48.20073" lon="-1.51904"><ele>95</ele></trkpt><trkpt lat="48.20069" lon="-1.51922"><ele>95.27</ele></trkpt><trkpt lat="48.20068" lon="-1.51944"><ele>95.89</ele></trkpt><trkpt lat="48.20066" lon="-1.51956"><ele>96</ele></trkpt><trkpt lat="48.20062" lon="-1.51983"><ele>96</ele></trkpt><trkpt lat="48.20056" lon="-1.52029"><ele>96.03</ele></trkpt><trkpt lat="48.20055" lon="-1.52059"><ele>95.72</ele></trkpt><trkpt lat="48.20052" lon="-1.52062"><ele>95.62</ele></trkpt><trkpt lat="48.2005" lon="-1.52067"><ele>95.59</ele></trkpt><trkpt lat="48.20049" lon="-1.52083"><ele>95.5</ele></trkpt><trkpt lat="48.20058" lon="-1.52081"><ele>95.61</ele></trkpt><trkpt lat="48.20059" lon="-1.52105"><ele>96.16</ele></trkpt><trkpt lat="48.20059" lon="-1.52125"><ele>96.93</ele></trkpt><trkpt lat="48.20055" lon="-1.52136"><ele>97.02</ele></trkpt><trkpt lat="48.20049" lon="-1.52149"><ele>96.84</ele></trkpt><trkpt lat="48.20034" lon="-1.52177"><ele>97</ele></trkpt><trkpt lat="48.20029" lon="-1.5219"><ele>97.01</ele></trkpt><trkpt lat="48.20018" lon="-1.52214"><ele>97.02</ele></trkpt><trkpt lat="48.19997" lon="-1.52266"><ele>96.85</ele></trkpt><trkpt lat="48.19994" lon="-1.52274"><ele>96.98</ele></trkpt><trkpt lat="48.19991" lon="-1.52292"><ele>97.2</ele></trkpt><trkpt lat="48.1999" lon="-1.52306"><ele>97.4</ele></trkpt><trkpt lat="48.19991" lon="-1.52316"><ele>97.59</ele></trkpt><trkpt lat="48.19994" lon="-1.52325"><ele>97.82</ele></trkpt><trkpt lat="48.19995" lon="-1.52335"><ele>97.89</ele></trkpt><trkpt lat="48.19994" lon="-1.52343"><ele>97.97</ele></trkpt><trkpt lat="48.19992" lon="-1.52348"><ele>98</ele></trkpt><trkpt lat="48.19985" lon="-1.52356"><ele>98</ele></trkpt><trkpt lat="48.19969" lon="-1.52375"><ele>97.91</ele></trkpt><trkpt lat="48.19952" lon="-1.52394"><ele>97.9</ele></trkpt><trkpt lat="48.19946" lon="-1.52402"><ele>97.9</ele></trkpt><trkpt lat="48.19933" lon="-1.52415"><ele>97.93</ele></trkpt><trkpt lat="48.19928" lon="-1.52421"><ele>97.82</ele></trkpt><trkpt lat="48.19925" lon="-1.52425"><ele>97.64</ele></trkpt><trkpt lat="48.19904" lon="-1.52448"><ele>97.3</ele></trkpt><trkpt lat="48.19891" lon="-1.52466"><ele>97.89</ele></trkpt><trkpt lat="48.19877" lon="-1.52481"><ele>98</ele></trkpt><trkpt lat="48.19869" lon="-1.52487"><ele>98</ele></trkpt><trkpt lat="48.19865" lon="-1.52454"><ele>97.62</ele></trkpt><trkpt lat="48.19863" lon="-1.5244"><ele>97.29</ele></trkpt><trkpt lat="48.19861" lon="-1.52418"><ele>97.02</ele></trkpt><trkpt lat="48.19858" lon="-1.524"><ele>97</ele></trkpt><trkpt lat="48.19842" lon="-1.52299"><ele>96.12</ele></trkpt><trkpt lat="48.19822" lon="-1.52201"><ele>94.99</ele></trkpt><trkpt lat="48.19821" lon="-1.52198"><ele>94.95</ele></trkpt><trkpt lat="48.19814" lon="-1.52177"><ele>94.41</ele></trkpt><trkpt lat="48.19807" lon="-1.52161"><ele>94.12</ele></trkpt><trkpt lat="48.19788" lon="-1.52128"><ele>93.96</ele></trkpt><trkpt lat="48.19787" lon="-1.52126"><ele>93.9</ele></trkpt><trkpt lat="48.19783" lon="-1.52115"><ele>93.78</ele></trkpt><trkpt lat="48.19777" lon="-1.52084"><ele>93.34</ele></trkpt><trkpt lat="48.19771" lon="-1.52072"><ele>93.28</ele></trkpt><trkpt lat="48.19756" lon="-1.5205"><ele>93.4</ele></trkpt><trkpt lat="48.1975" lon="-1.5204"><ele>93.61</ele></trkpt><trkpt lat="48.19743" lon="-1.52025"><ele>93.86</ele></trkpt><trkpt lat="48.19741" lon="-1.52022"><ele>93.82</ele></trkpt><trkpt lat="48.19729" lon="-1.52006"><ele>93.83</ele></trkpt><trkpt lat="48.19717" lon="-1.51959"><ele>93.16</ele></trkpt><trkpt lat="48.19718" lon="-1.51947"><ele>93.07</ele></trkpt><trkpt lat="48.19709" lon="-1.51943"><ele>93.22</ele></trkpt><trkpt lat="48.19708" lon="-1.51942"><ele>93.22</ele></trkpt><trkpt lat="48.19696" lon="-1.51938"><ele>93.45</ele></trkpt><trkpt lat="48.19692" lon="-1.51936"><ele>93.55</ele></trkpt><trkpt lat="48.1969" lon="-1.51936"><ele>93.55</ele></trkpt><trkpt lat="48.19683" lon="-1.51933"><ele>93.74</ele></trkpt><trkpt lat="48.19671" lon="-1.51931"><ele>94.12</ele></trkpt><trkpt lat="48.19656" lon="-1.51932"><ele>94.5</ele></trkpt><trkpt lat="48.19629" lon="-1.51935"><ele>94.5</ele></trkpt><trkpt lat="48.19606" lon="-1.51937"><ele>94.24</ele></trkpt><trkpt lat="48.19591" lon="-1.51939"><ele>94.05</ele></trkpt><trkpt lat="48.19584" lon="-1.5194"><ele>93.9</ele></trkpt><trkpt lat="48.19575" lon="-1.5194"><ele>93.75</ele></trkpt><trkpt lat="48.19566" lon="-1.5194"><ele>93.59</ele></trkpt><trkpt lat="48.19556" lon="-1.51936"><ele>93.32</ele></trkpt><trkpt lat="48.19544" lon="-1.51929"><ele>93.13</ele></trkpt><trkpt lat="48.19532" lon="-1.51917"><ele>92.7</ele></trkpt><trkpt lat="48.19523" lon="-1.51909"><ele>92.53</ele></trkpt><trkpt lat="48.19519" lon="-1.5192"><ele>92.51</ele></trkpt><trkpt lat="48.19512" lon="-1.51934"><ele>92.34</ele></trkpt><trkpt lat="48.19506" lon="-1.51946"><ele>92.27</ele></trkpt><trkpt lat="48.19501" lon="-1.51956"><ele>92.23</ele></trkpt><trkpt lat="48.19493" lon="-1.51965"><ele>92.04</ele></trkpt><trkpt lat="48.19475" lon="-1.51967"><ele>91.66</ele></trkpt><trkpt lat="48.19462" lon="-1.51967"><ele>91.15</ele></trkpt><trkpt lat="48.19419" lon="-1.51965"><ele>90.29</ele></trkpt><trkpt lat="48.19175" lon="-1.51891"><ele>85.26</ele></trkpt><trkpt lat="48.18901" lon="-1.51736"><ele>87.91</ele></trkpt><trkpt lat="48.18893" lon="-1.51732"><ele>87.85</ele></trkpt><trkpt lat="48.18882" lon="-1.51727"><ele>87.93</ele></trkpt><trkpt lat="48.18859" lon="-1.51717"><ele>88.31</ele></trkpt><trkpt lat="48.18827" lon="-1.51702"><ele>88.52</ele></trkpt><trkpt lat="48.18801" lon="-1.51688"><ele>88.56</ele></trkpt><trkpt lat="48.18779" lon="-1.51687"><ele>88.04</ele></trkpt><trkpt lat="48.18785" lon="-1.51716"><ele>88.5</ele></trkpt><trkpt lat="48.18788" lon="-1.51735"><ele>88.61</ele></trkpt><trkpt lat="48.18789" lon="-1.51755"><ele>88.76</ele></trkpt><trkpt lat="48.18791" lon="-1.51798"><ele>89.34</ele></trkpt><trkpt lat="48.18794" lon="-1.51843"><ele>89.85</ele></trkpt><trkpt lat="48.18798" lon="-1.51875"><ele>90.25</ele></trkpt><trkpt lat="48.18799" lon="-1.51883"><ele>90.34</ele></trkpt><trkpt lat="48.18803" lon="-1.51913"><ele>90.51</ele></trkpt><trkpt lat="48.18803" lon="-1.51917"><ele>90.57</ele></trkpt><trkpt lat="48.18796" lon="-1.51915"><ele>90.34</ele></trkpt><trkpt lat="48.18782" lon="-1.5191"><ele>89.89</ele></trkpt><trkpt lat="48.18765" lon="-1.51906"><ele>89.31</ele></trkpt><trkpt lat="48.18752" lon="-1.51901"><ele>88.83</ele></trkpt><trkpt lat="48.18743" lon="-1.51896"><ele>88.57</ele></trkpt><trkpt lat="48.18738" lon="-1.51892"><ele>88.41</ele></trkpt><trkpt lat="48.18732" lon="-1.51884"><ele>88.24</ele></trkpt><trkpt lat="48.18727" lon="-1.51876"><ele>88.2</ele></trkpt><trkpt lat="48.1872" lon="-1.51856"><ele>87.93</ele></trkpt><trkpt lat="48.1871" lon="-1.51824"><ele>87.45</ele></trkpt><trkpt lat="48.187" lon="-1.51827"><ele>87.16</ele></trkpt><trkpt lat="48.18655" lon="-1.51843"><ele>85.45</ele></trkpt><trkpt lat="48.18587" lon="-1.51871"><ele>83.96</ele></trkpt><trkpt lat="48.18585" lon="-1.51872"><ele>83.94</ele></trkpt><trkpt lat="48.18582" lon="-1.51873"><ele>83.88</ele></trkpt><trkpt lat="48.18582" lon="-1.51882"><ele>83.93</ele></trkpt><trkpt lat="48.18582" lon="-1.51896"><ele>84</ele></trkpt><trkpt lat="48.18578" lon="-1.51913"><ele>84.19</ele></trkpt><trkpt lat="48.18564" lon="-1.51951"><ele>84.83</ele></trkpt><trkpt lat="48.18535" lon="-1.52026"><ele>86</ele></trkpt><trkpt lat="48.18508" lon="-1.52074"><ele>86.73</ele></trkpt><trkpt lat="48.18495" lon="-1.52101"><ele>87.13</ele></trkpt><trkpt lat="48.18488" lon="-1.52118"><ele>87.44</ele></trkpt><trkpt lat="48.18485" lon="-1.52125"><ele>87.46</ele></trkpt><trkpt lat="48.18439" lon="-1.52198"><ele>88.48</ele></trkpt><trkpt lat="48.18359" lon="-1.52326"><ele>91.39</ele></trkpt><trkpt lat="48.18345" lon="-1.52348"><ele>91.87</ele></trkpt><trkpt lat="48.18324" lon="-1.52382"><ele>92.63</ele></trkpt><trkpt lat="48.18309" lon="-1.52407"><ele>92.86</ele></trkpt><trkpt lat="48.18275" lon="-1.52319"><ele>90.75</ele></trkpt><trkpt lat="48.18229" lon="-1.52311"><ele>90.39</ele></trkpt><trkpt lat="48.18161" lon="-1.52317"><ele>89.36</ele></trkpt><trkpt lat="48.18148" lon="-1.52354"><ele>89.11</ele></trkpt><trkpt lat="48.18118" lon="-1.52366"><ele>87.94</ele></trkpt><trkpt lat="48.18014" lon="-1.52343"><ele>82.36</ele></trkpt><trkpt lat="48.17995" lon="-1.52294"><ele>81.66</ele></trkpt><trkpt lat="48.17967" lon="-1.52296"><ele>80.27</ele></trkpt><trkpt lat="48.17923" lon="-1.52309"><ele>78.58</ele></trkpt><trkpt lat="48.178" lon="-1.52321"><ele>72.63</ele></trkpt><trkpt lat="48.178" lon="-1.5232"><ele>72.63</ele></trkpt><trkpt lat="48.17857" lon="-1.52414"><ele>74.59</ele></trkpt><trkpt lat="48.17811" lon="-1.52549"><ele>70.8</ele></trkpt><trkpt lat="48.17699" lon="-1.52661"><ele>62.39</ele></trkpt><trkpt lat="48.17683" lon="-1.52712"><ele>62.69</ele></trkpt><trkpt lat="48.17656" lon="-1.52764"><ele>63.55</ele></trkpt><trkpt lat="48.17627" lon="-1.52776"><ele>64.77</ele></trkpt><trkpt lat="48.17597" lon="-1.52753"><ele>65.17</ele></trkpt><trkpt lat="48.17423" lon="-1.53062"><ele>66.46</ele></trkpt><trkpt lat="48.17393" lon="-1.53044"><ele>64.52</ele></trkpt><trkpt lat="48.17366" lon="-1.53068"><ele>63.49</ele></trkpt><trkpt lat="48.17353" lon="-1.53113"><ele>62.48</ele></trkpt><trkpt lat="48.17371" lon="-1.53163"><ele>63.66</ele></trkpt><trkpt lat="48.17376" lon="-1.53221"><ele>63.51</ele></trkpt><trkpt lat="48.17373" lon="-1.53274"><ele>62.86</ele></trkpt><trkpt lat="48.17334" lon="-1.53306"><ele>62.1</ele></trkpt><trkpt lat="48.17299" lon="-1.53342"><ele>63.09</ele></trkpt><trkpt lat="48.17299" lon="-1.53341"><ele>63.09</ele></trkpt><trkpt lat="48.17286" lon="-1.53319"><ele>63.02</ele></trkpt><trkpt lat="48.17266" lon="-1.53278"><ele>62.27</ele></trkpt><trkpt lat="48.17246" lon="-1.53265"><ele>61.84</ele></trkpt><trkpt lat="48.17223" lon="-1.53272"><ele>61.79</ele></trkpt><trkpt lat="48.17196" lon="-1.53312"><ele>62.2</ele></trkpt><trkpt lat="48.17183" lon="-1.53334"><ele>62.68</ele></trkpt><trkpt lat="48.17165" lon="-1.53413"><ele>63.67</ele></trkpt><trkpt lat="48.17165" lon="-1.53533"><ele>65.38</ele></trkpt><trkpt lat="48.17125" lon="-1.53602"><ele>64.33</ele></trkpt><trkpt lat="48.17126" lon="-1.5372"><ele>66.01</ele></trkpt><trkpt lat="48.17106" lon="-1.53838"><ele>67.34</ele></trkpt><trkpt lat="48.17088" lon="-1.53922"><ele>67.76</ele></trkpt><trkpt lat="48.17086" lon="-1.5395"><ele>68.25</ele></trkpt><trkpt lat="48.17054" lon="-1.5394"><ele>67.49</ele></trkpt><trkpt lat="48.17055" lon="-1.5394"><ele>67.34</ele></trkpt><trkpt lat="48.17027" lon="-1.5386"><ele>68.5</ele></trkpt><trkpt lat="48.17002" lon="-1.53659"><ele>67.14</ele></trkpt><trkpt lat="48.16974" lon="-1.53587"><ele>66.97</ele></trkpt><trkpt lat="48.16981" lon="-1.53479"><ele>66.59</ele></trkpt><trkpt lat="48.17009" lon="-1.53382"><ele>65.62</ele></trkpt><trkpt lat="48.17038" lon="-1.53294"><ele>65.1</ele></trkpt><trkpt lat="48.1707" lon="-1.53254"><ele>63.73</ele></trkpt><trkpt lat="48.17093" lon="-1.53206"><ele>62.73</ele></trkpt><trkpt lat="48.17139" lon="-1.5324"><ele>62.04</ele></trkpt><trkpt lat="48.17147" lon="-1.53305"><ele>61.63</ele></trkpt><trkpt lat="48.17148" lon="-1.53304"><ele>61.63</ele></trkpt><trkpt lat="48.17194" lon="-1.5333"><ele>62.59</ele></trkpt><trkpt lat="48.17195" lon="-1.5333"><ele>62.59</ele></trkpt><trkpt lat="48.17233" lon="-1.53294"><ele>62.44</ele></trkpt><trkpt lat="48.17268" lon="-1.53328"><ele>63.12</ele></trkpt><trkpt lat="48.17291" lon="-1.53356"><ele>63.41</ele></trkpt><trkpt lat="48.17382" lon="-1.53283"><ele>63.6</ele></trkpt><trkpt lat="48.17388" lon="-1.53517"><ele>66.3</ele></trkpt><trkpt lat="48.17526" lon="-1.53669"><ele>77.55</ele></trkpt><trkpt lat="48.1755" lon="-1.53711"><ele>78.75</ele></trkpt><trkpt lat="48.17643" lon="-1.53796"><ele>81.18</ele></trkpt><trkpt lat="48.177" lon="-1.53873"><ele>82.79</ele></trkpt><trkpt lat="48.17773" lon="-1.53864"><ele>83.83</ele></trkpt><trkpt lat="48.17833" lon="-1.53976"><ele>84.94</ele></trkpt><trkpt lat="48.17834" lon="-1.53976"><ele>84.94</ele></trkpt><trkpt lat="48.17894" lon="-1.54032"><ele>85.59</ele></trkpt><trkpt lat="48.18028" lon="-1.54176"><ele>87.92</ele></trkpt><trkpt lat="48.18163" lon="-1.54201"><ele>91.63</ele></trkpt><trkpt lat="48.18235" lon="-1.54231"><ele>91.84</ele></trkpt><trkpt lat="48.18285" lon="-1.54287"><ele>92.01</ele></trkpt><trkpt lat="48.18332" lon="-1.54341"><ele>93.7</ele></trkpt><trkpt lat="48.18401" lon="-1.5425"><ele>94.47</ele></trkpt><trkpt lat="48.18431" lon="-1.54204"><ele>94.79</ele></trkpt><trkpt lat="48.18444" lon="-1.54183"><ele>95.03</ele></trkpt><trkpt lat="48.18463" lon="-1.54155"><ele>95.36</ele></trkpt><trkpt lat="48.18501" lon="-1.54195"><ele>97.32</ele></trkpt><trkpt lat="48.18562" lon="-1.54257"><ele>99.89</ele></trkpt><trkpt lat="48.1867" lon="-1.54369"><ele>104</ele></trkpt><trkpt lat="48.18807" lon="-1.54509"><ele>106.35</ele></trkpt><trkpt lat="48.18825" lon="-1.54526"><ele>106.77</ele></trkpt><trkpt lat="48.18854" lon="-1.5452"><ele>106.9</ele></trkpt></trkseg></trk></gpx>
