<?xml version="1.0" encoding="UTF-8" standalone="no"?>
<gpx xmlns="http://www.topografix.com/GPX/1/1" version="1.1" xmlns:xsi="http://www.w3.org/2001/XMLSchema-instance" xsi:schemaLocation="http://www.topografix.com/GPX/1/1 http://www.topografix.com/GPX/1/1/gpx.xsd" creator="Cirkwi"><metadata><name><![CDATA[Gosné : le meneur de loups - circuit de l'étang d'Ouée (circuit long)]]></name><desc><![CDATA[Départ sur la D812 dans la forêt de Liffré au lieu dit Sévailles,  puis suivre le circuit rouge jusqu'à Gosné et poursuivre le circuit vert. Arrivée au parking du cimetière.    Alternance de petites routes et de beaux chemins plus ou moins humides sur ce parcours. Le chemin creux au départ de la D26, à droite après le château d'eau est impraticable.  Il est remplacé par de la petite route.]]></desc><author><name><![CDATA[UTL Rennes]]></name></author><link href="http://fichier0.cirkwi.com/image/photo/circuit/1300x1300/621283/fr/0.jpg"><text><![CDATA[|étang d'Ouée]]></text></link><time>2025-11-18T12:17:08Z</time></metadata><trk><trkseg><trkpt lat="48.22861" lon="-1.4793"><ele>105.1</ele></trkpt><trkpt lat="48.22873" lon="-1.47908"><ele>104.91</ele></trkpt><trkpt lat="48.2288" lon="-1.47916"><ele>104.84</ele></trkpt><trkpt lat="48.22899" lon="-1.47936"><ele>104.7</ele></trkpt><trkpt lat="48.22917" lon="-1.47952"><ele>104.69</ele></trkpt><trkpt lat="48.22941" lon="-1.4797"><ele>104.65</ele></trkpt><trkpt lat="48.22962" lon="-1.4799"><ele>104.87</ele></trkpt><trkpt lat="48.22974" lon="-1.47999"><ele>105.02</ele></trkpt><trkpt lat="48.22993" lon="-1.48015"><ele>105.2</ele></trkpt><trkpt lat="48.23079" lon="-1.48087"><ele>105.8</ele></trkpt><trkpt lat="48.23104" lon="-1.4811"><ele>105.9</ele></trkpt><trkpt lat="48.23163" lon="-1.48156"><ele>105.65</ele></trkpt><trkpt lat="48.23209" lon="-1.48195"><ele>105.65</ele></trkpt><trkpt lat="48.2325" lon="-1.48231"><ele>105.65</ele></trkpt><trkpt lat="48.23299" lon="-1.48275"><ele>105.92</ele></trkpt><trkpt lat="48.23322" lon="-1.48295"><ele>96.22</ele></trkpt><trkpt lat="48.23337" lon="-1.48308"><ele>95.45</ele></trkpt><trkpt lat="48.23361" lon="-1.48328"><ele>104.85</ele></trkpt><trkpt lat="48.23394" lon="-1.48354"><ele>104.99</ele></trkpt><trkpt lat="48.23406" lon="-1.48363"><ele>104.9</ele></trkpt><trkpt lat="48.23459" lon="-1.48385"><ele>104.17</ele></trkpt><trkpt lat="48.23538" lon="-1.48422"><ele>101.28</ele></trkpt><trkpt lat="48.23579" lon="-1.48441"><ele>98.69</ele></trkpt><trkpt lat="48.23596" lon="-1.48369"><ele>94.32</ele></trkpt><trkpt lat="48.23597" lon="-1.48369"><ele>94.32</ele></trkpt><trkpt lat="48.23602" lon="-1.48303"><ele>91.13</ele></trkpt><trkpt lat="48.23609" lon="-1.48246"><ele>87.21</ele></trkpt><trkpt lat="48.23623" lon="-1.482"><ele>84.5</ele></trkpt><trkpt lat="48.23671" lon="-1.48133"><ele>78.5</ele></trkpt><trkpt lat="48.23654" lon="-1.48106"><ele>79.52</ele></trkpt><trkpt lat="48.2365" lon="-1.48099"><ele>79.67</ele></trkpt><trkpt lat="48.23629" lon="-1.48057"><ele>79.66</ele></trkpt><trkpt lat="48.23627" lon="-1.48049"><ele>79.68</ele></trkpt><trkpt lat="48.23629" lon="-1.48036"><ele>79.14</ele></trkpt><trkpt lat="48.23628" lon="-1.48023"><ele>79.15</ele></trkpt><trkpt lat="48.23586" lon="-1.47892"><ele>78.02</ele></trkpt><trkpt lat="48.23607" lon="-1.47847"><ele>76.42</ele></trkpt><trkpt lat="48.23626" lon="-1.478"><ele>74.86</ele></trkpt><trkpt lat="48.23626" lon="-1.47786"><ele>74.56</ele></trkpt><trkpt lat="48.23635" lon="-1.47753"><ele>73.57</ele></trkpt><trkpt lat="48.23648" lon="-1.47717"><ele>72.68</ele></trkpt><trkpt lat="48.23655" lon="-1.47712"><ele>72</ele></trkpt><trkpt lat="48.23661" lon="-1.47712"><ele>71.63</ele></trkpt><trkpt lat="48.23688" lon="-1.47694"><ele>70.47</ele></trkpt><trkpt lat="48.23731" lon="-1.47668"><ele>69.7</ele></trkpt><trkpt lat="48.2377" lon="-1.47643"><ele>68.99</ele></trkpt><trkpt lat="48.23795" lon="-1.47626"><ele>68.62</ele></trkpt><trkpt lat="48.23807" lon="-1.47616"><ele>68.5</ele></trkpt><trkpt lat="48.23811" lon="-1.47608"><ele>68.32</ele></trkpt><trkpt lat="48.23817" lon="-1.47595"><ele>68.13</ele></trkpt><trkpt lat="48.23822" lon="-1.47574"><ele>67.94</ele></trkpt><trkpt lat="48.23834" lon="-1.47526"><ele>67.42</ele></trkpt><trkpt lat="48.23838" lon="-1.47515"><ele>67.13</ele></trkpt><trkpt lat="48.23842" lon="-1.47506"><ele>67</ele></trkpt><trkpt lat="48.23847" lon="-1.47498"><ele>67</ele></trkpt><trkpt lat="48.23879" lon="-1.47465"><ele>66.8</ele></trkpt><trkpt lat="48.23923" lon="-1.47423"><ele>66.69</ele></trkpt><trkpt lat="48.23948" lon="-1.47399"><ele>66.5</ele></trkpt><trkpt lat="48.2396" lon="-1.47388"><ele>66.41</ele></trkpt><trkpt lat="48.23979" lon="-1.47376"><ele>65.97</ele></trkpt><trkpt lat="48.23993" lon="-1.47369"><ele>65.47</ele></trkpt><trkpt lat="48.24003" lon="-1.47365"><ele>64.92</ele></trkpt><trkpt lat="48.24009" lon="-1.47361"><ele>64.68</ele></trkpt><trkpt lat="48.24016" lon="-1.47358"><ele>64.19</ele></trkpt><trkpt lat="48.24023" lon="-1.47355"><ele>63.96</ele></trkpt><trkpt lat="48.24031" lon="-1.47352"><ele>63.47</ele></trkpt><trkpt lat="48.24037" lon="-1.47349"><ele>62.94</ele></trkpt><trkpt lat="48.24043" lon="-1.47347"><ele>62.69</ele></trkpt><trkpt lat="48.24053" lon="-1.47343"><ele>62.39</ele></trkpt><trkpt lat="48.24054" lon="-1.47347"><ele>62.24</ele></trkpt><trkpt lat="48.24057" lon="-1.47353"><ele>62.2</ele></trkpt><trkpt lat="48.2406" lon="-1.47359"><ele>62.1</ele></trkpt><trkpt lat="48.24063" lon="-1.47364"><ele>62.02</ele></trkpt><trkpt lat="48.24068" lon="-1.4737"><ele>61.94</ele></trkpt><trkpt lat="48.24072" lon="-1.47376"><ele>61.89</ele></trkpt><trkpt lat="48.24076" lon="-1.47383"><ele>61.82</ele></trkpt><trkpt lat="48.24079" lon="-1.47389"><ele>61.81</ele></trkpt><trkpt lat="48.24082" lon="-1.47395"><ele>61.8</ele></trkpt><trkpt lat="48.24083" lon="-1.474"><ele>61.8</ele></trkpt><trkpt lat="48.24086" lon="-1.47413"><ele>61.7</ele></trkpt><trkpt lat="48.24089" lon="-1.47434"><ele>61.6</ele></trkpt><trkpt lat="48.24091" lon="-1.47455"><ele>61.53</ele></trkpt><trkpt lat="48.24094" lon="-1.47478"><ele>61.46</ele></trkpt><trkpt lat="48.24095" lon="-1.47491"><ele>61.33</ele></trkpt><trkpt lat="48.24098" lon="-1.47519"><ele>61.15</ele></trkpt><trkpt lat="48.24101" lon="-1.47538"><ele>60.86</ele></trkpt><trkpt lat="48.24102" lon="-1.47548"><ele>60.66</ele></trkpt><trkpt lat="48.24103" lon="-1.47558"><ele>60.61</ele></trkpt><trkpt lat="48.24104" lon="-1.47561"><ele>60.6</ele></trkpt><trkpt lat="48.24105" lon="-1.47564"><ele>60.6</ele></trkpt><trkpt lat="48.24107" lon="-1.47569"><ele>60.5</ele></trkpt><trkpt lat="48.2411" lon="-1.47575"><ele>60.52</ele></trkpt><trkpt lat="48.24111" lon="-1.47578"><ele>60.52</ele></trkpt><trkpt lat="48.24114" lon="-1.47581"><ele>60.59</ele></trkpt><trkpt lat="48.24119" lon="-1.47584"><ele>60.57</ele></trkpt><trkpt lat="48.24123" lon="-1.47587"><ele>60.5</ele></trkpt><trkpt lat="48.24125" lon="-1.47587"><ele>60.5</ele></trkpt><trkpt lat="48.2413" lon="-1.47585"><ele>60.59</ele></trkpt><trkpt lat="48.24139" lon="-1.47581"><ele>60.6</ele></trkpt><trkpt lat="48.24151" lon="-1.47572"><ele>60.74</ele></trkpt><trkpt lat="48.24159" lon="-1.47565"><ele>60.87</ele></trkpt><trkpt lat="48.24191" lon="-1.47542"><ele>61.48</ele></trkpt><trkpt lat="48.24204" lon="-1.47531"><ele>62.21</ele></trkpt><trkpt lat="48.24214" lon="-1.47524"><ele>62.86</ele></trkpt><trkpt lat="48.2422" lon="-1.47519"><ele>63.15</ele></trkpt><trkpt lat="48.24227" lon="-1.47513"><ele>63.59</ele></trkpt><trkpt lat="48.24233" lon="-1.47507"><ele>64.09</ele></trkpt><trkpt lat="48.24238" lon="-1.47503"><ele>64.21</ele></trkpt><trkpt lat="48.24242" lon="-1.47498"><ele>64.37</ele></trkpt><trkpt lat="48.24248" lon="-1.47492"><ele>64.55</ele></trkpt><trkpt lat="48.24255" lon="-1.47483"><ele>64.8</ele></trkpt><trkpt lat="48.24265" lon="-1.47471"><ele>65.51</ele></trkpt><trkpt lat="48.24273" lon="-1.4746"><ele>65.91</ele></trkpt><trkpt lat="48.24285" lon="-1.47445"><ele>66.36</ele></trkpt><trkpt lat="48.24293" lon="-1.47433"><ele>66.86</ele></trkpt><trkpt lat="48.24299" lon="-1.47424"><ele>67.35</ele></trkpt><trkpt lat="48.24305" lon="-1.47418"><ele>67.68</ele></trkpt><trkpt lat="48.24311" lon="-1.47412"><ele>67.83</ele></trkpt><trkpt lat="48.24316" lon="-1.47408"><ele>68.53</ele></trkpt><trkpt lat="48.24322" lon="-1.47404"><ele>68.78</ele></trkpt><trkpt lat="48.24326" lon="-1.47402"><ele>68.98</ele></trkpt><trkpt lat="48.2433" lon="-1.47401"><ele>69.28</ele></trkpt><trkpt lat="48.24335" lon="-1.47401"><ele>69.51</ele></trkpt><trkpt lat="48.2434" lon="-1.47401"><ele>69.71</ele></trkpt><trkpt lat="48.24345" lon="-1.47403"><ele>69.8</ele></trkpt><trkpt lat="48.2435" lon="-1.47406"><ele>70.1</ele></trkpt><trkpt lat="48.24353" lon="-1.47408"><ele>70.1</ele></trkpt><trkpt lat="48.24357" lon="-1.47413"><ele>70.25</ele></trkpt><trkpt lat="48.24361" lon="-1.4742"><ele>70.43</ele></trkpt><trkpt lat="48.24364" lon="-1.47425"><ele>70.7</ele></trkpt><trkpt lat="48.24365" lon="-1.47428"><ele>70.69</ele></trkpt><trkpt lat="48.24368" lon="-1.47438"><ele>70.88</ele></trkpt><trkpt lat="48.24372" lon="-1.4745"><ele>70.92</ele></trkpt><trkpt lat="48.24376" lon="-1.47467"><ele>70.72</ele></trkpt><trkpt lat="48.24379" lon="-1.47479"><ele>70.35</ele></trkpt><trkpt lat="48.24381" lon="-1.47487"><ele>70.41</ele></trkpt><trkpt lat="48.24383" lon="-1.47492"><ele>70.13</ele></trkpt><trkpt lat="48.24387" lon="-1.47499"><ele>70.16</ele></trkpt><trkpt lat="48.24394" lon="-1.47511"><ele>70.16</ele></trkpt><trkpt lat="48.24403" lon="-1.47525"><ele>70.35</ele></trkpt><trkpt lat="48.24409" lon="-1.47536"><ele>70.2</ele></trkpt><trkpt lat="48.24414" lon="-1.47545"><ele>70.19</ele></trkpt><trkpt lat="48.2442" lon="-1.47554"><ele>70.4</ele></trkpt><trkpt lat="48.24426" lon="-1.47563"><ele>70.29</ele></trkpt><trkpt lat="48.2444" lon="-1.47585"><ele>70.27</ele></trkpt><trkpt lat="48.24454" lon="-1.47606"><ele>70.48</ele></trkpt><trkpt lat="48.24461" lon="-1.4762"><ele>70.32</ele></trkpt><trkpt lat="48.2447" lon="-1.47633"><ele>70.35</ele></trkpt><trkpt lat="48.24473" lon="-1.47638"><ele>70.25</ele></trkpt><trkpt lat="48.24482" lon="-1.47648"><ele>70.18</ele></trkpt><trkpt lat="48.24487" lon="-1.47654"><ele>70.08</ele></trkpt><trkpt lat="48.24492" lon="-1.47659"><ele>69.95</ele></trkpt><trkpt lat="48.24498" lon="-1.47665"><ele>69.9</ele></trkpt><trkpt lat="48.24503" lon="-1.47671"><ele>69.86</ele></trkpt><trkpt lat="48.24509" lon="-1.47676"><ele>69.71</ele></trkpt><trkpt lat="48.24513" lon="-1.47679"><ele>69.77</ele></trkpt><trkpt lat="48.24519" lon="-1.47683"><ele>69.67</ele></trkpt><trkpt lat="48.24524" lon="-1.47686"><ele>69.48</ele></trkpt><trkpt lat="48.24533" lon="-1.47689"><ele>69.25</ele></trkpt><trkpt lat="48.24544" lon="-1.47693"><ele>69.38</ele></trkpt><trkpt lat="48.24548" lon="-1.47694"><ele>69.29</ele></trkpt><trkpt lat="48.24551" lon="-1.47696"><ele>69.29</ele></trkpt><trkpt lat="48.24556" lon="-1.47699"><ele>69.22</ele></trkpt><trkpt lat="48.24559" lon="-1.47701"><ele>69.22</ele></trkpt><trkpt lat="48.24562" lon="-1.47704"><ele>69.08</ele></trkpt><trkpt lat="48.24565" lon="-1.47708"><ele>68.96</ele></trkpt><trkpt lat="48.24568" lon="-1.47714"><ele>68.74</ele></trkpt><trkpt lat="48.24573" lon="-1.47723"><ele>68.33</ele></trkpt><trkpt lat="48.24578" lon="-1.47734"><ele>67.86</ele></trkpt><trkpt lat="48.24584" lon="-1.47744"><ele>67.67</ele></trkpt><trkpt lat="48.24591" lon="-1.47759"><ele>67.18</ele></trkpt><trkpt lat="48.24606" lon="-1.47752"><ele>67.9</ele></trkpt><trkpt lat="48.24607" lon="-1.47752"><ele>67.9</ele></trkpt><trkpt lat="48.24616" lon="-1.47726"><ele>69.48</ele></trkpt><trkpt lat="48.24617" lon="-1.47726"><ele>69.48</ele></trkpt><trkpt lat="48.24632" lon="-1.47686"><ele>72.33</ele></trkpt><trkpt lat="48.24631" lon="-1.47667"><ele>73.57</ele></trkpt><trkpt lat="48.2462" lon="-1.47641"><ele>74.74</ele></trkpt><trkpt lat="48.24611" lon="-1.47581"><ele>78.52</ele></trkpt><trkpt lat="48.24619" lon="-1.47556"><ele>80.25</ele></trkpt><trkpt lat="48.24621" lon="-1.47533"><ele>81.85</ele></trkpt><trkpt lat="48.24627" lon="-1.47504"><ele>83.75</ele></trkpt><trkpt lat="48.24642" lon="-1.47476"><ele>85.97</ele></trkpt><trkpt lat="48.24659" lon="-1.47448"><ele>87.73</ele></trkpt><trkpt lat="48.24671" lon="-1.47419"><ele>89.53</ele></trkpt><trkpt lat="48.24675" lon="-1.47392"><ele>90.9</ele></trkpt><trkpt lat="48.24676" lon="-1.47386"><ele>91.06</ele></trkpt><trkpt lat="48.24677" lon="-1.47379"><ele>91.67</ele></trkpt><trkpt lat="48.24678" lon="-1.4737"><ele>92.09</ele></trkpt><trkpt lat="48.24679" lon="-1.47363"><ele>92.31</ele></trkpt><trkpt lat="48.2468" lon="-1.47359"><ele>92.52</ele></trkpt><trkpt lat="48.2468" lon="-1.47349"><ele>93.08</ele></trkpt><trkpt lat="48.24681" lon="-1.47338"><ele>93.58</ele></trkpt><trkpt lat="48.24682" lon="-1.47333"><ele>93.7</ele></trkpt><trkpt lat="48.24682" lon="-1.47327"><ele>93.93</ele></trkpt><trkpt lat="48.24682" lon="-1.47318"><ele>94.17</ele></trkpt><trkpt lat="48.24682" lon="-1.47313"><ele>94.28</ele></trkpt><trkpt lat="48.24681" lon="-1.47308"><ele>94.4</ele></trkpt><trkpt lat="48.24681" lon="-1.47305"><ele>94.52</ele></trkpt><trkpt lat="48.2468" lon="-1.47295"><ele>94.5</ele></trkpt><trkpt lat="48.2468" lon="-1.47292"><ele>94.62</ele></trkpt><trkpt lat="48.24679" lon="-1.47287"><ele>94.73</ele></trkpt><trkpt lat="48.24679" lon="-1.47283"><ele>94.85</ele></trkpt><trkpt lat="48.24679" lon="-1.47279"><ele>94.96</ele></trkpt><trkpt lat="48.24678" lon="-1.47275"><ele>95.08</ele></trkpt><trkpt lat="48.24678" lon="-1.47272"><ele>95.2</ele></trkpt><trkpt lat="48.24678" lon="-1.47268"><ele>95.31</ele></trkpt><trkpt lat="48.24678" lon="-1.47264"><ele>95.43</ele></trkpt><trkpt lat="48.24678" lon="-1.47261"><ele>95.43</ele></trkpt><trkpt lat="48.24678" lon="-1.47257"><ele>95.54</ele></trkpt><trkpt lat="48.24678" lon="-1.47252"><ele>95.66</ele></trkpt><trkpt lat="48.24677" lon="-1.47249"><ele>95.78</ele></trkpt><trkpt lat="48.24677" lon="-1.47245"><ele>95.9</ele></trkpt><trkpt lat="48.24677" lon="-1.47243"><ele>95.9</ele></trkpt><trkpt lat="48.24677" lon="-1.47239"><ele>96.02</ele></trkpt><trkpt lat="48.24677" lon="-1.47236"><ele>96.14</ele></trkpt><trkpt lat="48.24677" lon="-1.47234"><ele>96.14</ele></trkpt><trkpt lat="48.24678" lon="-1.47228"><ele>96.37</ele></trkpt><trkpt lat="48.24678" lon="-1.47224"><ele>96.51</ele></trkpt><trkpt lat="48.24678" lon="-1.4722"><ele>96.64</ele></trkpt><trkpt lat="48.24678" lon="-1.47216"><ele>96.81</ele></trkpt><trkpt lat="48.24678" lon="-1.47212"><ele>97.01</ele></trkpt><trkpt lat="48.24678" lon="-1.47209"><ele>97.01</ele></trkpt><trkpt lat="48.24678" lon="-1.47206"><ele>97.23</ele></trkpt><trkpt lat="48.24678" lon="-1.47204"><ele>97.23</ele></trkpt><trkpt lat="48.24678" lon="-1.47201"><ele>97.46</ele></trkpt><trkpt lat="48.24678" lon="-1.472"><ele>97.46</ele></trkpt><trkpt lat="48.24678" lon="-1.47195"><ele>97.96</ele></trkpt><trkpt lat="48.24678" lon="-1.4719"><ele>98.22</ele></trkpt><trkpt lat="48.24678" lon="-1.47185"><ele>98.5</ele></trkpt><trkpt lat="48.24678" lon="-1.47173"><ele>99.37</ele></trkpt><trkpt lat="48.24678" lon="-1.47169"><ele>99.66</ele></trkpt><trkpt lat="48.24678" lon="-1.4716"><ele>100.24</ele></trkpt><trkpt lat="48.24677" lon="-1.47152"><ele>100.81</ele></trkpt><trkpt lat="48.24677" lon="-1.47143"><ele>101.38</ele></trkpt><trkpt lat="48.24677" lon="-1.47136"><ele>101.67</ele></trkpt><trkpt lat="48.24678" lon="-1.47128"><ele>102.22</ele></trkpt><trkpt lat="48.24678" lon="-1.47124"><ele>102.5</ele></trkpt><trkpt lat="48.2468" lon="-1.47116"><ele>103.05</ele></trkpt><trkpt lat="48.2468" lon="-1.47111"><ele>103.32</ele></trkpt><trkpt lat="48.24682" lon="-1.47102"><ele>103.97</ele></trkpt><trkpt lat="48.24684" lon="-1.4708"><ele>104.95</ele></trkpt><trkpt lat="48.24687" lon="-1.47058"><ele>105.87</ele></trkpt><trkpt lat="48.2469" lon="-1.47041"><ele>106.46</ele></trkpt><trkpt lat="48.2469" lon="-1.4703"><ele>106.98</ele></trkpt><trkpt lat="48.24698" lon="-1.47021"><ele>107.55</ele></trkpt><trkpt lat="48.24706" lon="-1.47012"><ele>107.91</ele></trkpt><trkpt lat="48.24716" lon="-1.47001"><ele>108.9</ele></trkpt><trkpt lat="48.24725" lon="-1.46991"><ele>109.37</ele></trkpt><trkpt lat="48.24731" lon="-1.46985"><ele>109.68</ele></trkpt><trkpt lat="48.24737" lon="-1.46977"><ele>109.99</ele></trkpt><trkpt lat="48.24745" lon="-1.46967"><ele>110.4</ele></trkpt><trkpt lat="48.24751" lon="-1.46959"><ele>110.53</ele></trkpt><trkpt lat="48.24759" lon="-1.4695"><ele>110.6</ele></trkpt><trkpt lat="48.24765" lon="-1.46944"><ele>110.6</ele></trkpt><trkpt lat="48.2477" lon="-1.4694"><ele>110.6</ele></trkpt><trkpt lat="48.24775" lon="-1.46937"><ele>110.59</ele></trkpt><trkpt lat="48.24772" lon="-1.46926"><ele>110.42</ele></trkpt><trkpt lat="48.24776" lon="-1.4692"><ele>110.3</ele></trkpt><trkpt lat="48.24778" lon="-1.46916"><ele>110.28</ele></trkpt><trkpt lat="48.24783" lon="-1.46904"><ele>110.16</ele></trkpt><trkpt lat="48.24786" lon="-1.46893"><ele>109.78</ele></trkpt><trkpt lat="48.24791" lon="-1.4688"><ele>109.34</ele></trkpt><trkpt lat="48.24794" lon="-1.4687"><ele>109.16</ele></trkpt><trkpt lat="48.24797" lon="-1.46861"><ele>109.02</ele></trkpt><trkpt lat="48.24798" lon="-1.46856"><ele>108.97</ele></trkpt><trkpt lat="48.24801" lon="-1.46847"><ele>108.86</ele></trkpt><trkpt lat="48.24804" lon="-1.46834"><ele>108.75</ele></trkpt><trkpt lat="48.24805" lon="-1.46827"><ele>108.56</ele></trkpt><trkpt lat="48.24806" lon="-1.4682"><ele>108.46</ele></trkpt><trkpt lat="48.24808" lon="-1.46813"><ele>108.36</ele></trkpt><trkpt lat="48.24809" lon="-1.46806"><ele>108.32</ele></trkpt><trkpt lat="48.24813" lon="-1.46793"><ele>108.09</ele></trkpt><trkpt lat="48.24814" lon="-1.46787"><ele>107.91</ele></trkpt><trkpt lat="48.24816" lon="-1.46781"><ele>107.83</ele></trkpt><trkpt lat="48.24819" lon="-1.46772"><ele>107.62</ele></trkpt><trkpt lat="48.24821" lon="-1.46767"><ele>107.6</ele></trkpt><trkpt lat="48.24823" lon="-1.46763"><ele>107.59</ele></trkpt><trkpt lat="48.24825" lon="-1.46759"><ele>107.6</ele></trkpt><trkpt lat="48.24835" lon="-1.46766"><ele>107.47</ele></trkpt><trkpt lat="48.24844" lon="-1.46772"><ele>107.47</ele></trkpt><trkpt lat="48.24863" lon="-1.46783"><ele>107.26</ele></trkpt><trkpt lat="48.24892" lon="-1.46799"><ele>106.75</ele></trkpt><trkpt lat="48.2491" lon="-1.46809"><ele>106.28</ele></trkpt><trkpt lat="48.24929" lon="-1.46819"><ele>105.67</ele></trkpt><trkpt lat="48.24965" lon="-1.46839"><ele>104.48</ele></trkpt><trkpt lat="48.24985" lon="-1.4685"><ele>103.84</ele></trkpt><trkpt lat="48.25016" lon="-1.46868"><ele>101.74</ele></trkpt><trkpt lat="48.25041" lon="-1.46882"><ele>100.02</ele></trkpt><trkpt lat="48.25059" lon="-1.46892"><ele>98.57</ele></trkpt><trkpt lat="48.25093" lon="-1.46911"><ele>96.33</ele></trkpt><trkpt lat="48.25107" lon="-1.4692"><ele>95.39</ele></trkpt><trkpt lat="48.2512" lon="-1.46927"><ele>94</ele></trkpt><trkpt lat="48.25128" lon="-1.46931"><ele>93.38</ele></trkpt><trkpt lat="48.25139" lon="-1.46936"><ele>92.92</ele></trkpt><trkpt lat="48.25151" lon="-1.46941"><ele>92.21</ele></trkpt><trkpt lat="48.25156" lon="-1.46943"><ele>91.85</ele></trkpt><trkpt lat="48.25164" lon="-1.46944"><ele>91.21</ele></trkpt><trkpt lat="48.25173" lon="-1.46945"><ele>90.56</ele></trkpt><trkpt lat="48.25178" lon="-1.46945"><ele>90.22</ele></trkpt><trkpt lat="48.25189" lon="-1.46945"><ele>89.06</ele></trkpt><trkpt lat="48.25194" lon="-1.46945"><ele>88.65</ele></trkpt><trkpt lat="48.25197" lon="-1.46944"><ele>88.19</ele></trkpt><trkpt lat="48.25203" lon="-1.46943"><ele>87.78</ele></trkpt><trkpt lat="48.25209" lon="-1.46941"><ele>87.1</ele></trkpt><trkpt lat="48.2522" lon="-1.46937"><ele>86.51</ele></trkpt><trkpt lat="48.25242" lon="-1.46929"><ele>84.59</ele></trkpt><trkpt lat="48.25266" lon="-1.46921"><ele>82.83</ele></trkpt><trkpt lat="48.25289" lon="-1.46912"><ele>81.32</ele></trkpt><trkpt lat="48.25309" lon="-1.46905"><ele>80.02</ele></trkpt><trkpt lat="48.25329" lon="-1.46898"><ele>78.81</ele></trkpt><trkpt lat="48.25345" lon="-1.46891"><ele>78.08</ele></trkpt><trkpt lat="48.25356" lon="-1.46886"><ele>77.28</ele></trkpt><trkpt lat="48.25366" lon="-1.4688"><ele>76.78</ele></trkpt><trkpt lat="48.25373" lon="-1.46875"><ele>76.27</ele></trkpt><trkpt lat="48.25375" lon="-1.46882"><ele>76.33</ele></trkpt><trkpt lat="48.25376" lon="-1.46889"><ele>76.08</ele></trkpt><trkpt lat="48.25377" lon="-1.46894"><ele>76.03</ele></trkpt><trkpt lat="48.25378" lon="-1.46897"><ele>75.98</ele></trkpt><trkpt lat="48.25378" lon="-1.46901"><ele>75.93</ele></trkpt><trkpt lat="48.25378" lon="-1.46912"><ele>75.86</ele></trkpt><trkpt lat="48.25379" lon="-1.46921"><ele>75.89</ele></trkpt><trkpt lat="48.25379" lon="-1.46928"><ele>75.92</ele></trkpt><trkpt lat="48.2538" lon="-1.46941"><ele>75.94</ele></trkpt><trkpt lat="48.25381" lon="-1.4695"><ele>76.03</ele></trkpt><trkpt lat="48.25382" lon="-1.46958"><ele>76.11</ele></trkpt><trkpt lat="48.25384" lon="-1.46967"><ele>76.21</ele></trkpt><trkpt lat="48.25386" lon="-1.46973"><ele>76.23</ele></trkpt><trkpt lat="48.25389" lon="-1.4698"><ele>76.25</ele></trkpt><trkpt lat="48.25392" lon="-1.46988"><ele>76.44</ele></trkpt><trkpt lat="48.25396" lon="-1.46996"><ele>76.56</ele></trkpt><trkpt lat="48.25398" lon="-1.46999"><ele>76.55</ele></trkpt><trkpt lat="48.25403" lon="-1.47007"><ele>76.6</ele></trkpt><trkpt lat="48.25408" lon="-1.47015"><ele>76.55</ele></trkpt><trkpt lat="48.25413" lon="-1.47023"><ele>76.49</ele></trkpt><trkpt lat="48.25421" lon="-1.47035"><ele>76.28</ele></trkpt><trkpt lat="48.25424" lon="-1.47041"><ele>76.19</ele></trkpt><trkpt lat="48.25431" lon="-1.47051"><ele>76.11</ele></trkpt><trkpt lat="48.25434" lon="-1.47056"><ele>76.01</ele></trkpt><trkpt lat="48.25437" lon="-1.47062"><ele>75.88</ele></trkpt><trkpt lat="48.25439" lon="-1.47069"><ele>75.95</ele></trkpt><trkpt lat="48.25443" lon="-1.47078"><ele>75.89</ele></trkpt><trkpt lat="48.25448" lon="-1.47092"><ele>75.86</ele></trkpt><trkpt lat="48.25452" lon="-1.47104"><ele>75.82</ele></trkpt><trkpt lat="48.25458" lon="-1.47123"><ele>75.87</ele></trkpt><trkpt lat="48.2546" lon="-1.47131"><ele>75.98</ele></trkpt><trkpt lat="48.25462" lon="-1.47134"><ele>75.88</ele></trkpt><trkpt lat="48.25465" lon="-1.47145"><ele>76.06</ele></trkpt><trkpt lat="48.25467" lon="-1.47152"><ele>76.01</ele></trkpt><trkpt lat="48.25469" lon="-1.47159"><ele>76.1</ele></trkpt><trkpt lat="48.25474" lon="-1.47172"><ele>76.19</ele></trkpt><trkpt lat="48.25478" lon="-1.47184"><ele>76.28</ele></trkpt><trkpt lat="48.25483" lon="-1.47203"><ele>76.35</ele></trkpt><trkpt lat="48.25487" lon="-1.47217"><ele>76.67</ele></trkpt><trkpt lat="48.2549" lon="-1.47227"><ele>76.65</ele></trkpt><trkpt lat="48.25492" lon="-1.47239"><ele>76.52</ele></trkpt><trkpt lat="48.25493" lon="-1.47248"><ele>76.55</ele></trkpt><trkpt lat="48.25494" lon="-1.47255"><ele>76.57</ele></trkpt><trkpt lat="48.255" lon="-1.47254"><ele>76.35</ele></trkpt><trkpt lat="48.25507" lon="-1.47253"><ele>75.79</ele></trkpt><trkpt lat="48.25514" lon="-1.4725"><ele>75.1</ele></trkpt><trkpt lat="48.25526" lon="-1.47245"><ele>73.84</ele></trkpt><trkpt lat="48.25541" lon="-1.47239"><ele>72.42</ele></trkpt><trkpt lat="48.25554" lon="-1.47233"><ele>71.15</ele></trkpt><trkpt lat="48.2556" lon="-1.47231"><ele>70.84</ele></trkpt><trkpt lat="48.25566" lon="-1.47228"><ele>70.35</ele></trkpt><trkpt lat="48.25571" lon="-1.47226"><ele>70.2</ele></trkpt><trkpt lat="48.25576" lon="-1.47225"><ele>70.42</ele></trkpt><trkpt lat="48.25579" lon="-1.47222"><ele>70.64</ele></trkpt><trkpt lat="48.25583" lon="-1.4722"><ele>71.2</ele></trkpt><trkpt lat="48.25587" lon="-1.47218"><ele>71.61</ele></trkpt><trkpt lat="48.25593" lon="-1.47216"><ele>72.38</ele></trkpt><trkpt lat="48.25598" lon="-1.47215"><ele>72.82</ele></trkpt><trkpt lat="48.25601" lon="-1.47215"><ele>73.3</ele></trkpt><trkpt lat="48.25606" lon="-1.47215"><ele>73.72</ele></trkpt><trkpt lat="48.2561" lon="-1.47217"><ele>73.88</ele></trkpt><trkpt lat="48.25612" lon="-1.47218"><ele>74.29</ele></trkpt><trkpt lat="48.25616" lon="-1.47221"><ele>74.71</ele></trkpt><trkpt lat="48.25621" lon="-1.47224"><ele>74.92</ele></trkpt><trkpt lat="48.25622" lon="-1.47226"><ele>74.76</ele></trkpt><trkpt lat="48.25624" lon="-1.47229"><ele>74.76</ele></trkpt><trkpt lat="48.25625" lon="-1.47233"><ele>75.06</ele></trkpt><trkpt lat="48.25626" lon="-1.47236"><ele>74.95</ele></trkpt><trkpt lat="48.25626" lon="-1.47248"><ele>74.75</ele></trkpt><trkpt lat="48.25627" lon="-1.47257"><ele>74.68</ele></trkpt><trkpt lat="48.25627" lon="-1.47267"><ele>74.69</ele></trkpt><trkpt lat="48.25627" lon="-1.47272"><ele>74.73</ele></trkpt><trkpt lat="48.25628" lon="-1.47274"><ele>74.81</ele></trkpt><trkpt lat="48.25629" lon="-1.47278"><ele>75.35</ele></trkpt><trkpt lat="48.2563" lon="-1.47282"><ele>75.34</ele></trkpt><trkpt lat="48.25629" lon="-1.47298"><ele>74.73</ele></trkpt><trkpt lat="48.2564" lon="-1.47343"><ele>73.35</ele></trkpt><trkpt lat="48.25647" lon="-1.47376"><ele>73.1</ele></trkpt><trkpt lat="48.25656" lon="-1.47421"><ele>72.58</ele></trkpt><trkpt lat="48.25662" lon="-1.47468"><ele>71.66</ele></trkpt><trkpt lat="48.25671" lon="-1.47497"><ele>71.88</ele></trkpt><trkpt lat="48.25684" lon="-1.47522"><ele>73</ele></trkpt><trkpt lat="48.25697" lon="-1.47537"><ele>74.74</ele></trkpt><trkpt lat="48.25719" lon="-1.47559"><ele>77.87</ele></trkpt><trkpt lat="48.25734" lon="-1.4758"><ele>78.65</ele></trkpt><trkpt lat="48.25757" lon="-1.47661"><ele>77.08</ele></trkpt><trkpt lat="48.25777" lon="-1.47748"><ele>75.06</ele></trkpt><trkpt lat="48.25782" lon="-1.47763"><ele>74.61</ele></trkpt><trkpt lat="48.25785" lon="-1.47765"><ele>74.84</ele></trkpt><trkpt lat="48.25791" lon="-1.47765"><ele>74.91</ele></trkpt><trkpt lat="48.25813" lon="-1.47762"><ele>74.35</ele></trkpt><trkpt lat="48.25829" lon="-1.47758"><ele>73.48</ele></trkpt><trkpt lat="48.25839" lon="-1.47751"><ele>73.62</ele></trkpt><trkpt lat="48.25849" lon="-1.4774"><ele>73.75</ele></trkpt><trkpt lat="48.25862" lon="-1.47729"><ele>73.89</ele></trkpt><trkpt lat="48.25869" lon="-1.47725"><ele>74.1</ele></trkpt><trkpt lat="48.25876" lon="-1.47724"><ele>73.84</ele></trkpt><trkpt lat="48.25884" lon="-1.47725"><ele>73.8</ele></trkpt><trkpt lat="48.25897" lon="-1.47734"><ele>73.69</ele></trkpt><trkpt lat="48.25921" lon="-1.4775"><ele>75.41</ele></trkpt><trkpt lat="48.25934" lon="-1.47752"><ele>77.08</ele></trkpt><trkpt lat="48.25944" lon="-1.47753"><ele>78.84</ele></trkpt><trkpt lat="48.25951" lon="-1.47749"><ele>80.26</ele></trkpt><trkpt lat="48.25959" lon="-1.47741"><ele>80.13</ele></trkpt><trkpt lat="48.25982" lon="-1.47721"><ele>81.28</ele></trkpt><trkpt lat="48.26002" lon="-1.47711"><ele>82.98</ele></trkpt><trkpt lat="48.26029" lon="-1.4772"><ele>85.66</ele></trkpt><trkpt lat="48.26074" lon="-1.47727"><ele>88.65</ele></trkpt><trkpt lat="48.2609" lon="-1.47727"><ele>89.65</ele></trkpt><trkpt lat="48.26119" lon="-1.47706"><ele>91.41</ele></trkpt><trkpt lat="48.26158" lon="-1.47661"><ele>93.21</ele></trkpt><trkpt lat="48.26184" lon="-1.47636"><ele>94.55</ele></trkpt><trkpt lat="48.26205" lon="-1.47623"><ele>95.59</ele></trkpt><trkpt lat="48.2623" lon="-1.47608"><ele>96.27</ele></trkpt><trkpt lat="48.26266" lon="-1.47582"><ele>97.05</ele></trkpt><trkpt lat="48.26279" lon="-1.47572"><ele>97.26</ele></trkpt><trkpt lat="48.26293" lon="-1.47563"><ele>97.39</ele></trkpt><trkpt lat="48.26293" lon="-1.47561"><ele>97.39</ele></trkpt><trkpt lat="48.26292" lon="-1.47553"><ele>97.19</ele></trkpt><trkpt lat="48.26289" lon="-1.47529"><ele>96.71</ele></trkpt><trkpt lat="48.26285" lon="-1.47505"><ele>96.13</ele></trkpt><trkpt lat="48.26281" lon="-1.47476"><ele>95.28</ele></trkpt><trkpt lat="48.26277" lon="-1.47447"><ele>94.33</ele></trkpt><trkpt lat="48.26273" lon="-1.47418"><ele>93.24</ele></trkpt><trkpt lat="48.2627" lon="-1.47389"><ele>92.52</ele></trkpt><trkpt lat="48.26266" lon="-1.47362"><ele>91.91</ele></trkpt><trkpt lat="48.26262" lon="-1.47336"><ele>91.27</ele></trkpt><trkpt lat="48.26259" lon="-1.47315"><ele>90.68</ele></trkpt><trkpt lat="48.26257" lon="-1.47293"><ele>90.14</ele></trkpt><trkpt lat="48.26263" lon="-1.47283"><ele>90.24</ele></trkpt><trkpt lat="48.26265" lon="-1.47266"><ele>90.21</ele></trkpt><trkpt lat="48.26268" lon="-1.47239"><ele>89.72</ele></trkpt><trkpt lat="48.26263" lon="-1.47163"><ele>89.2</ele></trkpt><trkpt lat="48.26244" lon="-1.47047"><ele>89.72</ele></trkpt><trkpt lat="48.26243" lon="-1.47011"><ele>90.47</ele></trkpt><trkpt lat="48.26248" lon="-1.46974"><ele>90.71</ele></trkpt><trkpt lat="48.2625" lon="-1.46947"><ele>90.65</ele></trkpt><trkpt lat="48.26251" lon="-1.46927"><ele>90.69</ele></trkpt><trkpt lat="48.2625" lon="-1.46886"><ele>90.71</ele></trkpt><trkpt lat="48.26254" lon="-1.46836"><ele>89.89</ele></trkpt><trkpt lat="48.26245" lon="-1.46835"><ele>90.79</ele></trkpt><trkpt lat="48.26235" lon="-1.46834"><ele>91.21</ele></trkpt><trkpt lat="48.26223" lon="-1.46831"><ele>91.3</ele></trkpt><trkpt lat="48.26215" lon="-1.46826"><ele>91.21</ele></trkpt><trkpt lat="48.26215" lon="-1.46822"><ele>91.21</ele></trkpt><trkpt lat="48.26215" lon="-1.46816"><ele>91.11</ele></trkpt><trkpt lat="48.26213" lon="-1.46805"><ele>91.02</ele></trkpt><trkpt lat="48.26213" lon="-1.46801"><ele>90.99</ele></trkpt><trkpt lat="48.26209" lon="-1.4678"><ele>90.9</ele></trkpt><trkpt lat="48.26205" lon="-1.4676"><ele>91</ele></trkpt><trkpt lat="48.26202" lon="-1.46746"><ele>91</ele></trkpt><trkpt lat="48.26198" lon="-1.46731"><ele>90.85</ele></trkpt><trkpt lat="48.26194" lon="-1.46711"><ele>90.81</ele></trkpt><trkpt lat="48.26189" lon="-1.4669"><ele>90.9</ele></trkpt><trkpt lat="48.26184" lon="-1.46666"><ele>91.1</ele></trkpt><trkpt lat="48.26179" lon="-1.46644"><ele>91.09</ele></trkpt><trkpt lat="48.26175" lon="-1.46626"><ele>91.02</ele></trkpt><trkpt lat="48.2617" lon="-1.46599"><ele>91.03</ele></trkpt><trkpt lat="48.26166" lon="-1.46582"><ele>91.16</ele></trkpt><trkpt lat="48.26163" lon="-1.46565"><ele>91.28</ele></trkpt><trkpt lat="48.26161" lon="-1.46557"><ele>91.34</ele></trkpt><trkpt lat="48.26156" lon="-1.46538"><ele>91.87</ele></trkpt><trkpt lat="48.26153" lon="-1.46522"><ele>92.09</ele></trkpt><trkpt lat="48.26152" lon="-1.4652"><ele>92.29</ele></trkpt><trkpt lat="48.26151" lon="-1.46516"><ele>92.37</ele></trkpt><trkpt lat="48.2615" lon="-1.46511"><ele>92.46</ele></trkpt><trkpt lat="48.26147" lon="-1.46502"><ele>92.76</ele></trkpt><trkpt lat="48.26145" lon="-1.46496"><ele>92.85</ele></trkpt><trkpt lat="48.26142" lon="-1.4649"><ele>93.13</ele></trkpt><trkpt lat="48.26139" lon="-1.4648"><ele>93.45</ele></trkpt><trkpt lat="48.26135" lon="-1.4647"><ele>94.09</ele></trkpt><trkpt lat="48.26131" lon="-1.4646"><ele>94.34</ele></trkpt><trkpt lat="48.26127" lon="-1.4645"><ele>94.74</ele></trkpt><trkpt lat="48.26121" lon="-1.46432"><ele>95.61</ele></trkpt><trkpt lat="48.26116" lon="-1.46421"><ele>96.01</ele></trkpt><trkpt lat="48.26114" lon="-1.46415"><ele>96.04</ele></trkpt><trkpt lat="48.26111" lon="-1.46409"><ele>96.18</ele></trkpt><trkpt lat="48.26109" lon="-1.46403"><ele>96.24</ele></trkpt><trkpt lat="48.26107" lon="-1.46396"><ele>96.33</ele></trkpt><trkpt lat="48.26105" lon="-1.46388"><ele>96.22</ele></trkpt><trkpt lat="48.26103" lon="-1.4638"><ele>96.15</ele></trkpt><trkpt lat="48.26101" lon="-1.46373"><ele>96.03</ele></trkpt><trkpt lat="48.26099" lon="-1.46368"><ele>96.17</ele></trkpt><trkpt lat="48.26098" lon="-1.46363"><ele>96.14</ele></trkpt><trkpt lat="48.26097" lon="-1.46358"><ele>96.04</ele></trkpt><trkpt lat="48.26097" lon="-1.46354"><ele>96.01</ele></trkpt><trkpt lat="48.26095" lon="-1.46343"><ele>95.93</ele></trkpt><trkpt lat="48.26093" lon="-1.4633"><ele>95.88</ele></trkpt><trkpt lat="48.26093" lon="-1.46325"><ele>95.83</ele></trkpt><trkpt lat="48.26091" lon="-1.46307"><ele>95.71</ele></trkpt><trkpt lat="48.2609" lon="-1.46286"><ele>95.48</ele></trkpt><trkpt lat="48.26086" lon="-1.46288"><ele>95.5</ele></trkpt><trkpt lat="48.26083" lon="-1.46291"><ele>95.63</ele></trkpt><trkpt lat="48.26078" lon="-1.46294"><ele>95.77</ele></trkpt><trkpt lat="48.26073" lon="-1.46299"><ele>96.02</ele></trkpt><trkpt lat="48.2607" lon="-1.46302"><ele>96.14</ele></trkpt><trkpt lat="48.26063" lon="-1.46308"><ele>96.34</ele></trkpt><trkpt lat="48.26058" lon="-1.46314"><ele>96.44</ele></trkpt><trkpt lat="48.26053" lon="-1.46318"><ele>96.65</ele></trkpt><trkpt lat="48.26047" lon="-1.46324"><ele>96.82</ele></trkpt><trkpt lat="48.26044" lon="-1.46327"><ele>96.89</ele></trkpt><trkpt lat="48.26041" lon="-1.46329"><ele>96.9</ele></trkpt><trkpt lat="48.26038" lon="-1.4633"><ele>96.84</ele></trkpt><trkpt lat="48.26036" lon="-1.4633"><ele>96.7</ele></trkpt><trkpt lat="48.26033" lon="-1.4633"><ele>96.7</ele></trkpt><trkpt lat="48.26029" lon="-1.4633"><ele>96.54</ele></trkpt><trkpt lat="48.26027" lon="-1.46329"><ele>96.34</ele></trkpt><trkpt lat="48.26025" lon="-1.46328"><ele>96.27</ele></trkpt><trkpt lat="48.26021" lon="-1.46324"><ele>95.97</ele></trkpt><trkpt lat="48.26018" lon="-1.46321"><ele>95.78</ele></trkpt><trkpt lat="48.26014" lon="-1.46316"><ele>95.5</ele></trkpt><trkpt lat="48.26011" lon="-1.46312"><ele>95.43</ele></trkpt><trkpt lat="48.26006" lon="-1.46306"><ele>94.89</ele></trkpt><trkpt lat="48.26001" lon="-1.46299"><ele>94.62</ele></trkpt><trkpt lat="48.25996" lon="-1.46293"><ele>94.27</ele></trkpt><trkpt lat="48.25992" lon="-1.46289"><ele>94</ele></trkpt><trkpt lat="48.25988" lon="-1.46285"><ele>93.71</ele></trkpt><trkpt lat="48.25985" lon="-1.46281"><ele>93.61</ele></trkpt><trkpt lat="48.25982" lon="-1.46277"><ele>93.41</ele></trkpt><trkpt lat="48.2598" lon="-1.46275"><ele>93.14</ele></trkpt><trkpt lat="48.25976" lon="-1.46272"><ele>92.91</ele></trkpt><trkpt lat="48.25973" lon="-1.4627"><ele>92.91</ele></trkpt><trkpt lat="48.25969" lon="-1.46266"><ele>92.72</ele></trkpt><trkpt lat="48.25964" lon="-1.46263"><ele>92.58</ele></trkpt><trkpt lat="48.25957" lon="-1.46258"><ele>92.27</ele></trkpt><trkpt lat="48.25951" lon="-1.46254"><ele>91.94</ele></trkpt><trkpt lat="48.25946" lon="-1.46251"><ele>91.31</ele></trkpt><trkpt lat="48.2594" lon="-1.46247"><ele>91.05</ele></trkpt><trkpt lat="48.25935" lon="-1.46243"><ele>90.7</ele></trkpt><trkpt lat="48.25931" lon="-1.4624"><ele>90.35</ele></trkpt><trkpt lat="48.25927" lon="-1.46237"><ele>90.01</ele></trkpt><trkpt lat="48.25923" lon="-1.46234"><ele>89.7</ele></trkpt><trkpt lat="48.2592" lon="-1.46232"><ele>89.46</ele></trkpt><trkpt lat="48.25916" lon="-1.46231"><ele>89.24</ele></trkpt><trkpt lat="48.25912" lon="-1.46229"><ele>89.19</ele></trkpt><trkpt lat="48.25907" lon="-1.46228"><ele>88.7</ele></trkpt><trkpt lat="48.25902" lon="-1.46227"><ele>88.45</ele></trkpt><trkpt lat="48.25894" lon="-1.46226"><ele>88.09</ele></trkpt><trkpt lat="48.25898" lon="-1.46217"><ele>88.2</ele></trkpt><trkpt lat="48.259" lon="-1.46211"><ele>88.4</ele></trkpt><trkpt lat="48.25903" lon="-1.46203"><ele>88.43</ele></trkpt><trkpt lat="48.25907" lon="-1.46192"><ele>88.65</ele></trkpt><trkpt lat="48.2591" lon="-1.46182"><ele>88.78</ele></trkpt><trkpt lat="48.25912" lon="-1.46174"><ele>88.87</ele></trkpt><trkpt lat="48.25915" lon="-1.46167"><ele>88.71</ele></trkpt><trkpt lat="48.25919" lon="-1.46159"><ele>88.65</ele></trkpt><trkpt lat="48.25922" lon="-1.46151"><ele>88.65</ele></trkpt><trkpt lat="48.25925" lon="-1.46143"><ele>88.61</ele></trkpt><trkpt lat="48.25927" lon="-1.46137"><ele>88.55</ele></trkpt><trkpt lat="48.2593" lon="-1.4613"><ele>88.56</ele></trkpt><trkpt lat="48.25933" lon="-1.46124"><ele>88.51</ele></trkpt><trkpt lat="48.25937" lon="-1.46115"><ele>88.51</ele></trkpt><trkpt lat="48.25938" lon="-1.46112"><ele>88.57</ele></trkpt><trkpt lat="48.2594" lon="-1.46109"><ele>88.51</ele></trkpt><trkpt lat="48.25941" lon="-1.46105"><ele>88.46</ele></trkpt><trkpt lat="48.25944" lon="-1.46096"><ele>88.45</ele></trkpt><trkpt lat="48.25945" lon="-1.46091"><ele>88.39</ele></trkpt><trkpt lat="48.25946" lon="-1.46085"><ele>88.34</ele></trkpt><trkpt lat="48.25949" lon="-1.46066"><ele>88.11</ele></trkpt><trkpt lat="48.25951" lon="-1.46058"><ele>88.01</ele></trkpt><trkpt lat="48.25952" lon="-1.46053"><ele>87.92</ele></trkpt><trkpt lat="48.25954" lon="-1.46047"><ele>87.82</ele></trkpt><trkpt lat="48.25956" lon="-1.4604"><ele>87.74</ele></trkpt><trkpt lat="48.25957" lon="-1.46034"><ele>87.66</ele></trkpt><trkpt lat="48.25959" lon="-1.46025"><ele>87.52</ele></trkpt><trkpt lat="48.25961" lon="-1.46018"><ele>87.53</ele></trkpt><trkpt lat="48.25966" lon="-1.46"><ele>87.46</ele></trkpt><trkpt lat="48.25968" lon="-1.45993"><ele>87.5</ele></trkpt><trkpt lat="48.25971" lon="-1.45985"><ele>87.45</ele></trkpt><trkpt lat="48.25972" lon="-1.45979"><ele>87.44</ele></trkpt><trkpt lat="48.25973" lon="-1.45971"><ele>87.67</ele></trkpt><trkpt lat="48.25976" lon="-1.4596"><ele>87.62</ele></trkpt><trkpt lat="48.25977" lon="-1.45953"><ele>88.03</ele></trkpt><trkpt lat="48.25978" lon="-1.45946"><ele>88.02</ele></trkpt><trkpt lat="48.25979" lon="-1.45937"><ele>88.07</ele></trkpt><trkpt lat="48.2598" lon="-1.45927"><ele>88.11</ele></trkpt><trkpt lat="48.2598" lon="-1.45917"><ele>88.16</ele></trkpt><trkpt lat="48.25981" lon="-1.45906"><ele>88.55</ele></trkpt><trkpt lat="48.25981" lon="-1.45897"><ele>88.53</ele></trkpt><trkpt lat="48.25982" lon="-1.45888"><ele>88.54</ele></trkpt><trkpt lat="48.25983" lon="-1.45881"><ele>88.54</ele></trkpt><trkpt lat="48.25985" lon="-1.45875"><ele>88.98</ele></trkpt><trkpt lat="48.25986" lon="-1.45866"><ele>88.98</ele></trkpt><trkpt lat="48.25988" lon="-1.45859"><ele>88.99</ele></trkpt><trkpt lat="48.2599" lon="-1.45851"><ele>89.42</ele></trkpt><trkpt lat="48.25991" lon="-1.45845"><ele>89.39</ele></trkpt><trkpt lat="48.25992" lon="-1.45838"><ele>89.34</ele></trkpt><trkpt lat="48.25993" lon="-1.45831"><ele>89.33</ele></trkpt><trkpt lat="48.25994" lon="-1.45816"><ele>89.58</ele></trkpt><trkpt lat="48.26001" lon="-1.45786"><ele>89.75</ele></trkpt><trkpt lat="48.26015" lon="-1.45738"><ele>90.49</ele></trkpt><trkpt lat="48.26045" lon="-1.45635"><ele>91.68</ele></trkpt><trkpt lat="48.26055" lon="-1.45606"><ele>92.12</ele></trkpt><trkpt lat="48.26061" lon="-1.45587"><ele>92.21</ele></trkpt><trkpt lat="48.26063" lon="-1.45586"><ele>92.42</ele></trkpt><trkpt lat="48.26069" lon="-1.45586"><ele>92.6</ele></trkpt><trkpt lat="48.26076" lon="-1.45587"><ele>92.88</ele></trkpt><trkpt lat="48.26089" lon="-1.45586"><ele>93</ele></trkpt><trkpt lat="48.26088" lon="-1.45557"><ele>92.81</ele></trkpt><trkpt lat="48.26086" lon="-1.45515"><ele>92.4</ele></trkpt><trkpt lat="48.26083" lon="-1.45479"><ele>92.21</ele></trkpt><trkpt lat="48.26078" lon="-1.45365"><ele>93.66</ele></trkpt><trkpt lat="48.2607" lon="-1.45221"><ele>96.22</ele></trkpt><trkpt lat="48.26064" lon="-1.45092"><ele>98.09</ele></trkpt><trkpt lat="48.26062" lon="-1.45065"><ele>98.5</ele></trkpt><trkpt lat="48.26063" lon="-1.45057"><ele>98.59</ele></trkpt><trkpt lat="48.26064" lon="-1.45053"><ele>98.65</ele></trkpt><trkpt lat="48.26064" lon="-1.45049"><ele>98.71</ele></trkpt><trkpt lat="48.26065" lon="-1.45044"><ele>98.79</ele></trkpt><trkpt lat="48.26065" lon="-1.4504"><ele>98.91</ele></trkpt><trkpt lat="48.26065" lon="-1.45033"><ele>99.05</ele></trkpt><trkpt lat="48.26065" lon="-1.45025"><ele>99.31</ele></trkpt><trkpt lat="48.2606" lon="-1.4503"><ele>99.31</ele></trkpt><trkpt lat="48.26056" lon="-1.45014"><ele>99.14</ele></trkpt><trkpt lat="48.26051" lon="-1.44995"><ele>99.01</ele></trkpt><trkpt lat="48.26039" lon="-1.44949"><ele>99.2</ele></trkpt><trkpt lat="48.26033" lon="-1.44924"><ele>99.45</ele></trkpt><trkpt lat="48.26029" lon="-1.44909"><ele>99.66</ele></trkpt><trkpt lat="48.26025" lon="-1.44891"><ele>99.9</ele></trkpt><trkpt lat="48.26023" lon="-1.44879"><ele>99.9</ele></trkpt><trkpt lat="48.26019" lon="-1.44859"><ele>100.11</ele></trkpt><trkpt lat="48.26011" lon="-1.44808"><ele>100.55</ele></trkpt><trkpt lat="48.26009" lon="-1.448"><ele>100.71</ele></trkpt><trkpt lat="48.26005" lon="-1.44795"><ele>100.8</ele></trkpt><trkpt lat="48.26002" lon="-1.44791"><ele>100.9</ele></trkpt><trkpt lat="48.26" lon="-1.44789"><ele>100.9</ele></trkpt><trkpt lat="48.25998" lon="-1.44788"><ele>100.9</ele></trkpt><trkpt lat="48.25995" lon="-1.44787"><ele>100.97</ele></trkpt><trkpt lat="48.25992" lon="-1.44787"><ele>101</ele></trkpt><trkpt lat="48.25989" lon="-1.44787"><ele>101.01</ele></trkpt><trkpt lat="48.25985" lon="-1.44788"><ele>101</ele></trkpt><trkpt lat="48.25977" lon="-1.44792"><ele>101.09</ele></trkpt><trkpt lat="48.25949" lon="-1.44803"><ele>101.1</ele></trkpt><trkpt lat="48.25941" lon="-1.44806"><ele>101.12</ele></trkpt><trkpt lat="48.25936" lon="-1.44807"><ele>101.17</ele></trkpt><trkpt lat="48.25932" lon="-1.44808"><ele>101.2</ele></trkpt><trkpt lat="48.25929" lon="-1.44808"><ele>101.21</ele></trkpt><trkpt lat="48.25925" lon="-1.44807"><ele>101.21</ele></trkpt><trkpt lat="48.25922" lon="-1.44805"><ele>101.22</ele></trkpt><trkpt lat="48.2592" lon="-1.44803"><ele>101.28</ele></trkpt><trkpt lat="48.25917" lon="-1.44799"><ele>101.3</ele></trkpt><trkpt lat="48.25914" lon="-1.44796"><ele>101.3</ele></trkpt><trkpt lat="48.25913" lon="-1.44791"><ele>101.33</ele></trkpt><trkpt lat="48.25911" lon="-1.44786"><ele>101.29</ele></trkpt><trkpt lat="48.25897" lon="-1.44746"><ele>101.19</ele></trkpt><trkpt lat="48.25892" lon="-1.44735"><ele>101.2</ele></trkpt><trkpt lat="48.25889" lon="-1.44729"><ele>101.17</ele></trkpt><trkpt lat="48.25886" lon="-1.44725"><ele>101.11</ele></trkpt><trkpt lat="48.25886" lon="-1.447"><ele>101.17</ele></trkpt><trkpt lat="48.2588" lon="-1.44675"><ele>101.49</ele></trkpt><trkpt lat="48.25845" lon="-1.44541"><ele>102.12</ele></trkpt><trkpt lat="48.25836" lon="-1.44501"><ele>102.62</ele></trkpt><trkpt lat="48.25838" lon="-1.44501"><ele>102.62</ele></trkpt><trkpt lat="48.25836" lon="-1.44501"><ele>102.62</ele></trkpt><trkpt lat="48.25832" lon="-1.44501"><ele>102.54</ele></trkpt><trkpt lat="48.25827" lon="-1.44502"><ele>102.47</ele></trkpt><trkpt lat="48.25821" lon="-1.44502"><ele>102.34</ele></trkpt><trkpt lat="48.25816" lon="-1.44502"><ele>102.28</ele></trkpt><trkpt lat="48.25811" lon="-1.44502"><ele>102.21</ele></trkpt><trkpt lat="48.25806" lon="-1.44502"><ele>102.15</ele></trkpt><trkpt lat="48.258" lon="-1.44501"><ele>102.03</ele></trkpt><trkpt lat="48.25794" lon="-1.44501"><ele>101.99</ele></trkpt><trkpt lat="48.25789" lon="-1.445"><ele>101.94</ele></trkpt><trkpt lat="48.25784" lon="-1.44499"><ele>101.9</ele></trkpt><trkpt lat="48.25779" lon="-1.44499"><ele>101.85</ele></trkpt><trkpt lat="48.25774" lon="-1.445"><ele>101.67</ele></trkpt><trkpt lat="48.2577" lon="-1.44501"><ele>101.52</ele></trkpt><trkpt lat="48.25766" lon="-1.44503"><ele>101.37</ele></trkpt><trkpt lat="48.25763" lon="-1.44505"><ele>101.34</ele></trkpt><trkpt lat="48.2576" lon="-1.44507"><ele>101.17</ele></trkpt><trkpt lat="48.25754" lon="-1.44513"><ele>100.96</ele></trkpt><trkpt lat="48.25694" lon="-1.44562"><ele>97.45</ele></trkpt><trkpt lat="48.25688" lon="-1.44566"><ele>96.99</ele></trkpt><trkpt lat="48.25683" lon="-1.4457"><ele>96.76</ele></trkpt><trkpt lat="48.25677" lon="-1.44575"><ele>96.54</ele></trkpt><trkpt lat="48.25673" lon="-1.44579"><ele>96.34</ele></trkpt><trkpt lat="48.25668" lon="-1.44583"><ele>96.18</ele></trkpt><trkpt lat="48.25665" lon="-1.44587"><ele>96.05</ele></trkpt><trkpt lat="48.25662" lon="-1.44592"><ele>95.92</ele></trkpt><trkpt lat="48.2566" lon="-1.44597"><ele>95.9</ele></trkpt><trkpt lat="48.25658" lon="-1.446"><ele>95.72</ele></trkpt><trkpt lat="48.25657" lon="-1.44605"><ele>95.7</ele></trkpt><trkpt lat="48.25656" lon="-1.4461"><ele>95.69</ele></trkpt><trkpt lat="48.25656" lon="-1.44615"><ele>95.67</ele></trkpt><trkpt lat="48.25657" lon="-1.44619"><ele>95.64</ele></trkpt><trkpt lat="48.25646" lon="-1.44623"><ele>95.16</ele></trkpt><trkpt lat="48.25638" lon="-1.44626"><ele>94.64</ele></trkpt><trkpt lat="48.25631" lon="-1.44627"><ele>94.15</ele></trkpt><trkpt lat="48.25626" lon="-1.44629"><ele>93.89</ele></trkpt><trkpt lat="48.25623" lon="-1.44631"><ele>93.54</ele></trkpt><trkpt lat="48.25623" lon="-1.44626"><ele>93.66</ele></trkpt><trkpt lat="48.25625" lon="-1.44606"><ele>94.45</ele></trkpt><trkpt lat="48.25628" lon="-1.44578"><ele>94.95</ele></trkpt><trkpt lat="48.25628" lon="-1.44542"><ele>95.69</ele></trkpt><trkpt lat="48.25624" lon="-1.44477"><ele>97.11</ele></trkpt><trkpt lat="48.25619" lon="-1.44433"><ele>98.06</ele></trkpt><trkpt lat="48.25612" lon="-1.44382"><ele>99.21</ele></trkpt><trkpt lat="48.25609" lon="-1.44355"><ele>99.57</ele></trkpt><trkpt lat="48.2561" lon="-1.44308"><ele>99.83</ele></trkpt><trkpt lat="48.2561" lon="-1.44281"><ele>100.76</ele></trkpt><trkpt lat="48.2561" lon="-1.44264"><ele>101.09</ele></trkpt><trkpt lat="48.25614" lon="-1.44231"><ele>101.63</ele></trkpt><trkpt lat="48.25622" lon="-1.44213"><ele>102.46</ele></trkpt><trkpt lat="48.25618" lon="-1.44215"><ele>102.27</ele></trkpt><trkpt lat="48.25604" lon="-1.44221"><ele>101.64</ele></trkpt><trkpt lat="48.25594" lon="-1.44224"><ele>101.14</ele></trkpt><trkpt lat="48.25557" lon="-1.44237"><ele>99.72</ele></trkpt><trkpt lat="48.25548" lon="-1.44239"><ele>99.35</ele></trkpt><trkpt lat="48.2554" lon="-1.44242"><ele>99.02</ele></trkpt><trkpt lat="48.25532" lon="-1.44245"><ele>98.55</ele></trkpt><trkpt lat="48.25525" lon="-1.44248"><ele>98.05</ele></trkpt><trkpt lat="48.25518" lon="-1.4425"><ele>97.84</ele></trkpt><trkpt lat="48.2551" lon="-1.44254"><ele>97.31</ele></trkpt><trkpt lat="48.25503" lon="-1.44257"><ele>96.73</ele></trkpt><trkpt lat="48.25495" lon="-1.44261"><ele>96.09</ele></trkpt><trkpt lat="48.25485" lon="-1.44266"><ele>95.46</ele></trkpt><trkpt lat="48.25468" lon="-1.44276"><ele>93.96</ele></trkpt><trkpt lat="48.25387" lon="-1.44325"><ele>87.16</ele></trkpt><trkpt lat="48.25378" lon="-1.4433"><ele>86.73</ele></trkpt><trkpt lat="48.25373" lon="-1.44333"><ele>86.5</ele></trkpt><trkpt lat="48.2537" lon="-1.44335"><ele>86.31</ele></trkpt><trkpt lat="48.25366" lon="-1.44339"><ele>86.13</ele></trkpt><trkpt lat="48.25361" lon="-1.44342"><ele>86.01</ele></trkpt><trkpt lat="48.25357" lon="-1.44345"><ele>85.99</ele></trkpt><trkpt lat="48.25351" lon="-1.44351"><ele>85.9</ele></trkpt><trkpt lat="48.25347" lon="-1.44355"><ele>85.88</ele></trkpt><trkpt lat="48.25343" lon="-1.44359"><ele>85.95</ele></trkpt><trkpt lat="48.25339" lon="-1.44363"><ele>86.05</ele></trkpt><trkpt lat="48.25336" lon="-1.44368"><ele>86.1</ele></trkpt><trkpt lat="48.25332" lon="-1.44376"><ele>86.1</ele></trkpt><trkpt lat="48.25327" lon="-1.44386"><ele>86.16</ele></trkpt><trkpt lat="48.25322" lon="-1.44398"><ele>86.29</ele></trkpt><trkpt lat="48.25298" lon="-1.44456"><ele>86.86</ele></trkpt><trkpt lat="48.25293" lon="-1.44469"><ele>86.81</ele></trkpt><trkpt lat="48.25291" lon="-1.44474"><ele>86.74</ele></trkpt><trkpt lat="48.25289" lon="-1.4448"><ele>86.79</ele></trkpt><trkpt lat="48.25288" lon="-1.44486"><ele>86.72</ele></trkpt><trkpt lat="48.25286" lon="-1.44492"><ele>86.62</ele></trkpt><trkpt lat="48.25285" lon="-1.44498"><ele>86.77</ele></trkpt><trkpt lat="48.25284" lon="-1.44504"><ele>86.71</ele></trkpt><trkpt lat="48.25283" lon="-1.44511"><ele>86.65</ele></trkpt><trkpt lat="48.25282" lon="-1.44518"><ele>86.62</ele></trkpt><trkpt lat="48.25277" lon="-1.44559"><ele>86.26</ele></trkpt><trkpt lat="48.25276" lon="-1.44564"><ele>86.27</ele></trkpt><trkpt lat="48.25275" lon="-1.44567"><ele>86.2</ele></trkpt><trkpt lat="48.25273" lon="-1.44573"><ele>86.13</ele></trkpt><trkpt lat="48.2527" lon="-1.44577"><ele>86.22</ele></trkpt><trkpt lat="48.25267" lon="-1.44581"><ele>86.39</ele></trkpt><trkpt lat="48.25265" lon="-1.44583"><ele>86.38</ele></trkpt><trkpt lat="48.25262" lon="-1.44585"><ele>86.59</ele></trkpt><trkpt lat="48.25258" lon="-1.44587"><ele>86.81</ele></trkpt><trkpt lat="48.25255" lon="-1.44588"><ele>87.02</ele></trkpt><trkpt lat="48.25251" lon="-1.44588"><ele>87.23</ele></trkpt><trkpt lat="48.25118" lon="-1.44563"><ele>91.73</ele></trkpt><trkpt lat="48.25103" lon="-1.44561"><ele>91.97</ele></trkpt><trkpt lat="48.25096" lon="-1.4456"><ele>92.16</ele></trkpt><trkpt lat="48.2509" lon="-1.4456"><ele>92.22</ele></trkpt><trkpt lat="48.25084" lon="-1.44559"><ele>92.29</ele></trkpt><trkpt lat="48.25078" lon="-1.4456"><ele>92.41</ele></trkpt><trkpt lat="48.25071" lon="-1.44561"><ele>92.48</ele></trkpt><trkpt lat="48.25065" lon="-1.44562"><ele>92.61</ele></trkpt><trkpt lat="48.2506" lon="-1.44563"><ele>92.68</ele></trkpt><trkpt lat="48.25032" lon="-1.44569"><ele>93.42</ele></trkpt><trkpt lat="48.25027" lon="-1.4457"><ele>93.56</ele></trkpt><trkpt lat="48.25021" lon="-1.44571"><ele>93.7</ele></trkpt><trkpt lat="48.25017" lon="-1.4457"><ele>93.83</ele></trkpt><trkpt lat="48.25013" lon="-1.4457"><ele>93.95</ele></trkpt><trkpt lat="48.25008" lon="-1.44568"><ele>94.03</ele></trkpt><trkpt lat="48.25004" lon="-1.44567"><ele>94.1</ele></trkpt><trkpt lat="48.24999" lon="-1.44564"><ele>94.13</ele></trkpt><trkpt lat="48.24995" lon="-1.44561"><ele>94.22</ele></trkpt><trkpt lat="48.24992" lon="-1.44558"><ele>94.27</ele></trkpt><trkpt lat="48.24967" lon="-1.44532"><ele>94.9</ele></trkpt><trkpt lat="48.24958" lon="-1.44525"><ele>95.05</ele></trkpt><trkpt lat="48.24954" lon="-1.44521"><ele>95.18</ele></trkpt><trkpt lat="48.24949" lon="-1.44519"><ele>95.34</ele></trkpt><trkpt lat="48.24945" lon="-1.44517"><ele>95.54</ele></trkpt><trkpt lat="48.24939" lon="-1.44515"><ele>95.69</ele></trkpt><trkpt lat="48.24934" lon="-1.44514"><ele>95.83</ele></trkpt><trkpt lat="48.24928" lon="-1.44514"><ele>96.07</ele></trkpt><trkpt lat="48.24924" lon="-1.44513"><ele>96.16</ele></trkpt><trkpt lat="48.2492" lon="-1.44514"><ele>96.2</ele></trkpt><trkpt lat="48.24915" lon="-1.44514"><ele>96.25</ele></trkpt><trkpt lat="48.2491" lon="-1.44515"><ele>96.31</ele></trkpt><trkpt lat="48.24906" lon="-1.44516"><ele>96.39</ele></trkpt><trkpt lat="48.24879" lon="-1.44527"><ele>97.12</ele></trkpt><trkpt lat="48.24873" lon="-1.44529"><ele>97.4</ele></trkpt><trkpt lat="48.24867" lon="-1.4453"><ele>97.54</ele></trkpt><trkpt lat="48.24862" lon="-1.44531"><ele>97.63</ele></trkpt><trkpt lat="48.24856" lon="-1.44531"><ele>97.78</ele></trkpt><trkpt lat="48.24854" lon="-1.44531"><ele>97.78</ele></trkpt><trkpt lat="48.24853" lon="-1.44544"><ele>97.66</ele></trkpt><trkpt lat="48.24852" lon="-1.4455"><ele>97.59</ele></trkpt><trkpt lat="48.24852" lon="-1.44552"><ele>97.51</ele></trkpt><trkpt lat="48.24852" lon="-1.44555"><ele>97.51</ele></trkpt><trkpt lat="48.24853" lon="-1.4456"><ele>97.43</ele></trkpt><trkpt lat="48.24853" lon="-1.44564"><ele>97.39</ele></trkpt><trkpt lat="48.24854" lon="-1.44566"><ele>97.34</ele></trkpt><trkpt lat="48.24855" lon="-1.44568"><ele>97.34</ele></trkpt><trkpt lat="48.24857" lon="-1.44572"><ele>97.29</ele></trkpt><trkpt lat="48.24859" lon="-1.44576"><ele>97.27</ele></trkpt><trkpt lat="48.24872" lon="-1.44596"><ele>97.07</ele></trkpt><trkpt lat="48.24873" lon="-1.44598"><ele>97.07</ele></trkpt><trkpt lat="48.24879" lon="-1.44606"><ele>96.87</ele></trkpt><trkpt lat="48.24883" lon="-1.44612"><ele>96.69</ele></trkpt><trkpt lat="48.24887" lon="-1.44618"><ele>96.55</ele></trkpt><trkpt lat="48.2489" lon="-1.44624"><ele>96.5</ele></trkpt><trkpt lat="48.24894" lon="-1.4463"><ele>96.33</ele></trkpt><trkpt lat="48.24897" lon="-1.44635"><ele>96.22</ele></trkpt><trkpt lat="48.24897" lon="-1.44637"><ele>96.22</ele></trkpt><trkpt lat="48.24901" lon="-1.44642"><ele>96.14</ele></trkpt><trkpt lat="48.24905" lon="-1.44648"><ele>96.08</ele></trkpt><trkpt lat="48.24909" lon="-1.44653"><ele>95.98</ele></trkpt><trkpt lat="48.24912" lon="-1.44657"><ele>95.96</ele></trkpt><trkpt lat="48.24918" lon="-1.44662"><ele>95.9</ele></trkpt><trkpt lat="48.24923" lon="-1.44666"><ele>95.9</ele></trkpt><trkpt lat="48.24929" lon="-1.44671"><ele>95.91</ele></trkpt><trkpt lat="48.24933" lon="-1.44673"><ele>95.99</ele></trkpt><trkpt lat="48.24935" lon="-1.44674"><ele>96</ele></trkpt><trkpt lat="48.24937" lon="-1.44677"><ele>96</ele></trkpt><trkpt lat="48.24939" lon="-1.44681"><ele>96</ele></trkpt><trkpt lat="48.2494" lon="-1.44685"><ele>96.05</ele></trkpt><trkpt lat="48.2494" lon="-1.44692"><ele>96.1</ele></trkpt><trkpt lat="48.2494" lon="-1.44697"><ele>96.14</ele></trkpt><trkpt lat="48.2494" lon="-1.44703"><ele>96.23</ele></trkpt><trkpt lat="48.2494" lon="-1.44709"><ele>96.29</ele></trkpt><trkpt lat="48.24939" lon="-1.44714"><ele>96.3</ele></trkpt><trkpt lat="48.24937" lon="-1.44722"><ele>96.4</ele></trkpt><trkpt lat="48.24936" lon="-1.44729"><ele>96.45</ele></trkpt><trkpt lat="48.24926" lon="-1.44769"><ele>96.7</ele></trkpt><trkpt lat="48.2492" lon="-1.44793"><ele>96.7</ele></trkpt><trkpt lat="48.24915" lon="-1.44817"><ele>96.7</ele></trkpt><trkpt lat="48.24913" lon="-1.44824"><ele>96.7</ele></trkpt><trkpt lat="48.24913" lon="-1.4483"><ele>96.7</ele></trkpt><trkpt lat="48.24912" lon="-1.44836"><ele>96.6</ele></trkpt><trkpt lat="48.24913" lon="-1.44842"><ele>96.6</ele></trkpt><trkpt lat="48.24913" lon="-1.44849"><ele>96.51</ele></trkpt><trkpt lat="48.24914" lon="-1.44858"><ele>96.43</ele></trkpt><trkpt lat="48.24919" lon="-1.44891"><ele>96.4</ele></trkpt><trkpt lat="48.24921" lon="-1.449"><ele>96.4</ele></trkpt><trkpt lat="48.24922" lon="-1.44909"><ele>96.4</ele></trkpt><trkpt lat="48.24923" lon="-1.44916"><ele>96.4</ele></trkpt><trkpt lat="48.24924" lon="-1.44925"><ele>96.4</ele></trkpt><trkpt lat="48.24924" lon="-1.44933"><ele>96.4</ele></trkpt><trkpt lat="48.24927" lon="-1.4498"><ele>96.49</ele></trkpt><trkpt lat="48.24927" lon="-1.4499"><ele>96.47</ele></trkpt><trkpt lat="48.24927" lon="-1.44997"><ele>96.47</ele></trkpt><trkpt lat="48.24929" lon="-1.45008"><ele>96.4</ele></trkpt><trkpt lat="48.2493" lon="-1.45013"><ele>96.4</ele></trkpt><trkpt lat="48.24945" lon="-1.45057"><ele>96.1</ele></trkpt><trkpt lat="48.24949" lon="-1.45067"><ele>96</ele></trkpt><trkpt lat="48.2495" lon="-1.45072"><ele>96</ele></trkpt><trkpt lat="48.24951" lon="-1.45078"><ele>96</ele></trkpt><trkpt lat="48.24951" lon="-1.45084"><ele>96</ele></trkpt><trkpt lat="48.24952" lon="-1.45095"><ele>96</ele></trkpt><trkpt lat="48.24952" lon="-1.45104"><ele>96</ele></trkpt><trkpt lat="48.24952" lon="-1.45141"><ele>95.92</ele></trkpt><trkpt lat="48.24952" lon="-1.45159"><ele>95.58</ele></trkpt><trkpt lat="48.24952" lon="-1.45175"><ele>95.07</ele></trkpt><trkpt lat="48.24952" lon="-1.45191"><ele>94.69</ele></trkpt><trkpt lat="48.24951" lon="-1.452"><ele>94.31</ele></trkpt><trkpt lat="48.24951" lon="-1.45208"><ele>94.18</ele></trkpt><trkpt lat="48.24951" lon="-1.45213"><ele>93.87</ele></trkpt><trkpt lat="48.2495" lon="-1.45218"><ele>93.7</ele></trkpt><trkpt lat="48.2495" lon="-1.45224"><ele>93.51</ele></trkpt><trkpt lat="48.24949" lon="-1.4523"><ele>93.1</ele></trkpt><trkpt lat="48.24948" lon="-1.45237"><ele>92.9</ele></trkpt><trkpt lat="48.24948" lon="-1.45243"><ele>92.5</ele></trkpt><trkpt lat="48.24947" lon="-1.45249"><ele>92.31</ele></trkpt><trkpt lat="48.24946" lon="-1.45256"><ele>92.04</ele></trkpt><trkpt lat="48.24945" lon="-1.45262"><ele>91.83</ele></trkpt><trkpt lat="48.24943" lon="-1.45274"><ele>91.22</ele></trkpt><trkpt lat="48.24934" lon="-1.45298"><ele>89.98</ele></trkpt><trkpt lat="48.24924" lon="-1.45319"><ele>88.24</ele></trkpt><trkpt lat="48.24911" lon="-1.45343"><ele>86.06</ele></trkpt><trkpt lat="48.24906" lon="-1.45368"><ele>84.41</ele></trkpt><trkpt lat="48.24914" lon="-1.45382"><ele>84.08</ele></trkpt><trkpt lat="48.24932" lon="-1.45417"><ele>84.79</ele></trkpt><trkpt lat="48.24948" lon="-1.45439"><ele>85.58</ele></trkpt><trkpt lat="48.24963" lon="-1.45473"><ele>86.44</ele></trkpt><trkpt lat="48.24976" lon="-1.45516"><ele>87.67</ele></trkpt><trkpt lat="48.24982" lon="-1.45556"><ele>88.42</ele></trkpt><trkpt lat="48.24979" lon="-1.45598"><ele>89.27</ele></trkpt><trkpt lat="48.24975" lon="-1.45632"><ele>90.3</ele></trkpt><trkpt lat="48.2497" lon="-1.45673"><ele>91.57</ele></trkpt><trkpt lat="48.24962" lon="-1.45707"><ele>92.68</ele></trkpt><trkpt lat="48.24955" lon="-1.45731"><ele>93.18</ele></trkpt><trkpt lat="48.24937" lon="-1.45762"><ele>94.43</ele></trkpt><trkpt lat="48.24921" lon="-1.45788"><ele>95.75</ele></trkpt><trkpt lat="48.24907" lon="-1.45812"><ele>96.79</ele></trkpt><trkpt lat="48.24902" lon="-1.45808"><ele>96.7</ele></trkpt><trkpt lat="48.24897" lon="-1.45805"><ele>96.71</ele></trkpt><trkpt lat="48.24894" lon="-1.45804"><ele>96.59</ele></trkpt><trkpt lat="48.24892" lon="-1.45803"><ele>96.59</ele></trkpt><trkpt lat="48.24889" lon="-1.45803"><ele>96.6</ele></trkpt><trkpt lat="48.24886" lon="-1.45802"><ele>96.61</ele></trkpt><trkpt lat="48.24883" lon="-1.45802"><ele>96.61</ele></trkpt><trkpt lat="48.24876" lon="-1.45803"><ele>96.63</ele></trkpt><trkpt lat="48.24865" lon="-1.45806"><ele>96.57</ele></trkpt><trkpt lat="48.24823" lon="-1.45816"><ele>94.78</ele></trkpt><trkpt lat="48.2481" lon="-1.45819"><ele>94.27</ele></trkpt><trkpt lat="48.24806" lon="-1.45821"><ele>94.06</ele></trkpt><trkpt lat="48.24803" lon="-1.45822"><ele>93.88</ele></trkpt><trkpt lat="48.248" lon="-1.45825"><ele>93.85</ele></trkpt><trkpt lat="48.24797" lon="-1.45828"><ele>93.93</ele></trkpt><trkpt lat="48.24796" lon="-1.45831"><ele>93.79</ele></trkpt><trkpt lat="48.24795" lon="-1.45834"><ele>93.79</ele></trkpt><trkpt lat="48.24795" lon="-1.45838"><ele>93.83</ele></trkpt><trkpt lat="48.24796" lon="-1.45847"><ele>93.9</ele></trkpt><trkpt lat="48.24798" lon="-1.45864"><ele>94.26</ele></trkpt><trkpt lat="48.24791" lon="-1.45865"><ele>93.68</ele></trkpt><trkpt lat="48.24794" lon="-1.45916"><ele>93.9</ele></trkpt><trkpt lat="48.24794" lon="-1.45923"><ele>93.97</ele></trkpt><trkpt lat="48.24795" lon="-1.45944"><ele>94.33</ele></trkpt><trkpt lat="48.24778" lon="-1.45946"><ele>93.95</ele></trkpt><trkpt lat="48.24764" lon="-1.45949"><ele>93.66</ele></trkpt><trkpt lat="48.24765" lon="-1.45983"><ele>94.01</ele></trkpt><trkpt lat="48.24766" lon="-1.45996"><ele>94</ele></trkpt><trkpt lat="48.24762" lon="-1.45998"><ele>94</ele></trkpt><trkpt lat="48.24733" lon="-1.46014"><ele>93.71</ele></trkpt><trkpt lat="48.24725" lon="-1.46023"><ele>93.68</ele></trkpt><trkpt lat="48.24713" lon="-1.46027"><ele>93.53</ele></trkpt><trkpt lat="48.24683" lon="-1.46039"><ele>93.94</ele></trkpt><trkpt lat="48.24677" lon="-1.46041"><ele>94.1</ele></trkpt><trkpt lat="48.2467" lon="-1.4606"><ele>94.68</ele></trkpt><trkpt lat="48.24668" lon="-1.46065"><ele>94.81</ele></trkpt><trkpt lat="48.24667" lon="-1.46071"><ele>95.11</ele></trkpt><trkpt lat="48.24657" lon="-1.46075"><ele>95.18</ele></trkpt><trkpt lat="48.24654" lon="-1.46078"><ele>95.33</ele></trkpt><trkpt lat="48.2465" lon="-1.46079"><ele>95.34</ele></trkpt><trkpt lat="48.24591" lon="-1.46102"><ele>96.3</ele></trkpt><trkpt lat="48.2459" lon="-1.46096"><ele>96.31</ele></trkpt><trkpt lat="48.24584" lon="-1.46101"><ele>96.47</ele></trkpt><trkpt lat="48.24579" lon="-1.46105"><ele>96.69</ele></trkpt><trkpt lat="48.24574" lon="-1.46109"><ele>97.06</ele></trkpt><trkpt lat="48.24568" lon="-1.46113"><ele>97.75</ele></trkpt><trkpt lat="48.24562" lon="-1.46117"><ele>97.89</ele></trkpt><trkpt lat="48.24557" lon="-1.46121"><ele>97.97</ele></trkpt><trkpt lat="48.24552" lon="-1.46124"><ele>98</ele></trkpt><trkpt lat="48.24547" lon="-1.46127"><ele>98</ele></trkpt><trkpt lat="48.24546" lon="-1.46128"><ele>98</ele></trkpt><trkpt lat="48.24541" lon="-1.46132"><ele>98</ele></trkpt><trkpt lat="48.24536" lon="-1.46136"><ele>98</ele></trkpt><trkpt lat="48.2453" lon="-1.46139"><ele>97.97</ele></trkpt><trkpt lat="48.24525" lon="-1.46142"><ele>97.99</ele></trkpt><trkpt lat="48.24523" lon="-1.46144"><ele>97.99</ele></trkpt><trkpt lat="48.2452" lon="-1.46146"><ele>97.92</ele></trkpt><trkpt lat="48.24518" lon="-1.46147"><ele>97.92</ele></trkpt><trkpt lat="48.24516" lon="-1.46149"><ele>97.85</ele></trkpt><trkpt lat="48.24505" lon="-1.46113"><ele>96.11</ele></trkpt><trkpt lat="48.24511" lon="-1.46111"><ele>96.23</ele></trkpt><trkpt lat="48.24506" lon="-1.46096"><ele>95.9</ele></trkpt><trkpt lat="48.24499" lon="-1.46099"><ele>95.81</ele></trkpt><trkpt lat="48.24491" lon="-1.46101"><ele>95.67</ele></trkpt><trkpt lat="48.24481" lon="-1.46102"><ele>95.53</ele></trkpt><trkpt lat="48.24476" lon="-1.46104"><ele>95.44</ele></trkpt><trkpt lat="48.24469" lon="-1.46104"><ele>95.25</ele></trkpt><trkpt lat="48.24464" lon="-1.46105"><ele>95.16</ele></trkpt><trkpt lat="48.24457" lon="-1.46105"><ele>94.94</ele></trkpt><trkpt lat="48.24452" lon="-1.46106"><ele>94.78</ele></trkpt><trkpt lat="48.24451" lon="-1.46106"><ele>94.78</ele></trkpt><trkpt lat="48.24451" lon="-1.46095"><ele>94.86</ele></trkpt><trkpt lat="48.2445" lon="-1.4609"><ele>94.97</ele></trkpt><trkpt lat="48.24449" lon="-1.46084"><ele>95.15</ele></trkpt><trkpt lat="48.2445" lon="-1.46077"><ele>95.61</ele></trkpt></trkseg></trk></gpx>
