<?xml version="1.0" encoding="UTF-8" standalone="no"?>
<gpx xmlns="http://www.topografix.com/GPX/1/1" version="1.1" xmlns:xsi="http://www.w3.org/2001/XMLSchema-instance" xsi:schemaLocation="http://www.topografix.com/GPX/1/1 http://www.topografix.com/GPX/1/1/gpx.xsd" creator="Cirkwi"><metadata><name><![CDATA[Chasné sur Illet -  La ronde des chênes]]></name><desc><![CDATA[Parking mairie, le circuit est un parcours très campagnard (petites routes, chemins carrossables, sentiers herbeux et un passage en orée de forêt). En situation de chasse, il y a une variante qui permet d'éviter le passage en forêt. Sur le trajet de nombreux chênes séculaires qui ont donné le nom de la commune.]]></desc><author><name><![CDATA[UTL Rennes]]></name></author><link href="http://fichier0.cirkwi.com/image/photo/circuit/1300x1300/616419/fr/0.jpg"><text><![CDATA[Fin d'Automne|UTL]]></text></link><time>2025-11-18T12:17:10Z</time></metadata><wpt lat="48.224" lon="-1.55785"><ele>74</ele><name><![CDATA[raccourci pour un circuit plus court environ 9 km 200]]></name><desc></desc></wpt><wpt lat="48.2376" lon="-1.57162"><ele>70</ele><name><![CDATA[raccourci pour un circuit plus court environ 9 km 200 prendre la D25 à droite]]></name><desc></desc></wpt><trk><trkseg><trkpt lat="48.23734" lon="-1.56517"><ele>60.89</ele></trkpt><trkpt lat="48.23739" lon="-1.56468"><ele>60.23</ele></trkpt><trkpt lat="48.23745" lon="-1.56469"><ele>60.18</ele></trkpt><trkpt lat="48.23811" lon="-1.56479"><ele>59.59</ele></trkpt><trkpt lat="48.23816" lon="-1.56472"><ele>59.46</ele></trkpt><trkpt lat="48.23822" lon="-1.56469"><ele>59.18</ele></trkpt><trkpt lat="48.23825" lon="-1.56418"><ele>59.58</ele></trkpt><trkpt lat="48.23834" lon="-1.56358"><ele>59.52</ele></trkpt><trkpt lat="48.23829" lon="-1.56253"><ele>57.71</ele></trkpt><trkpt lat="48.23837" lon="-1.56255"><ele>58.04</ele></trkpt><trkpt lat="48.23847" lon="-1.56257"><ele>58.29</ele></trkpt><trkpt lat="48.23874" lon="-1.56258"><ele>59.25</ele></trkpt><trkpt lat="48.23876" lon="-1.56258"><ele>59.25</ele></trkpt><trkpt lat="48.23893" lon="-1.56258"><ele>59.65</ele></trkpt><trkpt lat="48.23902" lon="-1.56257"><ele>59.71</ele></trkpt><trkpt lat="48.23948" lon="-1.56243"><ele>58.49</ele></trkpt><trkpt lat="48.23967" lon="-1.56237"><ele>58.04</ele></trkpt><trkpt lat="48.23964" lon="-1.56198"><ele>57.47</ele></trkpt><trkpt lat="48.23961" lon="-1.56143"><ele>56.12</ele></trkpt><trkpt lat="48.23957" lon="-1.561"><ele>54.88</ele></trkpt><trkpt lat="48.23954" lon="-1.56073"><ele>54.25</ele></trkpt><trkpt lat="48.23952" lon="-1.56063"><ele>53.91</ele></trkpt><trkpt lat="48.2395" lon="-1.56051"><ele>53.57</ele></trkpt><trkpt lat="48.23947" lon="-1.5603"><ele>53.13</ele></trkpt><trkpt lat="48.23946" lon="-1.56022"><ele>53.14</ele></trkpt><trkpt lat="48.23945" lon="-1.56012"><ele>52.98</ele></trkpt><trkpt lat="48.23944" lon="-1.56006"><ele>52.89</ele></trkpt><trkpt lat="48.23944" lon="-1.55997"><ele>52.63</ele></trkpt><trkpt lat="48.23943" lon="-1.55989"><ele>52.58</ele></trkpt><trkpt lat="48.23942" lon="-1.55977"><ele>52.51</ele></trkpt><trkpt lat="48.23942" lon="-1.55972"><ele>52.51</ele></trkpt><trkpt lat="48.23942" lon="-1.55969"><ele>52.48</ele></trkpt><trkpt lat="48.23944" lon="-1.55964"><ele>52.38</ele></trkpt><trkpt lat="48.23949" lon="-1.55955"><ele>52.42</ele></trkpt><trkpt lat="48.2395" lon="-1.55951"><ele>52.43</ele></trkpt><trkpt lat="48.2395" lon="-1.55927"><ele>54.05</ele></trkpt><trkpt lat="48.2395" lon="-1.55871"><ele>57.41</ele></trkpt><trkpt lat="48.2395" lon="-1.55833"><ele>59.22</ele></trkpt><trkpt lat="48.23948" lon="-1.55802"><ele>60.27</ele></trkpt><trkpt lat="48.23946" lon="-1.55774"><ele>60.69</ele></trkpt><trkpt lat="48.23943" lon="-1.55774"><ele>60.69</ele></trkpt><trkpt lat="48.23873" lon="-1.55768"><ele>60.98</ele></trkpt><trkpt lat="48.23864" lon="-1.55765"><ele>61.16</ele></trkpt><trkpt lat="48.23858" lon="-1.55758"><ele>61.26</ele></trkpt><trkpt lat="48.23844" lon="-1.55702"><ele>62.24</ele></trkpt><trkpt lat="48.2384" lon="-1.55677"><ele>62.82</ele></trkpt><trkpt lat="48.23836" lon="-1.5566"><ele>63.14</ele></trkpt><trkpt lat="48.2383" lon="-1.55648"><ele>63.34</ele></trkpt><trkpt lat="48.23821" lon="-1.55638"><ele>63.27</ele></trkpt><trkpt lat="48.23809" lon="-1.55632"><ele>63.04</ele></trkpt><trkpt lat="48.23799" lon="-1.55629"><ele>63.05</ele></trkpt><trkpt lat="48.23787" lon="-1.55628"><ele>62.96</ele></trkpt><trkpt lat="48.23776" lon="-1.55629"><ele>62.93</ele></trkpt><trkpt lat="48.2374" lon="-1.55645"><ele>62.88</ele></trkpt><trkpt lat="48.23732" lon="-1.55646"><ele>62.78</ele></trkpt><trkpt lat="48.23703" lon="-1.55647"><ele>63.07</ele></trkpt><trkpt lat="48.23689" lon="-1.55647"><ele>63.44</ele></trkpt><trkpt lat="48.23686" lon="-1.55646"><ele>63.64</ele></trkpt><trkpt lat="48.23682" lon="-1.55645"><ele>63.72</ele></trkpt><trkpt lat="48.23677" lon="-1.55642"><ele>63.89</ele></trkpt><trkpt lat="48.23676" lon="-1.55642"><ele>64.21</ele></trkpt><trkpt lat="48.23661" lon="-1.55632"><ele>63.71</ele></trkpt><trkpt lat="48.23645" lon="-1.55623"><ele>63.61</ele></trkpt><trkpt lat="48.23619" lon="-1.55608"><ele>63.13</ele></trkpt><trkpt lat="48.23593" lon="-1.55595"><ele>62.35</ele></trkpt><trkpt lat="48.23575" lon="-1.55588"><ele>61.79</ele></trkpt><trkpt lat="48.23562" lon="-1.55585"><ele>61.27</ele></trkpt><trkpt lat="48.23555" lon="-1.55583"><ele>60.86</ele></trkpt><trkpt lat="48.2355" lon="-1.55583"><ele>60.67</ele></trkpt><trkpt lat="48.23543" lon="-1.55586"><ele>60.21</ele></trkpt><trkpt lat="48.23539" lon="-1.5557"><ele>60.69</ele></trkpt><trkpt lat="48.23518" lon="-1.55565"><ele>60.79</ele></trkpt><trkpt lat="48.2349" lon="-1.55553"><ele>62.13</ele></trkpt><trkpt lat="48.23484" lon="-1.55549"><ele>62.33</ele></trkpt><trkpt lat="48.23462" lon="-1.55537"><ele>63.26</ele></trkpt><trkpt lat="48.23443" lon="-1.5553"><ele>63.09</ele></trkpt><trkpt lat="48.23429" lon="-1.55527"><ele>63.36</ele></trkpt><trkpt lat="48.23396" lon="-1.55514"><ele>63.21</ele></trkpt><trkpt lat="48.2339" lon="-1.55509"><ele>63.16</ele></trkpt><trkpt lat="48.23387" lon="-1.55503"><ele>63.58</ele></trkpt><trkpt lat="48.23383" lon="-1.55499"><ele>63.28</ele></trkpt><trkpt lat="48.2338" lon="-1.55496"><ele>63.28</ele></trkpt><trkpt lat="48.23374" lon="-1.55491"><ele>62.91</ele></trkpt><trkpt lat="48.23362" lon="-1.55483"><ele>62.79</ele></trkpt><trkpt lat="48.23347" lon="-1.55478"><ele>62.67</ele></trkpt><trkpt lat="48.23337" lon="-1.55475"><ele>62.17</ele></trkpt><trkpt lat="48.23328" lon="-1.55473"><ele>62.32</ele></trkpt><trkpt lat="48.23314" lon="-1.5547"><ele>62.11</ele></trkpt><trkpt lat="48.23297" lon="-1.55467"><ele>62.03</ele></trkpt><trkpt lat="48.23279" lon="-1.55466"><ele>62.22</ele></trkpt><trkpt lat="48.23266" lon="-1.55461"><ele>62.21</ele></trkpt><trkpt lat="48.23253" lon="-1.55455"><ele>62.39</ele></trkpt><trkpt lat="48.23223" lon="-1.55434"><ele>62.74</ele></trkpt><trkpt lat="48.2321" lon="-1.55424"><ele>62.66</ele></trkpt><trkpt lat="48.23185" lon="-1.5541"><ele>62.88</ele></trkpt><trkpt lat="48.23179" lon="-1.55408"><ele>63.04</ele></trkpt><trkpt lat="48.23176" lon="-1.55406"><ele>62.85</ele></trkpt><trkpt lat="48.2317" lon="-1.55407"><ele>62.81</ele></trkpt><trkpt lat="48.23165" lon="-1.55406"><ele>62.63</ele></trkpt><trkpt lat="48.23159" lon="-1.55403"><ele>62.68</ele></trkpt><trkpt lat="48.23132" lon="-1.55382"><ele>62.84</ele></trkpt><trkpt lat="48.23104" lon="-1.5536"><ele>63.31</ele></trkpt><trkpt lat="48.231" lon="-1.55357"><ele>63.63</ele></trkpt><trkpt lat="48.23095" lon="-1.55355"><ele>63.65</ele></trkpt><trkpt lat="48.23089" lon="-1.55355"><ele>63.65</ele></trkpt><trkpt lat="48.23082" lon="-1.55354"><ele>63.77</ele></trkpt><trkpt lat="48.23075" lon="-1.55354"><ele>64.02</ele></trkpt><trkpt lat="48.23067" lon="-1.55353"><ele>64.22</ele></trkpt><trkpt lat="48.23058" lon="-1.55352"><ele>64.43</ele></trkpt><trkpt lat="48.23048" lon="-1.55351"><ele>64.67</ele></trkpt><trkpt lat="48.2304" lon="-1.55349"><ele>65.17</ele></trkpt><trkpt lat="48.23032" lon="-1.55351"><ele>65.21</ele></trkpt><trkpt lat="48.23028" lon="-1.55354"><ele>65.33</ele></trkpt><trkpt lat="48.22998" lon="-1.55393"><ele>65.57</ele></trkpt><trkpt lat="48.22995" lon="-1.554"><ele>65.45</ele></trkpt><trkpt lat="48.22993" lon="-1.55408"><ele>65.8</ele></trkpt><trkpt lat="48.2299" lon="-1.55421"><ele>65.62</ele></trkpt><trkpt lat="48.22986" lon="-1.55441"><ele>65.74</ele></trkpt><trkpt lat="48.22983" lon="-1.55438"><ele>65.9</ele></trkpt><trkpt lat="48.22963" lon="-1.55435"><ele>66.84</ele></trkpt><trkpt lat="48.22943" lon="-1.55428"><ele>67.83</ele></trkpt><trkpt lat="48.22928" lon="-1.55419"><ele>68.19</ele></trkpt><trkpt lat="48.22895" lon="-1.55386"><ele>70.29</ele></trkpt><trkpt lat="48.22874" lon="-1.55356"><ele>71.75</ele></trkpt><trkpt lat="48.2287" lon="-1.55349"><ele>72.04</ele></trkpt><trkpt lat="48.22863" lon="-1.55332"><ele>72.38</ele></trkpt><trkpt lat="48.22841" lon="-1.55246"><ele>74.98</ele></trkpt><trkpt lat="48.22842" lon="-1.55229"><ele>75.13</ele></trkpt><trkpt lat="48.22841" lon="-1.55205"><ele>75.33</ele></trkpt><trkpt lat="48.22835" lon="-1.55183"><ele>75.49</ele></trkpt><trkpt lat="48.2283" lon="-1.55157"><ele>76.61</ele></trkpt><trkpt lat="48.22826" lon="-1.55112"><ele>77.65</ele></trkpt><trkpt lat="48.22824" lon="-1.55082"><ele>77.81</ele></trkpt><trkpt lat="48.22812" lon="-1.5503"><ele>78.96</ele></trkpt><trkpt lat="48.22798" lon="-1.54986"><ele>79.64</ele></trkpt><trkpt lat="48.22785" lon="-1.54931"><ele>80.42</ele></trkpt><trkpt lat="48.22784" lon="-1.54914"><ele>80.5</ele></trkpt><trkpt lat="48.22785" lon="-1.54931"><ele>80.42</ele></trkpt><trkpt lat="48.22781" lon="-1.54926"><ele>80.62</ele></trkpt><trkpt lat="48.22776" lon="-1.54918"><ele>80.84</ele></trkpt><trkpt lat="48.22753" lon="-1.54884"><ele>81.25</ele></trkpt><trkpt lat="48.22719" lon="-1.54873"><ele>81.18</ele></trkpt><trkpt lat="48.22625" lon="-1.54916"><ele>77.29</ele></trkpt><trkpt lat="48.22613" lon="-1.5498"><ele>77.01</ele></trkpt><trkpt lat="48.22604" lon="-1.55053"><ele>76.08</ele></trkpt><trkpt lat="48.22605" lon="-1.55053"><ele>76.08</ele></trkpt><trkpt lat="48.2257" lon="-1.551"><ele>76.01</ele></trkpt><trkpt lat="48.22562" lon="-1.55156"><ele>75.21</ele></trkpt><trkpt lat="48.22539" lon="-1.55199"><ele>75.11</ele></trkpt><trkpt lat="48.22493" lon="-1.55246"><ele>74.34</ele></trkpt><trkpt lat="48.2247" lon="-1.55298"><ele>73.09</ele></trkpt><trkpt lat="48.2247" lon="-1.55371"><ele>71.77</ele></trkpt><trkpt lat="48.2243" lon="-1.55405"><ele>71.71</ele></trkpt><trkpt lat="48.22404" lon="-1.55452"><ele>72.2</ele></trkpt><trkpt lat="48.22341" lon="-1.55498"><ele>73.5</ele></trkpt><trkpt lat="48.22341" lon="-1.55501"><ele>73.58</ele></trkpt><trkpt lat="48.2235" lon="-1.55594"><ele>73.24</ele></trkpt><trkpt lat="48.22362" lon="-1.55744"><ele>73.73</ele></trkpt><trkpt lat="48.22366" lon="-1.55779"><ele>73.74</ele></trkpt><trkpt lat="48.22366" lon="-1.55831"><ele>73.93</ele></trkpt><trkpt lat="48.22369" lon="-1.55875"><ele>73.89</ele></trkpt><trkpt lat="48.22373" lon="-1.55919"><ele>73.47</ele></trkpt><trkpt lat="48.2238" lon="-1.55955"><ele>73.24</ele></trkpt><trkpt lat="48.22383" lon="-1.55969"><ele>73.03</ele></trkpt><trkpt lat="48.22396" lon="-1.56023"><ele>73.43</ele></trkpt><trkpt lat="48.22384" lon="-1.56056"><ele>73.23</ele></trkpt><trkpt lat="48.22376" lon="-1.56086"><ele>73.1</ele></trkpt><trkpt lat="48.22363" lon="-1.56121"><ele>72.61</ele></trkpt><trkpt lat="48.22331" lon="-1.56202"><ele>70.75</ele></trkpt><trkpt lat="48.22322" lon="-1.56226"><ele>70.3</ele></trkpt><trkpt lat="48.22292" lon="-1.56307"><ele>69.14</ele></trkpt><trkpt lat="48.22214" lon="-1.56526"><ele>65.96</ele></trkpt><trkpt lat="48.22198" lon="-1.56582"><ele>64.37</ele></trkpt><trkpt lat="48.22197" lon="-1.56591"><ele>64.27</ele></trkpt><trkpt lat="48.2219" lon="-1.56642"><ele>63.83</ele></trkpt><trkpt lat="48.22201" lon="-1.56637"><ele>64.28</ele></trkpt><trkpt lat="48.22249" lon="-1.56632"><ele>65.94</ele></trkpt><trkpt lat="48.22318" lon="-1.5662"><ele>68.23</ele></trkpt><trkpt lat="48.22342" lon="-1.56616"><ele>69.2</ele></trkpt><trkpt lat="48.22358" lon="-1.56615"><ele>69.57</ele></trkpt><trkpt lat="48.22372" lon="-1.56613"><ele>69.71</ele></trkpt><trkpt lat="48.22455" lon="-1.56613"><ele>72.6</ele></trkpt><trkpt lat="48.22494" lon="-1.5661"><ele>73.02</ele></trkpt><trkpt lat="48.22553" lon="-1.56611"><ele>73.79</ele></trkpt><trkpt lat="48.22571" lon="-1.56613"><ele>74.14</ele></trkpt><trkpt lat="48.22596" lon="-1.56616"><ele>74.28</ele></trkpt><trkpt lat="48.22604" lon="-1.56613"><ele>74.27</ele></trkpt><trkpt lat="48.2262" lon="-1.56607"><ele>74.27</ele></trkpt><trkpt lat="48.22634" lon="-1.56593"><ele>74.01</ele></trkpt><trkpt lat="48.22681" lon="-1.56647"><ele>73.81</ele></trkpt><trkpt lat="48.22699" lon="-1.56668"><ele>73.65</ele></trkpt><trkpt lat="48.22714" lon="-1.5668"><ele>73.57</ele></trkpt><trkpt lat="48.22725" lon="-1.56662"><ele>73.08</ele></trkpt><trkpt lat="48.22772" lon="-1.56592"><ele>71.89</ele></trkpt><trkpt lat="48.22794" lon="-1.56553"><ele>71.2</ele></trkpt><trkpt lat="48.22799" lon="-1.56544"><ele>71</ele></trkpt><trkpt lat="48.22812" lon="-1.56528"><ele>70.85</ele></trkpt><trkpt lat="48.22818" lon="-1.56522"><ele>70.62</ele></trkpt><trkpt lat="48.22827" lon="-1.56516"><ele>70.52</ele></trkpt><trkpt lat="48.22837" lon="-1.56513"><ele>70.25</ele></trkpt><trkpt lat="48.22854" lon="-1.56511"><ele>69.97</ele></trkpt><trkpt lat="48.22887" lon="-1.56598"><ele>69.83</ele></trkpt><trkpt lat="48.2291" lon="-1.56659"><ele>69.47</ele></trkpt><trkpt lat="48.22933" lon="-1.56726"><ele>69.08</ele></trkpt><trkpt lat="48.22939" lon="-1.56745"><ele>68.94</ele></trkpt><trkpt lat="48.22968" lon="-1.56843"><ele>69.43</ele></trkpt><trkpt lat="48.22971" lon="-1.56856"><ele>69.49</ele></trkpt><trkpt lat="48.22984" lon="-1.56904"><ele>70.18</ele></trkpt><trkpt lat="48.23003" lon="-1.56969"><ele>71.22</ele></trkpt><trkpt lat="48.23006" lon="-1.56982"><ele>71.4</ele></trkpt><trkpt lat="48.23009" lon="-1.57001"><ele>71.54</ele></trkpt><trkpt lat="48.23014" lon="-1.5706"><ele>72.68</ele></trkpt><trkpt lat="48.23018" lon="-1.57095"><ele>73.26</ele></trkpt><trkpt lat="48.23022" lon="-1.57123"><ele>73.83</ele></trkpt><trkpt lat="48.2303" lon="-1.57171"><ele>74.57</ele></trkpt><trkpt lat="48.23033" lon="-1.57199"><ele>74.96</ele></trkpt><trkpt lat="48.23035" lon="-1.57212"><ele>75.09</ele></trkpt><trkpt lat="48.23039" lon="-1.57271"><ele>75.8</ele></trkpt><trkpt lat="48.23046" lon="-1.57311"><ele>76.26</ele></trkpt><trkpt lat="48.2306" lon="-1.57361"><ele>76.87</ele></trkpt><trkpt lat="48.231" lon="-1.57502"><ele>78.11</ele></trkpt><trkpt lat="48.23129" lon="-1.57611"><ele>78.47</ele></trkpt><trkpt lat="48.2314" lon="-1.5765"><ele>78.77</ele></trkpt><trkpt lat="48.23084" lon="-1.57699"><ele>77.89</ele></trkpt><trkpt lat="48.23042" lon="-1.57742"><ele>76.98</ele></trkpt><trkpt lat="48.23103" lon="-1.57816"><ele>78.43</ele></trkpt><trkpt lat="48.23174" lon="-1.57916"><ele>78.98</ele></trkpt><trkpt lat="48.2319" lon="-1.57945"><ele>78.54</ele></trkpt><trkpt lat="48.23197" lon="-1.57974"><ele>77.67</ele></trkpt><trkpt lat="48.23199" lon="-1.5798"><ele>77.65</ele></trkpt><trkpt lat="48.23225" lon="-1.58064"><ele>76.54</ele></trkpt><trkpt lat="48.23244" lon="-1.58123"><ele>75.76</ele></trkpt><trkpt lat="48.23264" lon="-1.58194"><ele>74.64</ele></trkpt><trkpt lat="48.23278" lon="-1.58252"><ele>74.15</ele></trkpt><trkpt lat="48.23291" lon="-1.58291"><ele>74.34</ele></trkpt><trkpt lat="48.23307" lon="-1.58324"><ele>74.61</ele></trkpt><trkpt lat="48.23314" lon="-1.58349"><ele>74.5</ele></trkpt><trkpt lat="48.23324" lon="-1.58396"><ele>74.28</ele></trkpt><trkpt lat="48.23332" lon="-1.58442"><ele>74.02</ele></trkpt><trkpt lat="48.23336" lon="-1.58454"><ele>74.01</ele></trkpt><trkpt lat="48.23339" lon="-1.58458"><ele>74.07</ele></trkpt><trkpt lat="48.23335" lon="-1.58468"><ele>73.89</ele></trkpt><trkpt lat="48.23341" lon="-1.58483"><ele>73.59</ele></trkpt><trkpt lat="48.23352" lon="-1.58502"><ele>73.23</ele></trkpt><trkpt lat="48.23357" lon="-1.5851"><ele>72.97</ele></trkpt><trkpt lat="48.23385" lon="-1.58538"><ele>72.13</ele></trkpt><trkpt lat="48.23394" lon="-1.58548"><ele>71.91</ele></trkpt><trkpt lat="48.23403" lon="-1.58557"><ele>71.7</ele></trkpt><trkpt lat="48.23419" lon="-1.58577"><ele>71.24</ele></trkpt><trkpt lat="48.23426" lon="-1.58595"><ele>70.78</ele></trkpt><trkpt lat="48.23429" lon="-1.58604"><ele>70.53</ele></trkpt><trkpt lat="48.23436" lon="-1.58632"><ele>69.77</ele></trkpt><trkpt lat="48.23472" lon="-1.5875"><ele>66.65</ele></trkpt><trkpt lat="48.23475" lon="-1.58757"><ele>66.37</ele></trkpt><trkpt lat="48.23476" lon="-1.58759"><ele>66.37</ele></trkpt><trkpt lat="48.23478" lon="-1.5876"><ele>66.37</ele></trkpt><trkpt lat="48.2348" lon="-1.58761"><ele>66.32</ele></trkpt><trkpt lat="48.23491" lon="-1.58763"><ele>66.17</ele></trkpt><trkpt lat="48.23496" lon="-1.58764"><ele>66.18</ele></trkpt><trkpt lat="48.23545" lon="-1.58873"><ele>62.6</ele></trkpt><trkpt lat="48.23549" lon="-1.58882"><ele>62.36</ele></trkpt><trkpt lat="48.23554" lon="-1.58892"><ele>62.07</ele></trkpt><trkpt lat="48.23568" lon="-1.58921"><ele>60.46</ele></trkpt><trkpt lat="48.2357" lon="-1.58914"><ele>60.75</ele></trkpt><trkpt lat="48.23576" lon="-1.58901"><ele>61.06</ele></trkpt><trkpt lat="48.23579" lon="-1.58895"><ele>61.34</ele></trkpt><trkpt lat="48.23585" lon="-1.58882"><ele>61.99</ele></trkpt><trkpt lat="48.23588" lon="-1.58877"><ele>62.03</ele></trkpt><trkpt lat="48.2359" lon="-1.58872"><ele>62.66</ele></trkpt><trkpt lat="48.23601" lon="-1.5886"><ele>62.3</ele></trkpt><trkpt lat="48.23634" lon="-1.5881"><ele>62.41</ele></trkpt><trkpt lat="48.23637" lon="-1.58792"><ele>62.57</ele></trkpt><trkpt lat="48.23633" lon="-1.58774"><ele>62.67</ele></trkpt><trkpt lat="48.23628" lon="-1.58758"><ele>62.95</ele></trkpt><trkpt lat="48.23625" lon="-1.58744"><ele>63.18</ele></trkpt><trkpt lat="48.23633" lon="-1.58737"><ele>63.36</ele></trkpt><trkpt lat="48.23701" lon="-1.58692"><ele>64.4</ele></trkpt><trkpt lat="48.23735" lon="-1.58673"><ele>64.51</ele></trkpt><trkpt lat="48.2376" lon="-1.58663"><ele>64.15</ele></trkpt><trkpt lat="48.23772" lon="-1.58653"><ele>64.23</ele></trkpt><trkpt lat="48.23759" lon="-1.58608"><ele>65</ele></trkpt><trkpt lat="48.23745" lon="-1.58546"><ele>67.54</ele></trkpt><trkpt lat="48.23743" lon="-1.5854"><ele>67.74</ele></trkpt><trkpt lat="48.23722" lon="-1.58484"><ele>69.66</ele></trkpt><trkpt lat="48.23684" lon="-1.58392"><ele>73.05</ele></trkpt><trkpt lat="48.23672" lon="-1.58369"><ele>73.79</ele></trkpt><trkpt lat="48.23659" lon="-1.58341"><ele>74.46</ele></trkpt><trkpt lat="48.23653" lon="-1.58331"><ele>74.89</ele></trkpt><trkpt lat="48.23649" lon="-1.58322"><ele>75.19</ele></trkpt><trkpt lat="48.23643" lon="-1.58311"><ele>75.45</ele></trkpt><trkpt lat="48.2361" lon="-1.58266"><ele>76.71</ele></trkpt><trkpt lat="48.23578" lon="-1.58227"><ele>77.96</ele></trkpt><trkpt lat="48.23559" lon="-1.58202"><ele>78.32</ele></trkpt><trkpt lat="48.23573" lon="-1.58124"><ele>79.09</ele></trkpt><trkpt lat="48.23576" lon="-1.58097"><ele>79.3</ele></trkpt><trkpt lat="48.23588" lon="-1.58009"><ele>79.99</ele></trkpt><trkpt lat="48.2359" lon="-1.57966"><ele>80.21</ele></trkpt><trkpt lat="48.23593" lon="-1.57898"><ele>80.43</ele></trkpt><trkpt lat="48.23595" lon="-1.57875"><ele>80.46</ele></trkpt><trkpt lat="48.23599" lon="-1.57826"><ele>80.67</ele></trkpt><trkpt lat="48.23597" lon="-1.57817"><ele>80.7</ele></trkpt><trkpt lat="48.23583" lon="-1.57801"><ele>80.71</ele></trkpt><trkpt lat="48.23589" lon="-1.57786"><ele>80.6</ele></trkpt><trkpt lat="48.23591" lon="-1.5778"><ele>80.59</ele></trkpt><trkpt lat="48.23601" lon="-1.57758"><ele>80.41</ele></trkpt><trkpt lat="48.23609" lon="-1.57731"><ele>80.28</ele></trkpt><trkpt lat="48.23614" lon="-1.57709"><ele>80.14</ele></trkpt><trkpt lat="48.23624" lon="-1.5764"><ele>79.73</ele></trkpt><trkpt lat="48.23603" lon="-1.57635"><ele>79.78</ele></trkpt><trkpt lat="48.23598" lon="-1.57634"><ele>79.78</ele></trkpt><trkpt lat="48.23567" lon="-1.57624"><ele>79.76</ele></trkpt><trkpt lat="48.23559" lon="-1.57621"><ele>79.67</ele></trkpt><trkpt lat="48.23554" lon="-1.57619"><ele>79.62</ele></trkpt><trkpt lat="48.2351" lon="-1.57604"><ele>79.55</ele></trkpt><trkpt lat="48.2348" lon="-1.57594"><ele>79.4</ele></trkpt><trkpt lat="48.23447" lon="-1.57586"><ele>79.34</ele></trkpt><trkpt lat="48.23438" lon="-1.57581"><ele>79.27</ele></trkpt><trkpt lat="48.23433" lon="-1.57533"><ele>78.24</ele></trkpt><trkpt lat="48.23423" lon="-1.57419"><ele>76.99</ele></trkpt><trkpt lat="48.2352" lon="-1.57351"><ele>74.98</ele></trkpt><trkpt lat="48.23525" lon="-1.57348"><ele>74.98</ele></trkpt><trkpt lat="48.23585" lon="-1.57309"><ele>73.68</ele></trkpt><trkpt lat="48.23597" lon="-1.573"><ele>73.41</ele></trkpt><trkpt lat="48.23611" lon="-1.57292"><ele>73.18</ele></trkpt><trkpt lat="48.23657" lon="-1.57263"><ele>72.45</ele></trkpt><trkpt lat="48.23678" lon="-1.57251"><ele>72.22</ele></trkpt><trkpt lat="48.237" lon="-1.57238"><ele>71.93</ele></trkpt><trkpt lat="48.23733" lon="-1.57223"><ele>71.56</ele></trkpt><trkpt lat="48.23754" lon="-1.572"><ele>71.15</ele></trkpt><trkpt lat="48.23766" lon="-1.57186"><ele>70.81</ele></trkpt><trkpt lat="48.23771" lon="-1.5718"><ele>70.95</ele></trkpt><trkpt lat="48.23774" lon="-1.57177"><ele>70.74</ele></trkpt><trkpt lat="48.23782" lon="-1.57184"><ele>71.11</ele></trkpt><trkpt lat="48.23793" lon="-1.57189"><ele>71.26</ele></trkpt><trkpt lat="48.23803" lon="-1.5719"><ele>71.37</ele></trkpt><trkpt lat="48.23832" lon="-1.57197"><ele>70.99</ele></trkpt><trkpt lat="48.23839" lon="-1.57205"><ele>70.88</ele></trkpt><trkpt lat="48.23852" lon="-1.5723"><ele>71.08</ele></trkpt><trkpt lat="48.2386" lon="-1.57245"><ele>70.96</ele></trkpt><trkpt lat="48.23868" lon="-1.57254"><ele>70.94</ele></trkpt><trkpt lat="48.23878" lon="-1.57253"><ele>70.73</ele></trkpt><trkpt lat="48.23907" lon="-1.57239"><ele>70.31</ele></trkpt><trkpt lat="48.23938" lon="-1.57229"><ele>69.88</ele></trkpt><trkpt lat="48.23947" lon="-1.57233"><ele>69.71</ele></trkpt><trkpt lat="48.23948" lon="-1.57233"><ele>69.71</ele></trkpt><trkpt lat="48.23957" lon="-1.5725"><ele>69.35</ele></trkpt><trkpt lat="48.23968" lon="-1.57285"><ele>69.14</ele></trkpt><trkpt lat="48.23972" lon="-1.57296"><ele>69.04</ele></trkpt><trkpt lat="48.23977" lon="-1.57316"><ele>68.74</ele></trkpt><trkpt lat="48.23986" lon="-1.5735"><ele>68.38</ele></trkpt><trkpt lat="48.23993" lon="-1.57367"><ele>68.7</ele></trkpt><trkpt lat="48.24003" lon="-1.57397"><ele>68.89</ele></trkpt><trkpt lat="48.2401" lon="-1.5742"><ele>69.3</ele></trkpt><trkpt lat="48.24015" lon="-1.57439"><ele>69.59</ele></trkpt><trkpt lat="48.24024" lon="-1.57473"><ele>69.93</ele></trkpt><trkpt lat="48.24142" lon="-1.57422"><ele>69.14</ele></trkpt><trkpt lat="48.2422" lon="-1.57396"><ele>66.59</ele></trkpt><trkpt lat="48.24248" lon="-1.57506"><ele>67.13</ele></trkpt><trkpt lat="48.24258" lon="-1.575"><ele>66.96</ele></trkpt><trkpt lat="48.24267" lon="-1.57498"><ele>66.59</ele></trkpt><trkpt lat="48.24274" lon="-1.57497"><ele>66.31</ele></trkpt><trkpt lat="48.2428" lon="-1.57495"><ele>65.79</ele></trkpt><trkpt lat="48.24284" lon="-1.57495"><ele>65.77</ele></trkpt><trkpt lat="48.24287" lon="-1.57499"><ele>65.7</ele></trkpt><trkpt lat="48.2429" lon="-1.57505"><ele>65.54</ele></trkpt><trkpt lat="48.24296" lon="-1.57523"><ele>65.55</ele></trkpt><trkpt lat="48.243" lon="-1.57532"><ele>65.45</ele></trkpt><trkpt lat="48.24304" lon="-1.5754"><ele>65.41</ele></trkpt><trkpt lat="48.24308" lon="-1.57552"><ele>65.17</ele></trkpt><trkpt lat="48.24309" lon="-1.57556"><ele>65.14</ele></trkpt><trkpt lat="48.24316" lon="-1.57554"><ele>64.73</ele></trkpt><trkpt lat="48.24321" lon="-1.57553"><ele>64.55</ele></trkpt><trkpt lat="48.2434" lon="-1.57543"><ele>63.83</ele></trkpt><trkpt lat="48.2436" lon="-1.57534"><ele>62.86</ele></trkpt><trkpt lat="48.24386" lon="-1.57524"><ele>61.8</ele></trkpt><trkpt lat="48.24405" lon="-1.57516"><ele>61.37</ele></trkpt><trkpt lat="48.24429" lon="-1.57508"><ele>60.98</ele></trkpt><trkpt lat="48.24442" lon="-1.57504"><ele>60.58</ele></trkpt><trkpt lat="48.24438" lon="-1.57488"><ele>60.25</ele></trkpt><trkpt lat="48.24428" lon="-1.57445"><ele>59.61</ele></trkpt><trkpt lat="48.24421" lon="-1.57407"><ele>59.64</ele></trkpt><trkpt lat="48.2442" lon="-1.57386"><ele>59.33</ele></trkpt><trkpt lat="48.24419" lon="-1.57356"><ele>59.01</ele></trkpt><trkpt lat="48.24419" lon="-1.57325"><ele>58.57</ele></trkpt><trkpt lat="48.24418" lon="-1.57284"><ele>58.28</ele></trkpt><trkpt lat="48.24419" lon="-1.57225"><ele>57.56</ele></trkpt><trkpt lat="48.24418" lon="-1.57166"><ele>58.34</ele></trkpt><trkpt lat="48.24416" lon="-1.57123"><ele>58.64</ele></trkpt><trkpt lat="48.24415" lon="-1.57098"><ele>58.6</ele></trkpt><trkpt lat="48.24409" lon="-1.57062"><ele>58.75</ele></trkpt><trkpt lat="48.24405" lon="-1.57039"><ele>58.8</ele></trkpt><trkpt lat="48.24405" lon="-1.57036"><ele>58.8</ele></trkpt><trkpt lat="48.244" lon="-1.57017"><ele>58.76</ele></trkpt><trkpt lat="48.24392" lon="-1.56998"><ele>58.72</ele></trkpt><trkpt lat="48.24382" lon="-1.56987"><ele>58.58</ele></trkpt><trkpt lat="48.24372" lon="-1.5698"><ele>58.49</ele></trkpt><trkpt lat="48.24364" lon="-1.56975"><ele>58.35</ele></trkpt><trkpt lat="48.24361" lon="-1.56967"><ele>58.25</ele></trkpt><trkpt lat="48.2436" lon="-1.56957"><ele>58.07</ele></trkpt><trkpt lat="48.24361" lon="-1.56967"><ele>58.25</ele></trkpt><trkpt lat="48.24364" lon="-1.56975"><ele>58.35</ele></trkpt><trkpt lat="48.24358" lon="-1.56981"><ele>58.21</ele></trkpt><trkpt lat="48.24331" lon="-1.56987"><ele>57.88</ele></trkpt><trkpt lat="48.24294" lon="-1.56994"><ele>57.02</ele></trkpt><trkpt lat="48.24276" lon="-1.56998"><ele>56.98</ele></trkpt><trkpt lat="48.24267" lon="-1.56997"><ele>56.48</ele></trkpt><trkpt lat="48.2426" lon="-1.56988"><ele>56.54</ele></trkpt><trkpt lat="48.24256" lon="-1.56975"><ele>56.43</ele></trkpt><trkpt lat="48.24249" lon="-1.56958"><ele>56.79</ele></trkpt><trkpt lat="48.24238" lon="-1.56943"><ele>56.94</ele></trkpt><trkpt lat="48.24222" lon="-1.56932"><ele>57.23</ele></trkpt><trkpt lat="48.24207" lon="-1.56927"><ele>57.61</ele></trkpt><trkpt lat="48.24188" lon="-1.56924"><ele>58.11</ele></trkpt><trkpt lat="48.24145" lon="-1.56927"><ele>58.82</ele></trkpt><trkpt lat="48.24111" lon="-1.56936"><ele>60.08</ele></trkpt><trkpt lat="48.24085" lon="-1.56944"><ele>60.92</ele></trkpt><trkpt lat="48.24055" lon="-1.56959"><ele>62.23</ele></trkpt><trkpt lat="48.24024" lon="-1.56973"><ele>63.68</ele></trkpt><trkpt lat="48.23993" lon="-1.56992"><ele>65.71</ele></trkpt><trkpt lat="48.23968" lon="-1.57014"><ele>65.46</ele></trkpt><trkpt lat="48.23923" lon="-1.57067"><ele>68.43</ele></trkpt><trkpt lat="48.23867" lon="-1.57132"><ele>70.48</ele></trkpt><trkpt lat="48.2386" lon="-1.57127"><ele>70.5</ele></trkpt><trkpt lat="48.23856" lon="-1.57119"><ele>70.44</ele></trkpt><trkpt lat="48.23857" lon="-1.57109"><ele>70.18</ele></trkpt><trkpt lat="48.23856" lon="-1.57095"><ele>69.86</ele></trkpt><trkpt lat="48.23855" lon="-1.57091"><ele>69.81</ele></trkpt><trkpt lat="48.2385" lon="-1.57088"><ele>69.81</ele></trkpt><trkpt lat="48.23831" lon="-1.5709"><ele>69.67</ele></trkpt><trkpt lat="48.23822" lon="-1.57098"><ele>69.79</ele></trkpt><trkpt lat="48.23814" lon="-1.57097"><ele>69.81</ele></trkpt><trkpt lat="48.23805" lon="-1.57092"><ele>69.65</ele></trkpt><trkpt lat="48.2374" lon="-1.5706"><ele>68.06</ele></trkpt><trkpt lat="48.23721" lon="-1.57047"><ele>67.97</ele></trkpt><trkpt lat="48.23717" lon="-1.57045"><ele>67.96</ele></trkpt><trkpt lat="48.2366" lon="-1.56998"><ele>69.2</ele></trkpt><trkpt lat="48.23614" lon="-1.56952"><ele>69.57</ele></trkpt><trkpt lat="48.23659" lon="-1.56823"><ele>67.08</ele></trkpt><trkpt lat="48.23683" lon="-1.56761"><ele>65.67</ele></trkpt><trkpt lat="48.23691" lon="-1.5674"><ele>65.32</ele></trkpt><trkpt lat="48.23705" lon="-1.56694"><ele>64.32</ele></trkpt><trkpt lat="48.23715" lon="-1.56643"><ele>63.01</ele></trkpt><trkpt lat="48.23686" lon="-1.56651"><ele>64.09</ele></trkpt><trkpt lat="48.23667" lon="-1.56653"><ele>64.79</ele></trkpt><trkpt lat="48.23686" lon="-1.56534"><ele>61.22</ele></trkpt><trkpt lat="48.23687" lon="-1.56527"><ele>61</ele></trkpt><trkpt lat="48.23687" lon="-1.56502"><ele>60.77</ele></trkpt><trkpt lat="48.23684" lon="-1.56491"><ele>60.87</ele></trkpt><trkpt lat="48.23682" lon="-1.56484"><ele>60.87</ele></trkpt><trkpt lat="48.23682" lon="-1.56476"><ele>60.86</ele></trkpt><trkpt lat="48.23684" lon="-1.5647"><ele>60.86</ele></trkpt><trkpt lat="48.23686" lon="-1.56465"><ele>60.8</ele></trkpt><trkpt lat="48.23689" lon="-1.56463"><ele>60.75</ele></trkpt><trkpt lat="48.23692" lon="-1.56461"><ele>60.75</ele></trkpt><trkpt lat="48.23696" lon="-1.56461"><ele>60.74</ele></trkpt><trkpt lat="48.23737" lon="-1.56467"><ele>60.23</ele></trkpt></trkseg></trk></gpx>
