<?xml version="1.0" encoding="UTF-8" standalone="no"?>
<gpx xmlns="http://www.topografix.com/GPX/1/1" version="1.1" xmlns:xsi="http://www.w3.org/2001/XMLSchema-instance" xsi:schemaLocation="http://www.topografix.com/GPX/1/1 http://www.topografix.com/GPX/1/1/gpx.xsd" creator="Cirkwi"><metadata><name><![CDATA[Les rotes du Hen Herveleu]]></name><desc><![CDATA[Située en pays Gallo, au fond de la vallée de l'Illet et entourée des forêts de Rennes et de Haute-Sève, notre commune présente une grande diversité de paysages à découvrir le temps de cette rando-nature.]]></desc><author><name><![CDATA[Les Rotes d'Ercé]]></name></author><time>2024-12-23T17:12:17Z</time></metadata><wpt lat="48.255545" lon="-1.518109"><ele>63</ele><name><![CDATA[point de départ]]></name><desc><![CDATA[Sur la place gravillonnée de la Nozanne, au panneau de randonnées, prendre le chemin du GR 39 qui longe les 2 lotissements de La Nozanne et Paul Sébillot, en direction du sud. Suivre les champs puis le chemin ombragé (parfois boueux dans sa partie basse), jalonné d'une flore sauvage très diversifiée jusqu'au hameau des Landelles. Traverser le hameau, tourner à gauche, faire une vingtaine de mètres et admirez, sur cette ligne de crête, un paysage vallonnéet un beau panorama sur la forêt de Rennes. Tournez à droite pour emprunter le chemin qui descend (GR39 / balisage jaune)]]></desc></wpt><wpt lat="48.2418849" lon="-1.5216172"><ele>78</ele><name><![CDATA[le ruisseau du Hen Herveleu]]></name><desc><![CDATA[Vous êtes arrivé en bas de la vallée.  Franchissez le ruisseau du Hen Herveleu, qui donne son nom au circuit et qui sert de limite entre les communes d'Ercé et de Liffré. Au hameau de la Lande Ragot, traverser la route et remontez le GR situé en face. Suivre le chemin caillouteux et à la saison, saluez les brebis et les agneaux sur votre passage !]]></desc></wpt><wpt lat="48.2339066" lon="-1.5102553"><ele>101</ele><name><![CDATA[Vers la RD92 (Canon)]]></name><desc><![CDATA[Suivre le chemin jusqu'à une petite route, en lisière de la forêt de Rennes. Virez à gauche en direction de la RD92 (et de l'usine Canon). longez la RD92 sur la gauche sur une cinquantaine de mètres, traversez et continuer le GR sur votre droite]]></desc></wpt><wpt lat="48.2345784" lon="-1.5042257"><ele>100</ele><name><![CDATA[Vers le Placis des Retais]]></name><desc><![CDATA[Continuez tout droit sur environ 500 m ; quittez le GR et à gauche, suivre le balisage jaune Hen Herveleu et descendre un beau chemin bordé d'arbres.  Traversez de nouveau le Hen Herveleu puis remontez le chemin creux (la rote !)  qui mène au hameau du Placis des Retais.]]></desc></wpt><wpt lat="48.2394805" lon="-1.5013289"><ele>102</ele><name><![CDATA[Les Bairues]]></name><desc><![CDATA[Prendre le chemin en face, et légèrement à droite. Vous arrivez aux Bairues. Contemplez le beau panorama sur la forêt de Haute Sève.  Traversez la route et prendre en face un étroit chemin jusqu'à une route près d'un transformateur.]]></desc></wpt><wpt lat="48.2447822" lon="-1.5006852"><ele>79</ele><name><![CDATA[Vers Chantepie et retour Ercé]]></name><desc><![CDATA[Au bout des champs, prendre à gauche jusqu'au village de Chantepie. A la route, tourner à droite. Continuez jusqu'à la RD26 et remontez vers le bourg.]]></desc></wpt><trk><trkseg><trkpt lat="48.25554" lon="-1.51809"><ele>63.36</ele></trkpt><trkpt lat="48.25338" lon="-1.5186"><ele>65</ele></trkpt><trkpt lat="48.25327" lon="-1.51877"><ele>65.04</ele></trkpt><trkpt lat="48.25328" lon="-1.52008"><ele>66.49</ele></trkpt><trkpt lat="48.25257" lon="-1.5204"><ele>68.12</ele></trkpt><trkpt lat="48.25228" lon="-1.52169"><ele>70.65</ele></trkpt><trkpt lat="48.25208" lon="-1.52189"><ele>71.55</ele></trkpt><trkpt lat="48.25051" lon="-1.52219"><ele>74.89</ele></trkpt><trkpt lat="48.24954" lon="-1.52219"><ele>76.63</ele></trkpt><trkpt lat="48.24845" lon="-1.52298"><ele>81.4</ele></trkpt><trkpt lat="48.24823" lon="-1.52334"><ele>83.38</ele></trkpt><trkpt lat="48.24795" lon="-1.52337"><ele>85.2</ele></trkpt><trkpt lat="48.24625" lon="-1.52364"><ele>96.11</ele></trkpt><trkpt lat="48.24527" lon="-1.52364"><ele>101.94</ele></trkpt><trkpt lat="48.24508" lon="-1.52302"><ele>102.4</ele></trkpt><trkpt lat="48.24503" lon="-1.52277"><ele>102.36</ele></trkpt><trkpt lat="48.24451" lon="-1.52236"><ele>101.89</ele></trkpt><trkpt lat="48.2445" lon="-1.52195"><ele>101.88</ele></trkpt><trkpt lat="48.24443" lon="-1.52184"><ele>101.63</ele></trkpt><trkpt lat="48.24268" lon="-1.52163"><ele>85.25</ele></trkpt><trkpt lat="48.24214" lon="-1.52161"><ele>79.09</ele></trkpt><trkpt lat="48.24188" lon="-1.52162"><ele>77.6</ele></trkpt><trkpt lat="48.24075" lon="-1.52161"><ele>90.1</ele></trkpt><trkpt lat="48.23984" lon="-1.52186"><ele>100.72</ele></trkpt><trkpt lat="48.23907" lon="-1.52169"><ele>106</ele></trkpt><trkpt lat="48.23855" lon="-1.52131"><ele>105.92</ele></trkpt><trkpt lat="48.23747" lon="-1.51987"><ele>105.53</ele></trkpt><trkpt lat="48.23645" lon="-1.51854"><ele>103.72</ele></trkpt><trkpt lat="48.23591" lon="-1.51785"><ele>102.87</ele></trkpt><trkpt lat="48.23506" lon="-1.51678"><ele>98.25</ele></trkpt><trkpt lat="48.23455" lon="-1.51613"><ele>95.19</ele></trkpt><trkpt lat="48.23391" lon="-1.51026"><ele>101.57</ele></trkpt><trkpt lat="48.23478" lon="-1.51077"><ele>100.55</ele></trkpt><trkpt lat="48.23458" lon="-1.50423"><ele>99.35</ele></trkpt><trkpt lat="48.23948" lon="-1.50133"><ele>103</ele></trkpt><trkpt lat="48.23929" lon="-1.50109"><ele>102.98</ele></trkpt><trkpt lat="48.24137" lon="-1.50049"><ele>94.98</ele></trkpt><trkpt lat="48.24478" lon="-1.50069"><ele>77.89</ele></trkpt><trkpt lat="48.24511" lon="-1.50141"><ele>78.28</ele></trkpt><trkpt lat="48.24678" lon="-1.50081"><ele>70.01</ele></trkpt><trkpt lat="48.24688" lon="-1.50161"><ele>72.71</ele></trkpt><trkpt lat="48.24957" lon="-1.50026"><ele>67.9</ele></trkpt><trkpt lat="48.24955" lon="-1.50084"><ele>69.38</ele></trkpt><trkpt lat="48.25008" lon="-1.50054"><ele>68.37</ele></trkpt><trkpt lat="48.24984" lon="-1.50238"><ele>70.35</ele></trkpt><trkpt lat="48.25214" lon="-1.50418"><ele>66.05</ele></trkpt><trkpt lat="48.25327" lon="-1.50566"><ele>59.78</ele></trkpt><trkpt lat="48.25344" lon="-1.50596"><ele>58.72</ele></trkpt><trkpt lat="48.25368" lon="-1.50888"><ele>59.76</ele></trkpt><trkpt lat="48.25454" lon="-1.51255"><ele>61.4</ele></trkpt><trkpt lat="48.25518" lon="-1.51461"><ele>57.97</ele></trkpt><trkpt lat="48.25587" lon="-1.51568"><ele>60.02</ele></trkpt><trkpt lat="48.25601" lon="-1.51678"><ele>61.74</ele></trkpt><trkpt lat="48.25598" lon="-1.51699"><ele>61.87</ele></trkpt><trkpt lat="48.25593" lon="-1.5174"><ele>62.43</ele></trkpt><trkpt lat="48.25566" lon="-1.51772"><ele>63.19</ele></trkpt><trkpt lat="48.25558" lon="-1.51811"><ele>63.3</ele></trkpt><trkpt lat="48.25556" lon="-1.5181"><ele>63.3</ele></trkpt><trkpt lat="48.25555" lon="-1.51811"><ele>63.36</ele></trkpt></trkseg></trk></gpx>
