<?xml version="1.0" encoding="UTF-8" standalone="no"?>
<gpx xmlns="http://www.topografix.com/GPX/1/1" version="1.1" xmlns:xsi="http://www.w3.org/2001/XMLSchema-instance" xsi:schemaLocation="http://www.topografix.com/GPX/1/1 http://www.topografix.com/GPX/1/1/gpx.xsd" creator="Cirkwi"><metadata><name><![CDATA[Les Verrières et l’Aqueduc à Liffré]]></name><desc><![CDATA[Long parcours exclusivement en forêt domaniale de Rennes qui regroupe 2 circuits. Balisage jaune avec borne N°8 pour le circuit de l'aqueduc et N°5 pour celui des Verrières (mais je n'ai jamais vu de borne pour celui-là!). Vers la fin du parcours on rejoint le GR 39.]]></desc><author><name><![CDATA[Renault]]></name></author><time>2025-05-25T00:39:15Z</time></metadata><trk><name><![CDATA[Les Verrières et l’Aqueduc à Liffré]]></name><trkseg><trkpt lat="48.22079" lon="-1.51575"><ele>99.3</ele></trkpt><trkpt lat="48.22044" lon="-1.51577"><ele>99.8</ele></trkpt><trkpt lat="48.22028" lon="-1.51578"><ele>99.92</ele></trkpt><trkpt lat="48.21973" lon="-1.5158"><ele>100.8</ele></trkpt><trkpt lat="48.21959" lon="-1.51593"><ele>100.64</ele></trkpt><trkpt lat="48.21938" lon="-1.51572"><ele>100.69</ele></trkpt><trkpt lat="48.21933" lon="-1.51581"><ele>100.7</ele></trkpt><trkpt lat="48.21941" lon="-1.51605"><ele>100.8</ele></trkpt><trkpt lat="48.21953" lon="-1.51641"><ele>100.53</ele></trkpt><trkpt lat="48.21965" lon="-1.51678"><ele>100.13</ele></trkpt><trkpt lat="48.21979" lon="-1.51709"><ele>100.66</ele></trkpt><trkpt lat="48.21988" lon="-1.51733"><ele>100.95</ele></trkpt><trkpt lat="48.2199" lon="-1.51738"><ele>101</ele></trkpt><trkpt lat="48.21993" lon="-1.51751"><ele>101</ele></trkpt><trkpt lat="48.21991" lon="-1.51763"><ele>101</ele></trkpt><trkpt lat="48.21991" lon="-1.518"><ele>100.57</ele></trkpt><trkpt lat="48.21995" lon="-1.51822"><ele>100.31</ele></trkpt><trkpt lat="48.22" lon="-1.51843"><ele>100</ele></trkpt><trkpt lat="48.22005" lon="-1.51874"><ele>99.01</ele></trkpt><trkpt lat="48.22002" lon="-1.51894"><ele>98.49</ele></trkpt><trkpt lat="48.21981" lon="-1.51925"><ele>96.88</ele></trkpt><trkpt lat="48.21949" lon="-1.51971"><ele>94.2</ele></trkpt><trkpt lat="48.21922" lon="-1.5202"><ele>91.83</ele></trkpt><trkpt lat="48.21914" lon="-1.52023"><ele>91.62</ele></trkpt><trkpt lat="48.21882" lon="-1.52067"><ele>91.1</ele></trkpt><trkpt lat="48.21833" lon="-1.52118"><ele>92.09</ele></trkpt><trkpt lat="48.21817" lon="-1.52138"><ele>93.07</ele></trkpt><trkpt lat="48.21811" lon="-1.52149"><ele>93.58</ele></trkpt><trkpt lat="48.21808" lon="-1.52156"><ele>93.89</ele></trkpt><trkpt lat="48.21806" lon="-1.52165"><ele>94.11</ele></trkpt><trkpt lat="48.21804" lon="-1.52174"><ele>94.32</ele></trkpt><trkpt lat="48.218" lon="-1.52179"><ele>94.5</ele></trkpt><trkpt lat="48.21769" lon="-1.52202"><ele>95.72</ele></trkpt><trkpt lat="48.21753" lon="-1.52216"><ele>96.13</ele></trkpt><trkpt lat="48.21721" lon="-1.52241"><ele>96.7</ele></trkpt><trkpt lat="48.217" lon="-1.52253"><ele>96.85</ele></trkpt><trkpt lat="48.21692" lon="-1.52255"><ele>96.75</ele></trkpt><trkpt lat="48.21695" lon="-1.52265"><ele>96.9</ele></trkpt><trkpt lat="48.21708" lon="-1.52316"><ele>96.63</ele></trkpt><trkpt lat="48.21721" lon="-1.52368"><ele>96.37</ele></trkpt><trkpt lat="48.21728" lon="-1.52392"><ele>96.23</ele></trkpt><trkpt lat="48.2174" lon="-1.52444"><ele>96.24</ele></trkpt><trkpt lat="48.21751" lon="-1.52478"><ele>96.2</ele></trkpt><trkpt lat="48.21765" lon="-1.52509"><ele>95.9</ele></trkpt><trkpt lat="48.21787" lon="-1.52554"><ele>95.32</ele></trkpt><trkpt lat="48.218" lon="-1.5258"><ele>95.2</ele></trkpt><trkpt lat="48.21812" lon="-1.52605"><ele>95.11</ele></trkpt><trkpt lat="48.21823" lon="-1.52626"><ele>95</ele></trkpt><trkpt lat="48.21831" lon="-1.52642"><ele>94.99</ele></trkpt><trkpt lat="48.2186" lon="-1.52705"><ele>94.61</ele></trkpt><trkpt lat="48.21863" lon="-1.52713"><ele>94.44</ele></trkpt><trkpt lat="48.21797" lon="-1.52757"><ele>97</ele></trkpt><trkpt lat="48.21763" lon="-1.52773"><ele>97.92</ele></trkpt><trkpt lat="48.21738" lon="-1.52788"><ele>98.18</ele></trkpt><trkpt lat="48.21728" lon="-1.52794"><ele>98.52</ele></trkpt><trkpt lat="48.21717" lon="-1.52791"><ele>98.98</ele></trkpt><trkpt lat="48.21706" lon="-1.52789"><ele>99</ele></trkpt><trkpt lat="48.21696" lon="-1.52791"><ele>99</ele></trkpt><trkpt lat="48.21673" lon="-1.52813"><ele>99.04</ele></trkpt><trkpt lat="48.2166" lon="-1.52828"><ele>99.5</ele></trkpt><trkpt lat="48.21645" lon="-1.52856"><ele>99.97</ele></trkpt><trkpt lat="48.21634" lon="-1.52876"><ele>100</ele></trkpt><trkpt lat="48.21615" lon="-1.529"><ele>100</ele></trkpt><trkpt lat="48.216" lon="-1.52916"><ele>99.92</ele></trkpt><trkpt lat="48.21588" lon="-1.52931"><ele>99.84</ele></trkpt><trkpt lat="48.21597" lon="-1.52945"><ele>99.45</ele></trkpt><trkpt lat="48.21645" lon="-1.53027"><ele>98.11</ele></trkpt><trkpt lat="48.21718" lon="-1.53147"><ele>97</ele></trkpt><trkpt lat="48.21761" lon="-1.53216"><ele>95.66</ele></trkpt><trkpt lat="48.21743" lon="-1.53211"><ele>95.9</ele></trkpt><trkpt lat="48.21671" lon="-1.53191"><ele>96.15</ele></trkpt><trkpt lat="48.21579" lon="-1.53163"><ele>97</ele></trkpt><trkpt lat="48.21503" lon="-1.53135"><ele>97</ele></trkpt><trkpt lat="48.21339" lon="-1.53086"><ele>96.06</ele></trkpt><trkpt lat="48.21332" lon="-1.53082"><ele>95.8</ele></trkpt><trkpt lat="48.21251" lon="-1.53043"><ele>94.47</ele></trkpt><trkpt lat="48.2119" lon="-1.53016"><ele>92.99</ele></trkpt><trkpt lat="48.21181" lon="-1.53011"><ele>92.68</ele></trkpt><trkpt lat="48.21157" lon="-1.53001"><ele>92.25</ele></trkpt><trkpt lat="48.21064" lon="-1.52959"><ele>88.53</ele></trkpt><trkpt lat="48.21034" lon="-1.52944"><ele>87.62</ele></trkpt><trkpt lat="48.21026" lon="-1.5294"><ele>87.51</ele></trkpt><trkpt lat="48.21019" lon="-1.52936"><ele>87.52</ele></trkpt><trkpt lat="48.21009" lon="-1.52932"><ele>87.54</ele></trkpt><trkpt lat="48.20983" lon="-1.52917"><ele>87.6</ele></trkpt><trkpt lat="48.20957" lon="-1.52903"><ele>88.09</ele></trkpt><trkpt lat="48.20951" lon="-1.52898"><ele>88.24</ele></trkpt><trkpt lat="48.20947" lon="-1.52891"><ele>88.4</ele></trkpt><trkpt lat="48.20942" lon="-1.52887"><ele>88.65</ele></trkpt><trkpt lat="48.2093" lon="-1.5288"><ele>88.98</ele></trkpt><trkpt lat="48.2089" lon="-1.52864"><ele>89.5</ele></trkpt><trkpt lat="48.20879" lon="-1.52859"><ele>89.53</ele></trkpt><trkpt lat="48.20873" lon="-1.52858"><ele>89.55</ele></trkpt><trkpt lat="48.20871" lon="-1.52858"><ele>89.55</ele></trkpt><trkpt lat="48.20863" lon="-1.52855"><ele>89.62</ele></trkpt><trkpt lat="48.20844" lon="-1.5285"><ele>89.73</ele></trkpt><trkpt lat="48.20828" lon="-1.52846"><ele>89.9</ele></trkpt><trkpt lat="48.20817" lon="-1.52844"><ele>90</ele></trkpt><trkpt lat="48.20811" lon="-1.52842"><ele>90.07</ele></trkpt><trkpt lat="48.20793" lon="-1.52838"><ele>90.21</ele></trkpt><trkpt lat="48.20772" lon="-1.52833"><ele>90.38</ele></trkpt><trkpt lat="48.20734" lon="-1.52824"><ele>90.64</ele></trkpt><trkpt lat="48.20693" lon="-1.52813"><ele>90.79</ele></trkpt><trkpt lat="48.2065" lon="-1.52802"><ele>91.58</ele></trkpt><trkpt lat="48.2062" lon="-1.52795"><ele>92.25</ele></trkpt><trkpt lat="48.20606" lon="-1.52789"><ele>92.4</ele></trkpt><trkpt lat="48.20584" lon="-1.52782"><ele>92.74</ele></trkpt><trkpt lat="48.20571" lon="-1.52778"><ele>92.91</ele></trkpt><trkpt lat="48.2054" lon="-1.52769"><ele>93.36</ele></trkpt><trkpt lat="48.20528" lon="-1.52764"><ele>93.55</ele></trkpt><trkpt lat="48.20515" lon="-1.52763"><ele>93.8</ele></trkpt><trkpt lat="48.20508" lon="-1.52765"><ele>93.83</ele></trkpt><trkpt lat="48.205" lon="-1.52773"><ele>93.7</ele></trkpt><trkpt lat="48.20485" lon="-1.52789"><ele>93.57</ele></trkpt><trkpt lat="48.20471" lon="-1.52799"><ele>93.58</ele></trkpt><trkpt lat="48.20463" lon="-1.52804"><ele>93.58</ele></trkpt><trkpt lat="48.20453" lon="-1.52804"><ele>93.4</ele></trkpt><trkpt lat="48.20435" lon="-1.52799"><ele>93.18</ele></trkpt><trkpt lat="48.20406" lon="-1.52788"><ele>92.82</ele></trkpt><trkpt lat="48.20388" lon="-1.52782"><ele>92.51</ele></trkpt><trkpt lat="48.2037" lon="-1.5278"><ele>92</ele></trkpt><trkpt lat="48.20359" lon="-1.52782"><ele>91.83</ele></trkpt><trkpt lat="48.20352" lon="-1.52785"><ele>91.67</ele></trkpt><trkpt lat="48.20308" lon="-1.52818"><ele>90.76</ele></trkpt><trkpt lat="48.20258" lon="-1.52863"><ele>89.71</ele></trkpt><trkpt lat="48.20233" lon="-1.52885"><ele>89.75</ele></trkpt><trkpt lat="48.20227" lon="-1.5287"><ele>90</ele></trkpt><trkpt lat="48.20217" lon="-1.5284"><ele>88.86</ele></trkpt><trkpt lat="48.20211" lon="-1.52821"><ele>86.32</ele></trkpt><trkpt lat="48.20207" lon="-1.52811"><ele>86.4</ele></trkpt><trkpt lat="48.20206" lon="-1.52809"><ele>86.4</ele></trkpt><trkpt lat="48.20197" lon="-1.52783"><ele>89.44</ele></trkpt><trkpt lat="48.2019" lon="-1.52761"><ele>93.19</ele></trkpt><trkpt lat="48.20185" lon="-1.52751"><ele>93.37</ele></trkpt><trkpt lat="48.20161" lon="-1.52754"><ele>93.84</ele></trkpt><trkpt lat="48.20156" lon="-1.52755"><ele>94.12</ele></trkpt><trkpt lat="48.20132" lon="-1.52758"><ele>93.2</ele></trkpt><trkpt lat="48.20107" lon="-1.52751"><ele>93.22</ele></trkpt><trkpt lat="48.20082" lon="-1.52741"><ele>93.84</ele></trkpt><trkpt lat="48.20054" lon="-1.52716"><ele>94.96</ele></trkpt><trkpt lat="48.20036" lon="-1.52694"><ele>95.68</ele></trkpt><trkpt lat="48.20014" lon="-1.52672"><ele>96.36</ele></trkpt><trkpt lat="48.19996" lon="-1.52657"><ele>96.81</ele></trkpt><trkpt lat="48.19976" lon="-1.52645"><ele>97.24</ele></trkpt><trkpt lat="48.19939" lon="-1.52633"><ele>97.66</ele></trkpt><trkpt lat="48.19936" lon="-1.5264"><ele>97.73</ele></trkpt><trkpt lat="48.19927" lon="-1.52657"><ele>97.7</ele></trkpt><trkpt lat="48.19921" lon="-1.52669"><ele>97.78</ele></trkpt><trkpt lat="48.19917" lon="-1.52674"><ele>97.76</ele></trkpt><trkpt lat="48.19913" lon="-1.52677"><ele>97.79</ele></trkpt><trkpt lat="48.19898" lon="-1.52686"><ele>97.96</ele></trkpt><trkpt lat="48.19881" lon="-1.52696"><ele>98.12</ele></trkpt><trkpt lat="48.19869" lon="-1.52705"><ele>98.28</ele></trkpt><trkpt lat="48.19861" lon="-1.52712"><ele>98.3</ele></trkpt><trkpt lat="48.19846" lon="-1.52725"><ele>98.48</ele></trkpt><trkpt lat="48.19825" lon="-1.52746"><ele>98.5</ele></trkpt><trkpt lat="48.19799" lon="-1.52768"><ele>98.5</ele></trkpt><trkpt lat="48.1978" lon="-1.52782"><ele>98.67</ele></trkpt><trkpt lat="48.19737" lon="-1.52812"><ele>99</ele></trkpt><trkpt lat="48.19714" lon="-1.52828"><ele>99.11</ele></trkpt><trkpt lat="48.19695" lon="-1.52838"><ele>99.23</ele></trkpt><trkpt lat="48.1968" lon="-1.52843"><ele>99.43</ele></trkpt><trkpt lat="48.19652" lon="-1.52852"><ele>99.78</ele></trkpt><trkpt lat="48.19639" lon="-1.52854"><ele>99.97</ele></trkpt><trkpt lat="48.1963" lon="-1.52856"><ele>100.07</ele></trkpt><trkpt lat="48.19618" lon="-1.52856"><ele>100.31</ele></trkpt><trkpt lat="48.19599" lon="-1.52857"><ele>100.5</ele></trkpt><trkpt lat="48.19556" lon="-1.52855"><ele>100.79</ele></trkpt><trkpt lat="48.19545" lon="-1.52855"><ele>100.8</ele></trkpt><trkpt lat="48.19538" lon="-1.52857"><ele>100.8</ele></trkpt><trkpt lat="48.19515" lon="-1.52871"><ele>100.8</ele></trkpt><trkpt lat="48.19495" lon="-1.52882"><ele>100.68</ele></trkpt><trkpt lat="48.19466" lon="-1.52895"><ele>100.4</ele></trkpt><trkpt lat="48.19443" lon="-1.52903"><ele>100.19</ele></trkpt><trkpt lat="48.19412" lon="-1.52912"><ele>99.78</ele></trkpt><trkpt lat="48.19403" lon="-1.52914"><ele>99.69</ele></trkpt><trkpt lat="48.19395" lon="-1.52917"><ele>99.57</ele></trkpt><trkpt lat="48.19381" lon="-1.52926"><ele>99.5</ele></trkpt><trkpt lat="48.19346" lon="-1.52955"><ele>99.4</ele></trkpt><trkpt lat="48.19327" lon="-1.52969"><ele>99.31</ele></trkpt><trkpt lat="48.19309" lon="-1.52986"><ele>99.29</ele></trkpt><trkpt lat="48.19277" lon="-1.53023"><ele>99.21</ele></trkpt><trkpt lat="48.19248" lon="-1.53059"><ele>99.23</ele></trkpt><trkpt lat="48.19228" lon="-1.53081"><ele>99.39</ele></trkpt><trkpt lat="48.19174" lon="-1.53131"><ele>99.75</ele></trkpt><trkpt lat="48.19135" lon="-1.53168"><ele>101.09</ele></trkpt><trkpt lat="48.19098" lon="-1.53205"><ele>102.12</ele></trkpt><trkpt lat="48.19074" lon="-1.53237"><ele>102.77</ele></trkpt><trkpt lat="48.19056" lon="-1.53262"><ele>103.31</ele></trkpt><trkpt lat="48.19044" lon="-1.5328"><ele>103.48</ele></trkpt><trkpt lat="48.1902" lon="-1.53322"><ele>103.48</ele></trkpt><trkpt lat="48.1899" lon="-1.5338"><ele>103.3</ele></trkpt><trkpt lat="48.18977" lon="-1.53402"><ele>103.48</ele></trkpt><trkpt lat="48.18965" lon="-1.53402"><ele>103.81</ele></trkpt><trkpt lat="48.18949" lon="-1.53402"><ele>103.99</ele></trkpt><trkpt lat="48.18945" lon="-1.53404"><ele>103.93</ele></trkpt><trkpt lat="48.1894" lon="-1.53409"><ele>103.9</ele></trkpt><trkpt lat="48.18929" lon="-1.53429"><ele>103.6</ele></trkpt><trkpt lat="48.18933" lon="-1.53451"><ele>103.68</ele></trkpt><trkpt lat="48.18929" lon="-1.53476"><ele>103.62</ele></trkpt><trkpt lat="48.18925" lon="-1.53493"><ele>103.86</ele></trkpt><trkpt lat="48.18923" lon="-1.53516"><ele>104.08</ele></trkpt><trkpt lat="48.18923" lon="-1.53542"><ele>104.1</ele></trkpt><trkpt lat="48.18923" lon="-1.53565"><ele>104.1</ele></trkpt><trkpt lat="48.18925" lon="-1.53594"><ele>104.1</ele></trkpt><trkpt lat="48.18923" lon="-1.53621"><ele>104.1</ele></trkpt><trkpt lat="48.18926" lon="-1.53659"><ele>104.1</ele></trkpt><trkpt lat="48.18928" lon="-1.53684"><ele>104.1</ele></trkpt><trkpt lat="48.18928" lon="-1.53702"><ele>104</ele></trkpt><trkpt lat="48.18928" lon="-1.53719"><ele>104</ele></trkpt><trkpt lat="48.18924" lon="-1.53734"><ele>104</ele></trkpt><trkpt lat="48.18922" lon="-1.53752"><ele>104</ele></trkpt><trkpt lat="48.1892" lon="-1.53776"><ele>104</ele></trkpt><trkpt lat="48.18914" lon="-1.53798"><ele>104</ele></trkpt><trkpt lat="48.1891" lon="-1.53877"><ele>104.49</ele></trkpt><trkpt lat="48.18908" lon="-1.53913"><ele>104.66</ele></trkpt><trkpt lat="48.18902" lon="-1.54"><ele>105.01</ele></trkpt><trkpt lat="48.18898" lon="-1.54029"><ele>105.32</ele></trkpt><trkpt lat="48.18899" lon="-1.54067"><ele>105.44</ele></trkpt><trkpt lat="48.18898" lon="-1.54103"><ele>105.54</ele></trkpt><trkpt lat="48.189" lon="-1.54168"><ele>105.8</ele></trkpt><trkpt lat="48.18893" lon="-1.54231"><ele>106.1</ele></trkpt><trkpt lat="48.18891" lon="-1.54279"><ele>106.37</ele></trkpt><trkpt lat="48.18886" lon="-1.54359"><ele>106.76</ele></trkpt><trkpt lat="48.18885" lon="-1.54396"><ele>106.87</ele></trkpt><trkpt lat="48.18883" lon="-1.54419"><ele>106.9</ele></trkpt><trkpt lat="48.18879" lon="-1.54426"><ele>106.87</ele></trkpt><trkpt lat="48.18874" lon="-1.54451"><ele>106.85</ele></trkpt><trkpt lat="48.18871" lon="-1.54465"><ele>106.72</ele></trkpt><trkpt lat="48.18861" lon="-1.54481"><ele>106.18</ele></trkpt><trkpt lat="48.18853" lon="-1.54498"><ele>106.61</ele></trkpt><trkpt lat="48.18845" lon="-1.54525"><ele>106.9</ele></trkpt><trkpt lat="48.18847" lon="-1.54545"><ele>106.65</ele></trkpt><trkpt lat="48.1886" lon="-1.54553"><ele>106.53</ele></trkpt><trkpt lat="48.18866" lon="-1.54572"><ele>106.84</ele></trkpt><trkpt lat="48.18868" lon="-1.54587"><ele>106.71</ele></trkpt><trkpt lat="48.18873" lon="-1.54603"><ele>106.82</ele></trkpt><trkpt lat="48.18878" lon="-1.54611"><ele>106.27</ele></trkpt><trkpt lat="48.18893" lon="-1.54608"><ele>102.67</ele></trkpt><trkpt lat="48.18902" lon="-1.54604"><ele>101.98</ele></trkpt><trkpt lat="48.18913" lon="-1.54614"><ele>102.18</ele></trkpt><trkpt lat="48.18923" lon="-1.54623"><ele>104.75</ele></trkpt><trkpt lat="48.18937" lon="-1.54637"><ele>106.06</ele></trkpt><trkpt lat="48.18967" lon="-1.54588"><ele>106.15</ele></trkpt><trkpt lat="48.18967" lon="-1.54587"><ele>106.15</ele></trkpt><trkpt lat="48.18978" lon="-1.54586"><ele>106</ele></trkpt><trkpt lat="48.19002" lon="-1.54586"><ele>106</ele></trkpt><trkpt lat="48.19062" lon="-1.54584"><ele>105.94</ele></trkpt><trkpt lat="48.19184" lon="-1.54581"><ele>102.42</ele></trkpt><trkpt lat="48.19282" lon="-1.54577"><ele>100.89</ele></trkpt><trkpt lat="48.19389" lon="-1.54575"><ele>98.26</ele></trkpt><trkpt lat="48.19507" lon="-1.54575"><ele>93.56</ele></trkpt><trkpt lat="48.1968" lon="-1.54674"><ele>86.42</ele></trkpt><trkpt lat="48.19687" lon="-1.54679"><ele>86.72</ele></trkpt><trkpt lat="48.19851" lon="-1.54794"><ele>82.59</ele></trkpt><trkpt lat="48.20017" lon="-1.54907"><ele>81.09</ele></trkpt><trkpt lat="48.20237" lon="-1.55063"><ele>77.97</ele></trkpt><trkpt lat="48.20279" lon="-1.55093"><ele>77.64</ele></trkpt><trkpt lat="48.20306" lon="-1.55112"><ele>77.6</ele></trkpt><trkpt lat="48.20308" lon="-1.55113"><ele>77.72</ele></trkpt><trkpt lat="48.20313" lon="-1.55117"><ele>77.85</ele></trkpt><trkpt lat="48.20289" lon="-1.55149"><ele>76.36</ele></trkpt><trkpt lat="48.20312" lon="-1.55196"><ele>75.77</ele></trkpt><trkpt lat="48.2036" lon="-1.55291"><ele>74.6</ele></trkpt><trkpt lat="48.20473" lon="-1.55508"><ele>73.38</ele></trkpt><trkpt lat="48.20551" lon="-1.55666"><ele>69.57</ele></trkpt><trkpt lat="48.20626" lon="-1.55805"><ele>66.72</ele></trkpt><trkpt lat="48.20628" lon="-1.55808"><ele>66.72</ele></trkpt><trkpt lat="48.20654" lon="-1.55865"><ele>65.57</ele></trkpt><trkpt lat="48.20659" lon="-1.55859"><ele>65.68</ele></trkpt><trkpt lat="48.20735" lon="-1.55771"><ele>66.74</ele></trkpt><trkpt lat="48.20763" lon="-1.55738"><ele>66.99</ele></trkpt><trkpt lat="48.20783" lon="-1.55731"><ele>66.91</ele></trkpt><trkpt lat="48.20796" lon="-1.55733"><ele>66.64</ele></trkpt><trkpt lat="48.20802" lon="-1.55733"><ele>66.55</ele></trkpt><trkpt lat="48.20805" lon="-1.55733"><ele>66.55</ele></trkpt><trkpt lat="48.20808" lon="-1.55736"><ele>66.43</ele></trkpt><trkpt lat="48.20812" lon="-1.55738"><ele>66.42</ele></trkpt><trkpt lat="48.20832" lon="-1.55741"><ele>65.97</ele></trkpt><trkpt lat="48.20848" lon="-1.55736"><ele>65.51</ele></trkpt><trkpt lat="48.20867" lon="-1.55717"><ele>64.99</ele></trkpt><trkpt lat="48.20896" lon="-1.55704"><ele>63.31</ele></trkpt><trkpt lat="48.209" lon="-1.55698"><ele>63.04</ele></trkpt><trkpt lat="48.20905" lon="-1.55689"><ele>62.82</ele></trkpt><trkpt lat="48.20904" lon="-1.55671"><ele>62.77</ele></trkpt><trkpt lat="48.209" lon="-1.55638"><ele>63.06</ele></trkpt><trkpt lat="48.20893" lon="-1.55627"><ele>63.31</ele></trkpt><trkpt lat="48.20894" lon="-1.55607"><ele>62.99</ele></trkpt><trkpt lat="48.20889" lon="-1.55588"><ele>62.95</ele></trkpt><trkpt lat="48.20899" lon="-1.55575"><ele>62.84</ele></trkpt><trkpt lat="48.20904" lon="-1.55569"><ele>62.75</ele></trkpt><trkpt lat="48.20911" lon="-1.55562"><ele>62.79</ele></trkpt><trkpt lat="48.20916" lon="-1.55559"><ele>62.87</ele></trkpt><trkpt lat="48.20918" lon="-1.55562"><ele>62.48</ele></trkpt><trkpt lat="48.20931" lon="-1.55567"><ele>62.24</ele></trkpt><trkpt lat="48.20939" lon="-1.55566"><ele>62.31</ele></trkpt><trkpt lat="48.2095" lon="-1.55572"><ele>62.09</ele></trkpt><trkpt lat="48.20969" lon="-1.55573"><ele>61.69</ele></trkpt><trkpt lat="48.20989" lon="-1.55565"><ele>62.1</ele></trkpt><trkpt lat="48.20999" lon="-1.55557"><ele>62.4</ele></trkpt><trkpt lat="48.21" lon="-1.55554"><ele>62.77</ele></trkpt><trkpt lat="48.21002" lon="-1.55554"><ele>62.77</ele></trkpt><trkpt lat="48.21008" lon="-1.55551"><ele>62.14</ele></trkpt><trkpt lat="48.21011" lon="-1.55547"><ele>62.47</ele></trkpt><trkpt lat="48.21014" lon="-1.55546"><ele>62.54</ele></trkpt><trkpt lat="48.21021" lon="-1.55538"><ele>62.26</ele></trkpt><trkpt lat="48.21021" lon="-1.55541"><ele>61.71</ele></trkpt><trkpt lat="48.21023" lon="-1.55541"><ele>61.71</ele></trkpt><trkpt lat="48.21033" lon="-1.55528"><ele>62.7</ele></trkpt><trkpt lat="48.21032" lon="-1.55522"><ele>63.12</ele></trkpt><trkpt lat="48.21022" lon="-1.55495"><ele>65.13</ele></trkpt><trkpt lat="48.21018" lon="-1.5549"><ele>65.46</ele></trkpt><trkpt lat="48.21017" lon="-1.55482"><ele>65.79</ele></trkpt><trkpt lat="48.21007" lon="-1.55475"><ele>65.79</ele></trkpt><trkpt lat="48.21003" lon="-1.55464"><ele>66.52</ele></trkpt><trkpt lat="48.20999" lon="-1.55456"><ele>66.73</ele></trkpt><trkpt lat="48.21002" lon="-1.55452"><ele>66.96</ele></trkpt><trkpt lat="48.21009" lon="-1.55445"><ele>66.96</ele></trkpt><trkpt lat="48.21041" lon="-1.55408"><ele>67.95</ele></trkpt><trkpt lat="48.21043" lon="-1.55406"><ele>67.64</ele></trkpt><trkpt lat="48.21045" lon="-1.55399"><ele>67.28</ele></trkpt><trkpt lat="48.21044" lon="-1.55367"><ele>68.74</ele></trkpt><trkpt lat="48.21061" lon="-1.55334"><ele>68.38</ele></trkpt><trkpt lat="48.21065" lon="-1.55289"><ele>68.8</ele></trkpt><trkpt lat="48.21084" lon="-1.55244"><ele>68.31</ele></trkpt><trkpt lat="48.21087" lon="-1.55218"><ele>68.49</ele></trkpt><trkpt lat="48.21101" lon="-1.55177"><ele>68.51</ele></trkpt><trkpt lat="48.21083" lon="-1.5455"><ele>70.35</ele></trkpt><trkpt lat="48.21082" lon="-1.54516"><ele>70.22</ele></trkpt><trkpt lat="48.21187" lon="-1.54513"><ele>67.8</ele></trkpt><trkpt lat="48.212" lon="-1.54513"><ele>67.83</ele></trkpt><trkpt lat="48.2124" lon="-1.54512"><ele>68.52</ele></trkpt><trkpt lat="48.21236" lon="-1.54491"><ele>68.95</ele></trkpt><trkpt lat="48.21226" lon="-1.54469"><ele>69.35</ele></trkpt><trkpt lat="48.21222" lon="-1.54409"><ele>70.31</ele></trkpt><trkpt lat="48.21229" lon="-1.54364"><ele>71.92</ele></trkpt><trkpt lat="48.21239" lon="-1.54344"><ele>73.12</ele></trkpt><trkpt lat="48.21239" lon="-1.54343"><ele>73.12</ele></trkpt><trkpt lat="48.21242" lon="-1.54297"><ele>74.73</ele></trkpt><trkpt lat="48.21242" lon="-1.54292"><ele>74.82</ele></trkpt><trkpt lat="48.21232" lon="-1.54255"><ele>74.41</ele></trkpt><trkpt lat="48.21232" lon="-1.54253"><ele>74.41</ele></trkpt><trkpt lat="48.21247" lon="-1.5422"><ele>74.87</ele></trkpt><trkpt lat="48.21253" lon="-1.54215"><ele>75.18</ele></trkpt><trkpt lat="48.21295" lon="-1.54222"><ele>76.71</ele></trkpt><trkpt lat="48.2133" lon="-1.5424"><ele>77.87</ele></trkpt><trkpt lat="48.21347" lon="-1.54255"><ele>78.04</ele></trkpt><trkpt lat="48.21358" lon="-1.5427"><ele>77.97</ele></trkpt><trkpt lat="48.21363" lon="-1.54278"><ele>77.99</ele></trkpt><trkpt lat="48.21399" lon="-1.54335"><ele>78.61</ele></trkpt><trkpt lat="48.21422" lon="-1.5438"><ele>78.18</ele></trkpt><trkpt lat="48.21457" lon="-1.54443"><ele>78.24</ele></trkpt><trkpt lat="48.21465" lon="-1.54458"><ele>78.07</ele></trkpt><trkpt lat="48.21495" lon="-1.54443"><ele>79.06</ele></trkpt><trkpt lat="48.21519" lon="-1.54443"><ele>79.74</ele></trkpt><trkpt lat="48.21528" lon="-1.54437"><ele>80.03</ele></trkpt><trkpt lat="48.21539" lon="-1.54436"><ele>80.29</ele></trkpt><trkpt lat="48.21536" lon="-1.54268"><ele>83.13</ele></trkpt><trkpt lat="48.21546" lon="-1.54272"><ele>83.33</ele></trkpt><trkpt lat="48.21558" lon="-1.54268"><ele>83.56</ele></trkpt><trkpt lat="48.21588" lon="-1.54287"><ele>83.35</ele></trkpt><trkpt lat="48.21593" lon="-1.54284"><ele>83.59</ele></trkpt><trkpt lat="48.21603" lon="-1.54295"><ele>83.39</ele></trkpt><trkpt lat="48.21643" lon="-1.54293"><ele>83.14</ele></trkpt><trkpt lat="48.21646" lon="-1.54299"><ele>83</ele></trkpt><trkpt lat="48.21663" lon="-1.54299"><ele>82.8</ele></trkpt><trkpt lat="48.21667" lon="-1.54307"><ele>82.63</ele></trkpt><trkpt lat="48.21724" lon="-1.54322"><ele>81.78</ele></trkpt><trkpt lat="48.21732" lon="-1.54321"><ele>81.72</ele></trkpt><trkpt lat="48.21736" lon="-1.54329"><ele>81.67</ele></trkpt><trkpt lat="48.21757" lon="-1.54336"><ele>81.24</ele></trkpt><trkpt lat="48.21766" lon="-1.5433"><ele>80.98</ele></trkpt><trkpt lat="48.21769" lon="-1.54338"><ele>80.85</ele></trkpt><trkpt lat="48.21786" lon="-1.54358"><ele>80.49</ele></trkpt><trkpt lat="48.21798" lon="-1.54346"><ele>80.48</ele></trkpt><trkpt lat="48.21806" lon="-1.54339"><ele>80.26</ele></trkpt><trkpt lat="48.21825" lon="-1.5432"><ele>80.06</ele></trkpt><trkpt lat="48.21888" lon="-1.54267"><ele>79.07</ele></trkpt><trkpt lat="48.21896" lon="-1.54261"><ele>79.07</ele></trkpt><trkpt lat="48.21982" lon="-1.54173"><ele>81.53</ele></trkpt><trkpt lat="48.22037" lon="-1.54127"><ele>86.59</ele></trkpt><trkpt lat="48.22095" lon="-1.5408"><ele>88.65</ele></trkpt><trkpt lat="48.22138" lon="-1.5404"><ele>89.14</ele></trkpt><trkpt lat="48.22215" lon="-1.53975"><ele>91</ele></trkpt><trkpt lat="48.2234" lon="-1.53868"><ele>91</ele></trkpt><trkpt lat="48.22533" lon="-1.53705"><ele>84.88</ele></trkpt><trkpt lat="48.22599" lon="-1.53647"><ele>82.97</ele></trkpt><trkpt lat="48.22659" lon="-1.53596"><ele>81.1</ele></trkpt><trkpt lat="48.22667" lon="-1.5359"><ele>81</ele></trkpt><trkpt lat="48.22698" lon="-1.53557"><ele>80.23</ele></trkpt><trkpt lat="48.22717" lon="-1.53525"><ele>80.41</ele></trkpt><trkpt lat="48.22733" lon="-1.5349"><ele>80.68</ele></trkpt><trkpt lat="48.22753" lon="-1.53454"><ele>80.81</ele></trkpt><trkpt lat="48.22776" lon="-1.53418"><ele>80.28</ele></trkpt><trkpt lat="48.22798" lon="-1.53389"><ele>80.07</ele></trkpt><trkpt lat="48.22829" lon="-1.53359"><ele>79.71</ele></trkpt><trkpt lat="48.22849" lon="-1.53337"><ele>79</ele></trkpt><trkpt lat="48.22892" lon="-1.53298"><ele>78.86</ele></trkpt><trkpt lat="48.2291" lon="-1.53286"><ele>78.61</ele></trkpt><trkpt lat="48.2293" lon="-1.53279"><ele>78.28</ele></trkpt><trkpt lat="48.22957" lon="-1.53275"><ele>78</ele></trkpt><trkpt lat="48.22985" lon="-1.53266"><ele>77.99</ele></trkpt><trkpt lat="48.23" lon="-1.53258"><ele>77.6</ele></trkpt><trkpt lat="48.23016" lon="-1.53244"><ele>77.01</ele></trkpt><trkpt lat="48.23034" lon="-1.53224"><ele>77.75</ele></trkpt><trkpt lat="48.23043" lon="-1.53204"><ele>78.2</ele></trkpt><trkpt lat="48.23047" lon="-1.53199"><ele>78.13</ele></trkpt><trkpt lat="48.23052" lon="-1.53194"><ele>77.97</ele></trkpt><trkpt lat="48.23134" lon="-1.53088"><ele>75</ele></trkpt><trkpt lat="48.23144" lon="-1.53073"><ele>75.33</ele></trkpt><trkpt lat="48.23166" lon="-1.53046"><ele>76.16</ele></trkpt><trkpt lat="48.23162" lon="-1.5304"><ele>76.24</ele></trkpt><trkpt lat="48.23141" lon="-1.53022"><ele>75.99</ele></trkpt><trkpt lat="48.2312" lon="-1.53012"><ele>76.13</ele></trkpt><trkpt lat="48.23101" lon="-1.53011"><ele>76.09</ele></trkpt><trkpt lat="48.23079" lon="-1.53009"><ele>76.14</ele></trkpt><trkpt lat="48.23071" lon="-1.53006"><ele>76.25</ele></trkpt><trkpt lat="48.23061" lon="-1.52992"><ele>76.51</ele></trkpt><trkpt lat="48.23053" lon="-1.52976"><ele>76.67</ele></trkpt><trkpt lat="48.23039" lon="-1.52962"><ele>76.86</ele></trkpt><trkpt lat="48.23013" lon="-1.52931"><ele>77.46</ele></trkpt><trkpt lat="48.2295" lon="-1.52862"><ele>77.82</ele></trkpt><trkpt lat="48.22944" lon="-1.52853"><ele>77.86</ele></trkpt><trkpt lat="48.22938" lon="-1.52844"><ele>77.9</ele></trkpt><trkpt lat="48.22936" lon="-1.52836"><ele>77.94</ele></trkpt><trkpt lat="48.22937" lon="-1.52826"><ele>78.19</ele></trkpt><trkpt lat="48.22943" lon="-1.52799"><ele>79.76</ele></trkpt><trkpt lat="48.22946" lon="-1.52783"><ele>80</ele></trkpt><trkpt lat="48.22948" lon="-1.52741"><ele>81.17</ele></trkpt><trkpt lat="48.22952" lon="-1.52728"><ele>81.35</ele></trkpt><trkpt lat="48.22959" lon="-1.52716"><ele>81.32</ele></trkpt><trkpt lat="48.22988" lon="-1.52659"><ele>83.04</ele></trkpt><trkpt lat="48.23017" lon="-1.52692"><ele>83.68</ele></trkpt><trkpt lat="48.23045" lon="-1.52723"><ele>83.8</ele></trkpt><trkpt lat="48.23078" lon="-1.52759"><ele>84.11</ele></trkpt><trkpt lat="48.23095" lon="-1.52778"><ele>84.21</ele></trkpt><trkpt lat="48.23096" lon="-1.52778"><ele>84.21</ele></trkpt><trkpt lat="48.23123" lon="-1.52724"><ele>85.66</ele></trkpt><trkpt lat="48.23284" lon="-1.52404"><ele>76.61</ele></trkpt><trkpt lat="48.23306" lon="-1.52361"><ele>75.41</ele></trkpt><trkpt lat="48.23324" lon="-1.52329"><ele>75.86</ele></trkpt><trkpt lat="48.23327" lon="-1.52314"><ele>76.41</ele></trkpt><trkpt lat="48.23319" lon="-1.52305"><ele>76.17</ele></trkpt><trkpt lat="48.23304" lon="-1.52294"><ele>75.97</ele></trkpt><trkpt lat="48.23294" lon="-1.52284"><ele>76.19</ele></trkpt><trkpt lat="48.23286" lon="-1.52272"><ele>76.41</ele></trkpt><trkpt lat="48.23275" lon="-1.52246"><ele>76.43</ele></trkpt><trkpt lat="48.23269" lon="-1.52239"><ele>76.44</ele></trkpt><trkpt lat="48.23254" lon="-1.52196"><ele>77.61</ele></trkpt><trkpt lat="48.2324" lon="-1.52173"><ele>77.67</ele></trkpt><trkpt lat="48.23238" lon="-1.52168"><ele>77.63</ele></trkpt><trkpt lat="48.23245" lon="-1.52153"><ele>77.85</ele></trkpt><trkpt lat="48.23218" lon="-1.52124"><ele>77.82</ele></trkpt><trkpt lat="48.23206" lon="-1.5211"><ele>77.91</ele></trkpt><trkpt lat="48.23182" lon="-1.52087"><ele>78.29</ele></trkpt><trkpt lat="48.23166" lon="-1.52072"><ele>78.44</ele></trkpt><trkpt lat="48.23179" lon="-1.52045"><ele>78.87</ele></trkpt><trkpt lat="48.23184" lon="-1.52022"><ele>79.19</ele></trkpt><trkpt lat="48.23187" lon="-1.51994"><ele>79.6</ele></trkpt><trkpt lat="48.23189" lon="-1.51967"><ele>80.82</ele></trkpt><trkpt lat="48.23186" lon="-1.51889"><ele>84.13</ele></trkpt><trkpt lat="48.23176" lon="-1.51834"><ele>85.92</ele></trkpt><trkpt lat="48.23159" lon="-1.51766"><ele>87.95</ele></trkpt><trkpt lat="48.23165" lon="-1.5171"><ele>89.68</ele></trkpt><trkpt lat="48.2316" lon="-1.51684"><ele>90.66</ele></trkpt><trkpt lat="48.23152" lon="-1.51663"><ele>91.74</ele></trkpt><trkpt lat="48.23143" lon="-1.51617"><ele>94.86</ele></trkpt><trkpt lat="48.2314" lon="-1.51594"><ele>96.09</ele></trkpt><trkpt lat="48.23138" lon="-1.51569"><ele>97.06</ele></trkpt><trkpt lat="48.23132" lon="-1.51544"><ele>98.05</ele></trkpt><trkpt lat="48.23122" lon="-1.51521"><ele>99.37</ele></trkpt><trkpt lat="48.23109" lon="-1.51506"><ele>99.89</ele></trkpt><trkpt lat="48.23075" lon="-1.51485"><ele>100.43</ele></trkpt><trkpt lat="48.23023" lon="-1.51448"><ele>101.15</ele></trkpt><trkpt lat="48.23005" lon="-1.51432"><ele>100.92</ele></trkpt><trkpt lat="48.2299" lon="-1.51422"><ele>100.89</ele></trkpt><trkpt lat="48.22978" lon="-1.51421"><ele>100.4</ele></trkpt><trkpt lat="48.22966" lon="-1.51432"><ele>99.16</ele></trkpt><trkpt lat="48.22957" lon="-1.51449"><ele>97.78</ele></trkpt><trkpt lat="48.22945" lon="-1.51465"><ele>96.74</ele></trkpt><trkpt lat="48.22935" lon="-1.51476"><ele>95.95</ele></trkpt><trkpt lat="48.22924" lon="-1.51485"><ele>95.01</ele></trkpt><trkpt lat="48.22873" lon="-1.5149"><ele>92.59</ele></trkpt><trkpt lat="48.22859" lon="-1.51495"><ele>91.87</ele></trkpt><trkpt lat="48.22845" lon="-1.51494"><ele>91.48</ele></trkpt><trkpt lat="48.22824" lon="-1.51485"><ele>91.46</ele></trkpt><trkpt lat="48.22801" lon="-1.51476"><ele>90.91</ele></trkpt><trkpt lat="48.22783" lon="-1.51473"><ele>90.95</ele></trkpt><trkpt lat="48.22767" lon="-1.51474"><ele>90.79</ele></trkpt><trkpt lat="48.22736" lon="-1.51491"><ele>91.5</ele></trkpt><trkpt lat="48.22721" lon="-1.51486"><ele>92.17</ele></trkpt><trkpt lat="48.22706" lon="-1.51473"><ele>93.27</ele></trkpt><trkpt lat="48.22669" lon="-1.51473"><ele>94.74</ele></trkpt><trkpt lat="48.22647" lon="-1.51469"><ele>95.99</ele></trkpt><trkpt lat="48.22629" lon="-1.51463"><ele>96.81</ele></trkpt><trkpt lat="48.2261" lon="-1.51454"><ele>97.88</ele></trkpt><trkpt lat="48.22599" lon="-1.51459"><ele>98.36</ele></trkpt><trkpt lat="48.22591" lon="-1.51464"><ele>98.75</ele></trkpt><trkpt lat="48.22588" lon="-1.51469"><ele>98.82</ele></trkpt><trkpt lat="48.2256" lon="-1.5144"><ele>99.8</ele></trkpt><trkpt lat="48.22555" lon="-1.51455"><ele>99.57</ele></trkpt><trkpt lat="48.22552" lon="-1.51462"><ele>99.22</ele></trkpt><trkpt lat="48.22542" lon="-1.51485"><ele>98.01</ele></trkpt><trkpt lat="48.22534" lon="-1.51505"><ele>97.31</ele></trkpt><trkpt lat="48.22528" lon="-1.5151"><ele>97.15</ele></trkpt><trkpt lat="48.22526" lon="-1.51515"><ele>96.96</ele></trkpt><trkpt lat="48.22529" lon="-1.51546"><ele>95.33</ele></trkpt><trkpt lat="48.22526" lon="-1.51553"><ele>94.84</ele></trkpt><trkpt lat="48.22522" lon="-1.51559"><ele>94.62</ele></trkpt><trkpt lat="48.22504" lon="-1.51568"><ele>94.44</ele></trkpt><trkpt lat="48.22498" lon="-1.51571"><ele>94.3</ele></trkpt><trkpt lat="48.22491" lon="-1.51578"><ele>93.95</ele></trkpt><trkpt lat="48.22477" lon="-1.51594"><ele>92.98</ele></trkpt><trkpt lat="48.22473" lon="-1.51602"><ele>92.5</ele></trkpt><trkpt lat="48.22468" lon="-1.51619"><ele>91.67</ele></trkpt><trkpt lat="48.22468" lon="-1.51627"><ele>91.17</ele></trkpt><trkpt lat="48.22468" lon="-1.5164"><ele>90.45</ele></trkpt><trkpt lat="48.22466" lon="-1.51651"><ele>90.01</ele></trkpt><trkpt lat="48.22465" lon="-1.51655"><ele>89.97</ele></trkpt><trkpt lat="48.22462" lon="-1.51662"><ele>89.93</ele></trkpt><trkpt lat="48.22462" lon="-1.51667"><ele>89.91</ele></trkpt><trkpt lat="48.22462" lon="-1.51673"><ele>89.87</ele></trkpt><trkpt lat="48.22461" lon="-1.51677"><ele>90.03</ele></trkpt><trkpt lat="48.22459" lon="-1.51681"><ele>90.03</ele></trkpt><trkpt lat="48.2245" lon="-1.51695"><ele>90.39</ele></trkpt><trkpt lat="48.22447" lon="-1.51713"><ele>90.6</ele></trkpt><trkpt lat="48.22411" lon="-1.51767"><ele>91.87</ele></trkpt><trkpt lat="48.22406" lon="-1.51763"><ele>91.97</ele></trkpt><trkpt lat="48.22398" lon="-1.5176"><ele>92</ele></trkpt><trkpt lat="48.2239" lon="-1.51756"><ele>92.02</ele></trkpt><trkpt lat="48.22385" lon="-1.51751"><ele>92.14</ele></trkpt><trkpt lat="48.22385" lon="-1.5174"><ele>92.16</ele></trkpt><trkpt lat="48.22386" lon="-1.5172"><ele>92.19</ele></trkpt><trkpt lat="48.22391" lon="-1.51695"><ele>92.07</ele></trkpt><trkpt lat="48.22406" lon="-1.51668"><ele>91.35</ele></trkpt><trkpt lat="48.2241" lon="-1.51662"><ele>91.35</ele></trkpt><trkpt lat="48.22411" lon="-1.51655"><ele>91.18</ele></trkpt><trkpt lat="48.22413" lon="-1.51654"><ele>91.19</ele></trkpt><trkpt lat="48.22414" lon="-1.51648"><ele>91.21</ele></trkpt><trkpt lat="48.22415" lon="-1.5164"><ele>91.14</ele></trkpt><trkpt lat="48.22411" lon="-1.51628"><ele>91.54</ele></trkpt><trkpt lat="48.22402" lon="-1.51608"><ele>91.96</ele></trkpt><trkpt lat="48.224" lon="-1.51601"><ele>92</ele></trkpt><trkpt lat="48.224" lon="-1.51595"><ele>92</ele></trkpt><trkpt lat="48.22402" lon="-1.5159"><ele>92</ele></trkpt><trkpt lat="48.22406" lon="-1.51588"><ele>92</ele></trkpt><trkpt lat="48.22411" lon="-1.51581"><ele>92.05</ele></trkpt><trkpt lat="48.22413" lon="-1.51576"><ele>92.15</ele></trkpt><trkpt lat="48.22408" lon="-1.51568"><ele>92.36</ele></trkpt><trkpt lat="48.224" lon="-1.51561"><ele>92.38</ele></trkpt><trkpt lat="48.2239" lon="-1.51556"><ele>92.57</ele></trkpt><trkpt lat="48.22385" lon="-1.51559"><ele>92.68</ele></trkpt><trkpt lat="48.2238" lon="-1.51564"><ele>92.89</ele></trkpt><trkpt lat="48.22376" lon="-1.51569"><ele>92.84</ele></trkpt><trkpt lat="48.22369" lon="-1.51577"><ele>93.13</ele></trkpt><trkpt lat="48.22363" lon="-1.51583"><ele>93.23</ele></trkpt><trkpt lat="48.22357" lon="-1.51577"><ele>93.54</ele></trkpt><trkpt lat="48.22352" lon="-1.51575"><ele>93.72</ele></trkpt><trkpt lat="48.22346" lon="-1.51575"><ele>93.79</ele></trkpt><trkpt lat="48.22335" lon="-1.51568"><ele>94.08</ele></trkpt><trkpt lat="48.22316" lon="-1.51551"><ele>94.75</ele></trkpt><trkpt lat="48.22296" lon="-1.51513"><ele>95.53</ele></trkpt><trkpt lat="48.22296" lon="-1.51488"><ele>95.6</ele></trkpt><trkpt lat="48.22294" lon="-1.51467"><ele>95.72</ele></trkpt><trkpt lat="48.2229" lon="-1.51454"><ele>95.69</ele></trkpt><trkpt lat="48.22278" lon="-1.51465"><ele>95.9</ele></trkpt><trkpt lat="48.22269" lon="-1.51472"><ele>96.03</ele></trkpt><trkpt lat="48.22249" lon="-1.51487"><ele>96.38</ele></trkpt><trkpt lat="48.22208" lon="-1.51519"><ele>97.06</ele></trkpt><trkpt lat="48.22175" lon="-1.51547"><ele>97.55</ele></trkpt><trkpt lat="48.22164" lon="-1.51556"><ele>97.8</ele></trkpt><trkpt lat="48.22155" lon="-1.51563"><ele>98.08</ele></trkpt><trkpt lat="48.22149" lon="-1.51565"><ele>98.32</ele></trkpt><trkpt lat="48.22144" lon="-1.51567"><ele>98.49</ele></trkpt><trkpt lat="48.2213" lon="-1.5157"><ele>98.62</ele></trkpt><trkpt lat="48.22119" lon="-1.51571"><ele>98.69</ele></trkpt><trkpt lat="48.221" lon="-1.51574"><ele>98.99</ele></trkpt><trkpt lat="48.22079" lon="-1.51575"><ele>99.3</ele></trkpt></trkseg></trk></gpx>
