<?xml version="1.0" encoding="UTF-8" standalone="no"?>
<gpx xmlns="http://www.topografix.com/GPX/1/1" version="1.1" xmlns:xsi="http://www.w3.org/2001/XMLSchema-instance" xsi:schemaLocation="http://www.topografix.com/GPX/1/1 http://www.topografix.com/GPX/1/1/gpx.xsd" creator="Cirkwi"><metadata><name><![CDATA[Saint Aubin du Cormier : La Médiévale]]></name><desc><![CDATA[La commune de St Aubin du Cormier possède un patrimoine très riche dans sa diversité et couvrant plusieurs siècles d'histoire. Son site historique et ses vestiges dominent l'étang.]]></desc><author><name><![CDATA[Club Aubinois]]></name></author><link href="http://fichier0.cirkwi.com/image/photo/circuit/1300x1300/198436/fr/0.jpg"><text><![CDATA[|]]></text></link><time>2024-12-23T16:49:12Z</time></metadata><wpt lat="48.2602914" lon="-1.3997912"><ele>111</ele><name><![CDATA[Le départ]]></name><desc><![CDATA[Fléchage GR et PR sur la fin (jaune) Dans le bourg se St Aubin, stationner sur la place de la mairie. Se diriger vers l'église et prendre la rue du château. En allant tout droit rejoindre le GR37 qui fait passer devant les ruines du donjon, dans le parc du château puis dans la forêt. Au printemps peut-être verrez vous des orchis à 2 feuilles (à ne pas cueillir). En ayant suivi le GR et après 2.5km environ, rejoindre la Roche Piquée.]]></desc></wpt><wpt lat="48.2578343" lon="-1.3606954"><ele>109</ele><name><![CDATA[Étape 2]]></name><desc><![CDATA[En restant sur le GR37 emprunter le chemin qui mène à la D103 et prendre la D103 à droite]]></desc></wpt><wpt lat="48.2487261" lon="-1.3613176"><ele>110</ele><name><![CDATA[Étape 3]]></name><desc><![CDATA[Au carrefour continuer tout droit Aux Landelles, emprunter le chemin sur la gauche et suivre le GR37]]></desc></wpt><wpt lat="48.24687" lon="-1.35203"><ele>0</ele><name><![CDATA[Étape 4]]></name><desc><![CDATA[Prendre la direction Forêt de Liffré Suivre le GR39a pendant 2 km]]></desc></wpt><wpt lat="48.2373653" lon="-1.3909721"><ele>117</ele><name><![CDATA[Étape 5]]></name><desc><![CDATA[Sur la droite suivre le chemin, traverser la D794 et appuyez sur la route de droite qui remonte vers St Aubin]]></desc></wpt><wpt lat="48.2548269" lon="-1.3892555"><ele>111</ele><name><![CDATA[Étape 6]]></name><desc><![CDATA[Prendre à gauche puis à droite allée des cormiers à gauche allée du pré d'Antuère rejoindre l'étang]]></desc></wpt><trk><trkseg><trkpt lat="48.26021" lon="-1.40004"><ele>112.33</ele></trkpt><trkpt lat="48.26029" lon="-1.39979"><ele>112.42</ele></trkpt><trkpt lat="48.26031" lon="-1.39965"><ele>112.33</ele></trkpt><trkpt lat="48.26049" lon="-1.39817"><ele>110.03</ele></trkpt><trkpt lat="48.26096" lon="-1.39821"><ele>113.05</ele></trkpt><trkpt lat="48.26094" lon="-1.3979"><ele>113.44</ele></trkpt><trkpt lat="48.26132" lon="-1.39775"><ele>117.42</ele></trkpt><trkpt lat="48.26145" lon="-1.39768"><ele>116.48</ele></trkpt><trkpt lat="48.26157" lon="-1.39785"><ele>113.25</ele></trkpt><trkpt lat="48.26163" lon="-1.39721"><ele>110.75</ele></trkpt><trkpt lat="48.26154" lon="-1.39645"><ele>111.64</ele></trkpt><trkpt lat="48.26096" lon="-1.39607"><ele>112.17</ele></trkpt><trkpt lat="48.26128" lon="-1.39494"><ele>111.82</ele></trkpt><trkpt lat="48.26094" lon="-1.39443"><ele>109.58</ele></trkpt><trkpt lat="48.26084" lon="-1.39355"><ele>105.65</ele></trkpt><trkpt lat="48.26057" lon="-1.39306"><ele>107.14</ele></trkpt><trkpt lat="48.2607" lon="-1.39258"><ele>105.75</ele></trkpt><trkpt lat="48.2608" lon="-1.39167"><ele>101.16</ele></trkpt><trkpt lat="48.26071" lon="-1.39055"><ele>102.92</ele></trkpt><trkpt lat="48.26085" lon="-1.3887"><ele>102.42</ele></trkpt><trkpt lat="48.26078" lon="-1.38842"><ele>104.15</ele></trkpt><trkpt lat="48.26093" lon="-1.38765"><ele>101.18</ele></trkpt><trkpt lat="48.2609" lon="-1.38612"><ele>101.28</ele></trkpt><trkpt lat="48.26078" lon="-1.38459"><ele>103.46</ele></trkpt><trkpt lat="48.26033" lon="-1.38273"><ele>112.2</ele></trkpt><trkpt lat="48.26059" lon="-1.38223"><ele>108.08</ele></trkpt><trkpt lat="48.26059" lon="-1.3822"><ele>108.23</ele></trkpt><trkpt lat="48.26059" lon="-1.38217"><ele>108.37</ele></trkpt><trkpt lat="48.2606" lon="-1.38214"><ele>108.37</ele></trkpt><trkpt lat="48.2606" lon="-1.38211"><ele>108.52</ele></trkpt><trkpt lat="48.26061" lon="-1.38207"><ele>108.67</ele></trkpt><trkpt lat="48.26061" lon="-1.38205"><ele>108.67</ele></trkpt><trkpt lat="48.26062" lon="-1.38202"><ele>108.82</ele></trkpt><trkpt lat="48.26063" lon="-1.38199"><ele>108.41</ele></trkpt><trkpt lat="48.26063" lon="-1.38196"><ele>108.41</ele></trkpt><trkpt lat="48.26063" lon="-1.38193"><ele>108.55</ele></trkpt><trkpt lat="48.26062" lon="-1.38191"><ele>109.26</ele></trkpt><trkpt lat="48.26063" lon="-1.38187"><ele>108.8</ele></trkpt><trkpt lat="48.26063" lon="-1.38185"><ele>108.8</ele></trkpt><trkpt lat="48.26063" lon="-1.38181"><ele>108.92</ele></trkpt><trkpt lat="48.26064" lon="-1.38178"><ele>109.03</ele></trkpt><trkpt lat="48.26066" lon="-1.38177"><ele>109.03</ele></trkpt><trkpt lat="48.26066" lon="-1.38174"><ele>109.13</ele></trkpt><trkpt lat="48.26066" lon="-1.38172"><ele>109.13</ele></trkpt><trkpt lat="48.26067" lon="-1.38169"><ele>108.57</ele></trkpt><trkpt lat="48.26067" lon="-1.38166"><ele>108.57</ele></trkpt><trkpt lat="48.26067" lon="-1.38163"><ele>108.65</ele></trkpt><trkpt lat="48.26067" lon="-1.38159"><ele>108.73</ele></trkpt><trkpt lat="48.26067" lon="-1.38155"><ele>108.79</ele></trkpt><trkpt lat="48.26068" lon="-1.38152"><ele>108.83</ele></trkpt><trkpt lat="48.26068" lon="-1.38149"><ele>108.83</ele></trkpt><trkpt lat="48.2607" lon="-1.38146"><ele>108.86</ele></trkpt><trkpt lat="48.26069" lon="-1.38142"><ele>108.89</ele></trkpt><trkpt lat="48.26069" lon="-1.38139"><ele>108.92</ele></trkpt><trkpt lat="48.2607" lon="-1.38136"><ele>108.92</ele></trkpt><trkpt lat="48.2607" lon="-1.38132"><ele>108.95</ele></trkpt><trkpt lat="48.2607" lon="-1.3813"><ele>108.97</ele></trkpt><trkpt lat="48.2607" lon="-1.38126"><ele>109</ele></trkpt><trkpt lat="48.2607" lon="-1.38123"><ele>109.03</ele></trkpt><trkpt lat="48.2607" lon="-1.38121"><ele>109.03</ele></trkpt><trkpt lat="48.26069" lon="-1.38117"><ele>109.06</ele></trkpt><trkpt lat="48.26069" lon="-1.38114"><ele>109.08</ele></trkpt><trkpt lat="48.26069" lon="-1.38112"><ele>109.08</ele></trkpt><trkpt lat="48.26069" lon="-1.3811"><ele>109.11</ele></trkpt><trkpt lat="48.26068" lon="-1.38106"><ele>109.11</ele></trkpt><trkpt lat="48.26068" lon="-1.38104"><ele>109.14</ele></trkpt><trkpt lat="48.26068" lon="-1.38101"><ele>109.17</ele></trkpt><trkpt lat="48.26067" lon="-1.38098"><ele>109.17</ele></trkpt><trkpt lat="48.26066" lon="-1.38096"><ele>109.95</ele></trkpt><trkpt lat="48.26065" lon="-1.38093"><ele>109.95</ele></trkpt><trkpt lat="48.26064" lon="-1.3809"><ele>109.95</ele></trkpt><trkpt lat="48.26064" lon="-1.38088"><ele>109.93</ele></trkpt><trkpt lat="48.26061" lon="-1.38085"><ele>110.73</ele></trkpt><trkpt lat="48.26059" lon="-1.38083"><ele>110.68</ele></trkpt><trkpt lat="48.26057" lon="-1.38081"><ele>111.57</ele></trkpt><trkpt lat="48.26056" lon="-1.38078"><ele>111.5</ele></trkpt><trkpt lat="48.26054" lon="-1.38074"><ele>111.41</ele></trkpt><trkpt lat="48.26054" lon="-1.38072"><ele>111.41</ele></trkpt><trkpt lat="48.26054" lon="-1.38069"><ele>111.32</ele></trkpt><trkpt lat="48.26055" lon="-1.38066"><ele>111.23</ele></trkpt><trkpt lat="48.26054" lon="-1.38064"><ele>111.23</ele></trkpt><trkpt lat="48.26054" lon="-1.38062"><ele>111.14</ele></trkpt><trkpt lat="48.26054" lon="-1.38058"><ele>111.04</ele></trkpt><trkpt lat="48.26053" lon="-1.38055"><ele>112.01</ele></trkpt><trkpt lat="48.26053" lon="-1.38052"><ele>111.92</ele></trkpt><trkpt lat="48.26053" lon="-1.3805"><ele>111.82</ele></trkpt><trkpt lat="48.26052" lon="-1.38048"><ele>111.82</ele></trkpt><trkpt lat="48.26051" lon="-1.38046"><ele>111.82</ele></trkpt><trkpt lat="48.2605" lon="-1.38043"><ele>111.73</ele></trkpt><trkpt lat="48.2605" lon="-1.3804"><ele>111.64</ele></trkpt><trkpt lat="48.26049" lon="-1.38038"><ele>112.61</ele></trkpt><trkpt lat="48.26048" lon="-1.38036"><ele>112.52</ele></trkpt><trkpt lat="48.26048" lon="-1.38033"><ele>112.52</ele></trkpt><trkpt lat="48.26047" lon="-1.38031"><ele>112.42</ele></trkpt><trkpt lat="48.26046" lon="-1.38028"><ele>112.34</ele></trkpt><trkpt lat="48.26044" lon="-1.38025"><ele>113.26</ele></trkpt><trkpt lat="48.26044" lon="-1.38022"><ele>113.17</ele></trkpt><trkpt lat="48.26043" lon="-1.3802"><ele>113.08</ele></trkpt><trkpt lat="48.26041" lon="-1.38016"><ele>113.08</ele></trkpt><trkpt lat="48.26041" lon="-1.38014"><ele>112.99</ele></trkpt><trkpt lat="48.26041" lon="-1.38012"><ele>112.99</ele></trkpt><trkpt lat="48.26041" lon="-1.38007"><ele>112.79</ele></trkpt><trkpt lat="48.26041" lon="-1.38004"><ele>112.79</ele></trkpt><trkpt lat="48.26042" lon="-1.38001"><ele>112.7</ele></trkpt><trkpt lat="48.26041" lon="-1.37998"><ele>112.6</ele></trkpt><trkpt lat="48.26041" lon="-1.37996"><ele>112.6</ele></trkpt><trkpt lat="48.2604" lon="-1.37993"><ele>113.38</ele></trkpt><trkpt lat="48.26039" lon="-1.3799"><ele>113.38</ele></trkpt><trkpt lat="48.26038" lon="-1.37987"><ele>113.29</ele></trkpt><trkpt lat="48.26039" lon="-1.37985"><ele>113.19</ele></trkpt><trkpt lat="48.26038" lon="-1.37982"><ele>113.19</ele></trkpt><trkpt lat="48.26037" lon="-1.37979"><ele>113.1</ele></trkpt><trkpt lat="48.26036" lon="-1.37976"><ele>113.82</ele></trkpt><trkpt lat="48.26033" lon="-1.37973"><ele>113.82</ele></trkpt><trkpt lat="48.26032" lon="-1.3797"><ele>114.51</ele></trkpt><trkpt lat="48.26031" lon="-1.37968"><ele>114.41</ele></trkpt><trkpt lat="48.2603" lon="-1.37964"><ele>114.32</ele></trkpt><trkpt lat="48.26028" lon="-1.37962"><ele>114.32</ele></trkpt><trkpt lat="48.26028" lon="-1.37959"><ele>114.23</ele></trkpt><trkpt lat="48.26027" lon="-1.37956"><ele>114.99</ele></trkpt><trkpt lat="48.26025" lon="-1.37954"><ele>114.92</ele></trkpt><trkpt lat="48.26024" lon="-1.37951"><ele>114.87</ele></trkpt><trkpt lat="48.26023" lon="-1.37948"><ele>115.59</ele></trkpt><trkpt lat="48.26022" lon="-1.37945"><ele>115.56</ele></trkpt><trkpt lat="48.26021" lon="-1.37941"><ele>115.55</ele></trkpt><trkpt lat="48.2602" lon="-1.37938"><ele>115.55</ele></trkpt><trkpt lat="48.26019" lon="-1.37936"><ele>116.19</ele></trkpt><trkpt lat="48.26019" lon="-1.37933"><ele>116.18</ele></trkpt><trkpt lat="48.26018" lon="-1.3793"><ele>116.18</ele></trkpt><trkpt lat="48.26017" lon="-1.37927"><ele>116.18</ele></trkpt><trkpt lat="48.26016" lon="-1.37925"><ele>116.19</ele></trkpt><trkpt lat="48.26015" lon="-1.37922"><ele>116.19</ele></trkpt><trkpt lat="48.26014" lon="-1.37919"><ele>116.69</ele></trkpt><trkpt lat="48.26014" lon="-1.37917"><ele>116.65</ele></trkpt><trkpt lat="48.26014" lon="-1.37915"><ele>116.65</ele></trkpt><trkpt lat="48.26013" lon="-1.37913"><ele>116.65</ele></trkpt><trkpt lat="48.26012" lon="-1.37911"><ele>116.65</ele></trkpt><trkpt lat="48.26012" lon="-1.37907"><ele>116.66</ele></trkpt><trkpt lat="48.26011" lon="-1.37904"><ele>116.67</ele></trkpt><trkpt lat="48.2601" lon="-1.37902"><ele>117.07</ele></trkpt><trkpt lat="48.26009" lon="-1.37899"><ele>117.08</ele></trkpt><trkpt lat="48.26009" lon="-1.37896"><ele>117.08</ele></trkpt><trkpt lat="48.26007" lon="-1.37893"><ele>117.1</ele></trkpt><trkpt lat="48.26007" lon="-1.37892"><ele>117.1</ele></trkpt><trkpt lat="48.26006" lon="-1.37889"><ele>117.48</ele></trkpt><trkpt lat="48.26004" lon="-1.37887"><ele>117.5</ele></trkpt><trkpt lat="48.26001" lon="-1.37884"><ele>117.87</ele></trkpt><trkpt lat="48.26" lon="-1.37883"><ele>117.87</ele></trkpt><trkpt lat="48.25999" lon="-1.37882"><ele>117.89</ele></trkpt><trkpt lat="48.25998" lon="-1.3788"><ele>117.89</ele></trkpt><trkpt lat="48.25996" lon="-1.37878"><ele>118.28</ele></trkpt><trkpt lat="48.25994" lon="-1.37876"><ele>118.28</ele></trkpt><trkpt lat="48.25993" lon="-1.37875"><ele>118.67</ele></trkpt><trkpt lat="48.25989" lon="-1.37873"><ele>119.07</ele></trkpt><trkpt lat="48.25988" lon="-1.37869"><ele>119.09</ele></trkpt><trkpt lat="48.25986" lon="-1.37867"><ele>119.09</ele></trkpt><trkpt lat="48.25985" lon="-1.37865"><ele>119.1</ele></trkpt><trkpt lat="48.25985" lon="-1.37864"><ele>119.1</ele></trkpt><trkpt lat="48.25984" lon="-1.37861"><ele>119.5</ele></trkpt><trkpt lat="48.25983" lon="-1.37859"><ele>119.5</ele></trkpt><trkpt lat="48.25982" lon="-1.37857"><ele>119.5</ele></trkpt><trkpt lat="48.2598" lon="-1.37855"><ele>119.81</ele></trkpt><trkpt lat="48.2598" lon="-1.37853"><ele>119.81</ele></trkpt><trkpt lat="48.25978" lon="-1.37849"><ele>119.8</ele></trkpt><trkpt lat="48.25978" lon="-1.37846"><ele>119.77</ele></trkpt><trkpt lat="48.25977" lon="-1.37844"><ele>119.71</ele></trkpt><trkpt lat="48.25977" lon="-1.37842"><ele>119.71</ele></trkpt><trkpt lat="48.25977" lon="-1.37827"><ele>119.45</ele></trkpt><trkpt lat="48.25975" lon="-1.37825"><ele>119.52</ele></trkpt><trkpt lat="48.25974" lon="-1.37823"><ele>119.52</ele></trkpt><trkpt lat="48.25974" lon="-1.37821"><ele>119.42</ele></trkpt><trkpt lat="48.25974" lon="-1.37819"><ele>119.42</ele></trkpt><trkpt lat="48.25972" lon="-1.37816"><ele>119.49</ele></trkpt><trkpt lat="48.25972" lon="-1.37814"><ele>119.42</ele></trkpt><trkpt lat="48.25972" lon="-1.37813"><ele>119.42</ele></trkpt><trkpt lat="48.25972" lon="-1.37809"><ele>119.35</ele></trkpt><trkpt lat="48.25971" lon="-1.37806"><ele>119.35</ele></trkpt><trkpt lat="48.25971" lon="-1.37803"><ele>119.29</ele></trkpt><trkpt lat="48.25971" lon="-1.37801"><ele>119.23</ele></trkpt><trkpt lat="48.2597" lon="-1.37799"><ele>119.23</ele></trkpt><trkpt lat="48.25969" lon="-1.37795"><ele>119.16</ele></trkpt><trkpt lat="48.25966" lon="-1.37786"><ele>119.35</ele></trkpt><trkpt lat="48.25965" lon="-1.37785"><ele>119.35</ele></trkpt><trkpt lat="48.25965" lon="-1.37783"><ele>119.28</ele></trkpt><trkpt lat="48.25965" lon="-1.37781"><ele>119.28</ele></trkpt><trkpt lat="48.25965" lon="-1.37778"><ele>119.2</ele></trkpt><trkpt lat="48.25964" lon="-1.37776"><ele>119.2</ele></trkpt><trkpt lat="48.25964" lon="-1.37774"><ele>119.08</ele></trkpt><trkpt lat="48.25963" lon="-1.37772"><ele>119.41</ele></trkpt><trkpt lat="48.25962" lon="-1.37771"><ele>119.27</ele></trkpt><trkpt lat="48.2596" lon="-1.37768"><ele>119.27</ele></trkpt><trkpt lat="48.2596" lon="-1.37766"><ele>119.09</ele></trkpt><trkpt lat="48.25959" lon="-1.37764"><ele>119.4</ele></trkpt><trkpt lat="48.25959" lon="-1.37761"><ele>119.19</ele></trkpt><trkpt lat="48.25959" lon="-1.37759"><ele>119.19</ele></trkpt><trkpt lat="48.25958" lon="-1.37755"><ele>118.98</ele></trkpt><trkpt lat="48.25957" lon="-1.37753"><ele>118.76</ele></trkpt><trkpt lat="48.25957" lon="-1.3775"><ele>118.76</ele></trkpt><trkpt lat="48.25956" lon="-1.37748"><ele>118.55</ele></trkpt><trkpt lat="48.25955" lon="-1.37746"><ele>118.55</ele></trkpt><trkpt lat="48.25954" lon="-1.37744"><ele>118.68</ele></trkpt><trkpt lat="48.25953" lon="-1.37742"><ele>118.68</ele></trkpt><trkpt lat="48.25951" lon="-1.37739"><ele>118.45</ele></trkpt><trkpt lat="48.25951" lon="-1.37737"><ele>118.45</ele></trkpt><trkpt lat="48.2595" lon="-1.37735"><ele>118.61</ele></trkpt><trkpt lat="48.25949" lon="-1.37733"><ele>118.61</ele></trkpt><trkpt lat="48.25948" lon="-1.3773"><ele>118.37</ele></trkpt><trkpt lat="48.25946" lon="-1.37727"><ele>118.53</ele></trkpt><trkpt lat="48.25945" lon="-1.37724"><ele>118.53</ele></trkpt><trkpt lat="48.25943" lon="-1.37722"><ele>118.29</ele></trkpt><trkpt lat="48.25943" lon="-1.3772"><ele>118.29</ele></trkpt><trkpt lat="48.25941" lon="-1.37718"><ele>118.46</ele></trkpt><trkpt lat="48.25941" lon="-1.37716"><ele>118.46</ele></trkpt><trkpt lat="48.25871" lon="-1.37538"><ele>118.57</ele></trkpt><trkpt lat="48.25865" lon="-1.37453"><ele>118.69</ele></trkpt><trkpt lat="48.25854" lon="-1.3738"><ele>119.08</ele></trkpt><trkpt lat="48.2586" lon="-1.37193"><ele>117.98</ele></trkpt><trkpt lat="48.25846" lon="-1.37012"><ele>117.94</ele></trkpt><trkpt lat="48.25798" lon="-1.37007"><ele>117.04</ele></trkpt><trkpt lat="48.25764" lon="-1.36646"><ele>115.99</ele></trkpt><trkpt lat="48.25706" lon="-1.36313"><ele>112.03</ele></trkpt><trkpt lat="48.25725" lon="-1.36313"><ele>114.24</ele></trkpt><trkpt lat="48.25759" lon="-1.36217"><ele>114.34</ele></trkpt><trkpt lat="48.25778" lon="-1.36102"><ele>111.2</ele></trkpt><trkpt lat="48.25783" lon="-1.3607"><ele>108.58</ele></trkpt><trkpt lat="48.25718" lon="-1.36049"><ele>103.4</ele></trkpt><trkpt lat="48.25703" lon="-1.36027"><ele>101.39</ele></trkpt><trkpt lat="48.25517" lon="-1.35978"><ele>98.53</ele></trkpt><trkpt lat="48.25445" lon="-1.3599"><ele>100.22</ele></trkpt><trkpt lat="48.25288" lon="-1.36038"><ele>103.77</ele></trkpt><trkpt lat="48.25066" lon="-1.36091"><ele>107.78</ele></trkpt><trkpt lat="48.24873" lon="-1.36132"><ele>109.99</ele></trkpt><trkpt lat="48.24828" lon="-1.35859"><ele>111.69</ele></trkpt><trkpt lat="48.24828" lon="-1.35856"><ele>111.7</ele></trkpt><trkpt lat="48.24827" lon="-1.35854"><ele>111.7</ele></trkpt><trkpt lat="48.24826" lon="-1.35852"><ele>111.72</ele></trkpt><trkpt lat="48.24826" lon="-1.35849"><ele>111.72</ele></trkpt><trkpt lat="48.24826" lon="-1.35846"><ele>111.79</ele></trkpt><trkpt lat="48.24825" lon="-1.35843"><ele>111.8</ele></trkpt><trkpt lat="48.24825" lon="-1.35841"><ele>111.8</ele></trkpt><trkpt lat="48.24825" lon="-1.35837"><ele>111.83</ele></trkpt><trkpt lat="48.24825" lon="-1.35835"><ele>111.9</ele></trkpt><trkpt lat="48.24824" lon="-1.35832"><ele>111.9</ele></trkpt><trkpt lat="48.24824" lon="-1.3583"><ele>111.9</ele></trkpt><trkpt lat="48.24823" lon="-1.35826"><ele>111.91</ele></trkpt><trkpt lat="48.24823" lon="-1.35824"><ele>111.91</ele></trkpt><trkpt lat="48.24822" lon="-1.35821"><ele>111.97</ele></trkpt><trkpt lat="48.24821" lon="-1.35819"><ele>111.97</ele></trkpt><trkpt lat="48.24821" lon="-1.35816"><ele>112</ele></trkpt><trkpt lat="48.24821" lon="-1.35813"><ele>112</ele></trkpt><trkpt lat="48.2482" lon="-1.35809"><ele>112</ele></trkpt><trkpt lat="48.2482" lon="-1.35806"><ele>112</ele></trkpt><trkpt lat="48.24819" lon="-1.35804"><ele>112</ele></trkpt><trkpt lat="48.24818" lon="-1.35801"><ele>112</ele></trkpt><trkpt lat="48.24819" lon="-1.35798"><ele>112</ele></trkpt><trkpt lat="48.24818" lon="-1.35795"><ele>112.05</ele></trkpt><trkpt lat="48.24817" lon="-1.35791"><ele>112.09</ele></trkpt><trkpt lat="48.24817" lon="-1.35789"><ele>112.09</ele></trkpt><trkpt lat="48.24817" lon="-1.35785"><ele>112.1</ele></trkpt><trkpt lat="48.24816" lon="-1.35782"><ele>112.1</ele></trkpt><trkpt lat="48.24815" lon="-1.35779"><ele>112.1</ele></trkpt><trkpt lat="48.24815" lon="-1.35777"><ele>112.1</ele></trkpt><trkpt lat="48.24814" lon="-1.35774"><ele>112.1</ele></trkpt><trkpt lat="48.24813" lon="-1.35771"><ele>112.1</ele></trkpt><trkpt lat="48.24813" lon="-1.35768"><ele>112.1</ele></trkpt><trkpt lat="48.24813" lon="-1.35765"><ele>112.12</ele></trkpt><trkpt lat="48.24813" lon="-1.35762"><ele>112.18</ele></trkpt><trkpt lat="48.24812" lon="-1.35759"><ele>112.18</ele></trkpt><trkpt lat="48.24811" lon="-1.35756"><ele>112.16</ele></trkpt><trkpt lat="48.2481" lon="-1.35754"><ele>112.11</ele></trkpt><trkpt lat="48.24809" lon="-1.35752"><ele>112.1</ele></trkpt><trkpt lat="48.24809" lon="-1.35749"><ele>112.1</ele></trkpt><trkpt lat="48.24808" lon="-1.35747"><ele>112.1</ele></trkpt><trkpt lat="48.24808" lon="-1.35743"><ele>112.1</ele></trkpt><trkpt lat="48.24807" lon="-1.3574"><ele>112.1</ele></trkpt><trkpt lat="48.24808" lon="-1.35738"><ele>112.1</ele></trkpt><trkpt lat="48.24808" lon="-1.35734"><ele>112.1</ele></trkpt><trkpt lat="48.24807" lon="-1.35733"><ele>112.1</ele></trkpt><trkpt lat="48.24806" lon="-1.3573"><ele>112.1</ele></trkpt><trkpt lat="48.24805" lon="-1.35727"><ele>112.1</ele></trkpt><trkpt lat="48.24805" lon="-1.35724"><ele>112.1</ele></trkpt><trkpt lat="48.24805" lon="-1.35721"><ele>112.1</ele></trkpt><trkpt lat="48.24805" lon="-1.35717"><ele>112.1</ele></trkpt><trkpt lat="48.24805" lon="-1.35714"><ele>112.1</ele></trkpt><trkpt lat="48.24804" lon="-1.35712"><ele>112.1</ele></trkpt><trkpt lat="48.24804" lon="-1.35709"><ele>112.1</ele></trkpt><trkpt lat="48.24803" lon="-1.35706"><ele>112.1</ele></trkpt><trkpt lat="48.24802" lon="-1.35703"><ele>112.1</ele></trkpt><trkpt lat="48.24802" lon="-1.357"><ele>112.1</ele></trkpt><trkpt lat="48.24802" lon="-1.35698"><ele>112.13</ele></trkpt><trkpt lat="48.24801" lon="-1.35694"><ele>112.19</ele></trkpt><trkpt lat="48.248" lon="-1.35692"><ele>112.2</ele></trkpt><trkpt lat="48.24799" lon="-1.3569"><ele>112.2</ele></trkpt><trkpt lat="48.24799" lon="-1.35686"><ele>112.2</ele></trkpt><trkpt lat="48.24799" lon="-1.35684"><ele>112.2</ele></trkpt><trkpt lat="48.24798" lon="-1.35681"><ele>112.2</ele></trkpt><trkpt lat="48.24798" lon="-1.35677"><ele>112.2</ele></trkpt><trkpt lat="48.24798" lon="-1.35674"><ele>112.24</ele></trkpt><trkpt lat="48.24797" lon="-1.35672"><ele>112.29</ele></trkpt><trkpt lat="48.24797" lon="-1.35669"><ele>112.29</ele></trkpt><trkpt lat="48.24796" lon="-1.35666"><ele>112.3</ele></trkpt><trkpt lat="48.24796" lon="-1.35664"><ele>112.3</ele></trkpt><trkpt lat="48.24796" lon="-1.35661"><ele>112.3</ele></trkpt><trkpt lat="48.24796" lon="-1.35658"><ele>112.3</ele></trkpt><trkpt lat="48.24795" lon="-1.35654"><ele>112.34</ele></trkpt><trkpt lat="48.24795" lon="-1.35651"><ele>112.4</ele></trkpt><trkpt lat="48.24794" lon="-1.3565"><ele>112.4</ele></trkpt><trkpt lat="48.24794" lon="-1.35647"><ele>112.4</ele></trkpt><trkpt lat="48.24793" lon="-1.35644"><ele>112.4</ele></trkpt><trkpt lat="48.24793" lon="-1.35641"><ele>112.4</ele></trkpt><trkpt lat="48.24792" lon="-1.35638"><ele>112.45</ele></trkpt><trkpt lat="48.24792" lon="-1.35635"><ele>112.45</ele></trkpt><trkpt lat="48.24791" lon="-1.35632"><ele>112.55</ele></trkpt><trkpt lat="48.24791" lon="-1.35629"><ele>112.66</ele></trkpt><trkpt lat="48.2479" lon="-1.35626"><ele>112.66</ele></trkpt><trkpt lat="48.24789" lon="-1.35623"><ele>112.76</ele></trkpt><trkpt lat="48.24789" lon="-1.3562"><ele>112.79</ele></trkpt><trkpt lat="48.24789" lon="-1.35617"><ele>112.79</ele></trkpt><trkpt lat="48.24789" lon="-1.35615"><ele>112.76</ele></trkpt><trkpt lat="48.24789" lon="-1.35612"><ele>112.68</ele></trkpt><trkpt lat="48.24789" lon="-1.3561"><ele>112.68</ele></trkpt><trkpt lat="48.24788" lon="-1.35607"><ele>112.61</ele></trkpt><trkpt lat="48.24788" lon="-1.35605"><ele>112.61</ele></trkpt><trkpt lat="48.24787" lon="-1.35603"><ele>112.6</ele></trkpt><trkpt lat="48.24786" lon="-1.356"><ele>112.6</ele></trkpt><trkpt lat="48.24785" lon="-1.35598"><ele>112.6</ele></trkpt><trkpt lat="48.24785" lon="-1.35596"><ele>112.6</ele></trkpt><trkpt lat="48.24784" lon="-1.35593"><ele>112.6</ele></trkpt><trkpt lat="48.24784" lon="-1.35589"><ele>112.6</ele></trkpt><trkpt lat="48.24784" lon="-1.35585"><ele>112.62</ele></trkpt><trkpt lat="48.24784" lon="-1.35582"><ele>112.69</ele></trkpt><trkpt lat="48.24784" lon="-1.3558"><ele>112.69</ele></trkpt><trkpt lat="48.24782" lon="-1.35578"><ele>112.7</ele></trkpt><trkpt lat="48.24781" lon="-1.35576"><ele>112.7</ele></trkpt><trkpt lat="48.24781" lon="-1.35573"><ele>112.7</ele></trkpt><trkpt lat="48.2478" lon="-1.35571"><ele>112.7</ele></trkpt><trkpt lat="48.2478" lon="-1.35568"><ele>112.7</ele></trkpt><trkpt lat="48.2478" lon="-1.35565"><ele>112.7</ele></trkpt><trkpt lat="48.24779" lon="-1.35562"><ele>112.71</ele></trkpt><trkpt lat="48.24778" lon="-1.35558"><ele>112.78</ele></trkpt><trkpt lat="48.24778" lon="-1.35556"><ele>112.8</ele></trkpt><trkpt lat="48.24777" lon="-1.35552"><ele>112.8</ele></trkpt><trkpt lat="48.24777" lon="-1.3555"><ele>112.8</ele></trkpt><trkpt lat="48.24777" lon="-1.35547"><ele>112.81</ele></trkpt><trkpt lat="48.24777" lon="-1.35545"><ele>112.81</ele></trkpt><trkpt lat="48.24776" lon="-1.35541"><ele>112.88</ele></trkpt><trkpt lat="48.24776" lon="-1.35539"><ele>112.9</ele></trkpt><trkpt lat="48.24775" lon="-1.35536"><ele>112.9</ele></trkpt><trkpt lat="48.24774" lon="-1.35533"><ele>112.95</ele></trkpt><trkpt lat="48.24774" lon="-1.3553"><ele>113</ele></trkpt><trkpt lat="48.24774" lon="-1.35527"><ele>113</ele></trkpt><trkpt lat="48.24773" lon="-1.35524"><ele>113</ele></trkpt><trkpt lat="48.24772" lon="-1.35521"><ele>113</ele></trkpt><trkpt lat="48.24771" lon="-1.35518"><ele>113.03</ele></trkpt><trkpt lat="48.24771" lon="-1.35514"><ele>113.03</ele></trkpt><trkpt lat="48.2477" lon="-1.35512"><ele>113</ele></trkpt><trkpt lat="48.2477" lon="-1.35507"><ele>113</ele></trkpt><trkpt lat="48.24769" lon="-1.35505"><ele>113</ele></trkpt><trkpt lat="48.24769" lon="-1.35502"><ele>113</ele></trkpt><trkpt lat="48.24768" lon="-1.35499"><ele>113</ele></trkpt><trkpt lat="48.24768" lon="-1.35497"><ele>113</ele></trkpt><trkpt lat="48.24767" lon="-1.35494"><ele>113.02</ele></trkpt><trkpt lat="48.24767" lon="-1.35492"><ele>113.08</ele></trkpt><trkpt lat="48.24767" lon="-1.35488"><ele>113.1</ele></trkpt><trkpt lat="48.24767" lon="-1.35485"><ele>113.1</ele></trkpt><trkpt lat="48.24767" lon="-1.35482"><ele>113.1</ele></trkpt><trkpt lat="48.24767" lon="-1.35478"><ele>113.1</ele></trkpt><trkpt lat="48.24767" lon="-1.35475"><ele>113.1</ele></trkpt><trkpt lat="48.24766" lon="-1.35471"><ele>113.1</ele></trkpt><trkpt lat="48.24765" lon="-1.35469"><ele>113.14</ele></trkpt><trkpt lat="48.24765" lon="-1.35467"><ele>113.14</ele></trkpt><trkpt lat="48.24764" lon="-1.35462"><ele>113.2</ele></trkpt><trkpt lat="48.24763" lon="-1.3546"><ele>113.2</ele></trkpt><trkpt lat="48.24763" lon="-1.35457"><ele>113.2</ele></trkpt><trkpt lat="48.24763" lon="-1.35454"><ele>113.2</ele></trkpt><trkpt lat="48.24762" lon="-1.35451"><ele>113.2</ele></trkpt><trkpt lat="48.24762" lon="-1.35448"><ele>113.2</ele></trkpt><trkpt lat="48.24761" lon="-1.35445"><ele>113.24</ele></trkpt><trkpt lat="48.24761" lon="-1.35442"><ele>113.24</ele></trkpt><trkpt lat="48.2476" lon="-1.35439"><ele>113.3</ele></trkpt><trkpt lat="48.2476" lon="-1.35437"><ele>113.3</ele></trkpt><trkpt lat="48.24759" lon="-1.35435"><ele>113.3</ele></trkpt><trkpt lat="48.24759" lon="-1.35431"><ele>113.3</ele></trkpt><trkpt lat="48.24758" lon="-1.35428"><ele>113.3</ele></trkpt><trkpt lat="48.24757" lon="-1.35425"><ele>113.3</ele></trkpt><trkpt lat="48.24757" lon="-1.35421"><ele>113.3</ele></trkpt><trkpt lat="48.24757" lon="-1.35418"><ele>113.3</ele></trkpt><trkpt lat="48.24755" lon="-1.35416"><ele>113.3</ele></trkpt><trkpt lat="48.24755" lon="-1.35414"><ele>113.3</ele></trkpt><trkpt lat="48.24754" lon="-1.3541"><ele>113.3</ele></trkpt><trkpt lat="48.24754" lon="-1.35408"><ele>113.3</ele></trkpt><trkpt lat="48.24754" lon="-1.35405"><ele>113.3</ele></trkpt><trkpt lat="48.24754" lon="-1.35403"><ele>113.3</ele></trkpt><trkpt lat="48.24753" lon="-1.35399"><ele>113.24</ele></trkpt><trkpt lat="48.24754" lon="-1.35396"><ele>113.3</ele></trkpt><trkpt lat="48.24753" lon="-1.35393"><ele>113.27</ele></trkpt><trkpt lat="48.24752" lon="-1.3539"><ele>113.27</ele></trkpt><trkpt lat="48.24752" lon="-1.35386"><ele>113.29</ele></trkpt><trkpt lat="48.24752" lon="-1.35382"><ele>113.32</ele></trkpt><trkpt lat="48.24751" lon="-1.3538"><ele>113.37</ele></trkpt><trkpt lat="48.24751" lon="-1.35376"><ele>113.4</ele></trkpt><trkpt lat="48.24751" lon="-1.35373"><ele>113.4</ele></trkpt><trkpt lat="48.24751" lon="-1.3537"><ele>113.43</ele></trkpt><trkpt lat="48.24751" lon="-1.35368"><ele>113.43</ele></trkpt><trkpt lat="48.2475" lon="-1.35365"><ele>113.46</ele></trkpt><trkpt lat="48.24749" lon="-1.35362"><ele>113.48</ele></trkpt><trkpt lat="48.24749" lon="-1.35359"><ele>113.48</ele></trkpt><trkpt lat="48.24749" lon="-1.35356"><ele>113.48</ele></trkpt><trkpt lat="48.24749" lon="-1.35354"><ele>113.42</ele></trkpt><trkpt lat="48.24748" lon="-1.35351"><ele>113.4</ele></trkpt><trkpt lat="48.24748" lon="-1.35347"><ele>113.4</ele></trkpt><trkpt lat="48.24747" lon="-1.35344"><ele>113.4</ele></trkpt><trkpt lat="48.24747" lon="-1.3534"><ele>113.4</ele></trkpt><trkpt lat="48.24747" lon="-1.35337"><ele>113.4</ele></trkpt><trkpt lat="48.24746" lon="-1.35335"><ele>113.4</ele></trkpt><trkpt lat="48.24746" lon="-1.35332"><ele>113.4</ele></trkpt><trkpt lat="48.24746" lon="-1.35329"><ele>113.39</ele></trkpt><trkpt lat="48.24746" lon="-1.35326"><ele>113.39</ele></trkpt><trkpt lat="48.24745" lon="-1.35323"><ele>113.39</ele></trkpt><trkpt lat="48.24744" lon="-1.3532"><ele>113.48</ele></trkpt><trkpt lat="48.24687" lon="-1.35203"><ele>112.8</ele></trkpt><trkpt lat="48.24615" lon="-1.35306"><ele>111.8</ele></trkpt><trkpt lat="48.24522" lon="-1.35355"><ele>112.1</ele></trkpt><trkpt lat="48.2452" lon="-1.35356"><ele>112.12</ele></trkpt><trkpt lat="48.24519" lon="-1.35357"><ele>112.12</ele></trkpt><trkpt lat="48.24516" lon="-1.35357"><ele>112.19</ele></trkpt><trkpt lat="48.24514" lon="-1.35358"><ele>112.19</ele></trkpt><trkpt lat="48.24512" lon="-1.35358"><ele>112.2</ele></trkpt><trkpt lat="48.24509" lon="-1.35359"><ele>112.2</ele></trkpt><trkpt lat="48.24508" lon="-1.35359"><ele>112.2</ele></trkpt><trkpt lat="48.24507" lon="-1.3536"><ele>112.23</ele></trkpt><trkpt lat="48.24504" lon="-1.35361"><ele>112.29</ele></trkpt><trkpt lat="48.24501" lon="-1.35362"><ele>112.29</ele></trkpt><trkpt lat="48.24499" lon="-1.35364"><ele>112.3</ele></trkpt><trkpt lat="48.24497" lon="-1.35364"><ele>112.3</ele></trkpt><trkpt lat="48.24495" lon="-1.35366"><ele>112.3</ele></trkpt><trkpt lat="48.24492" lon="-1.35368"><ele>112.3</ele></trkpt><trkpt lat="48.2449" lon="-1.35371"><ele>112.3</ele></trkpt><trkpt lat="48.24487" lon="-1.35371"><ele>112.36</ele></trkpt><trkpt lat="48.24484" lon="-1.35372"><ele>112.36</ele></trkpt><trkpt lat="48.2448" lon="-1.35371"><ele>112.4</ele></trkpt><trkpt lat="48.24478" lon="-1.35373"><ele>112.4</ele></trkpt><trkpt lat="48.24477" lon="-1.35375"><ele>112.4</ele></trkpt><trkpt lat="48.24475" lon="-1.35375"><ele>112.4</ele></trkpt><trkpt lat="48.24473" lon="-1.35376"><ele>112.4</ele></trkpt><trkpt lat="48.2447" lon="-1.35378"><ele>112.4</ele></trkpt><trkpt lat="48.24468" lon="-1.35379"><ele>112.4</ele></trkpt><trkpt lat="48.24467" lon="-1.35379"><ele>112.4</ele></trkpt><trkpt lat="48.24466" lon="-1.3538"><ele>112.4</ele></trkpt><trkpt lat="48.24463" lon="-1.35381"><ele>112.44</ele></trkpt><trkpt lat="48.24461" lon="-1.35382"><ele>112.5</ele></trkpt><trkpt lat="48.24459" lon="-1.35384"><ele>112.5</ele></trkpt><trkpt lat="48.24457" lon="-1.35385"><ele>112.5</ele></trkpt><trkpt lat="48.24456" lon="-1.35385"><ele>112.5</ele></trkpt><trkpt lat="48.24454" lon="-1.35385"><ele>112.5</ele></trkpt><trkpt lat="48.24451" lon="-1.35386"><ele>112.5</ele></trkpt><trkpt lat="48.24449" lon="-1.35387"><ele>112.5</ele></trkpt><trkpt lat="48.24447" lon="-1.35388"><ele>112.5</ele></trkpt><trkpt lat="48.24445" lon="-1.3539"><ele>112.5</ele></trkpt><trkpt lat="48.24443" lon="-1.35391"><ele>112.44</ele></trkpt><trkpt lat="48.24441" lon="-1.35393"><ele>112.44</ele></trkpt><trkpt lat="48.2444" lon="-1.35394"><ele>112.39</ele></trkpt><trkpt lat="48.24438" lon="-1.35395"><ele>112.39</ele></trkpt><trkpt lat="48.24436" lon="-1.35396"><ele>112.39</ele></trkpt><trkpt lat="48.24434" lon="-1.35398"><ele>112.3</ele></trkpt><trkpt lat="48.24432" lon="-1.35398"><ele>112.3</ele></trkpt><trkpt lat="48.2443" lon="-1.35399"><ele>112.26</ele></trkpt><trkpt lat="48.24428" lon="-1.354"><ele>112.26</ele></trkpt><trkpt lat="48.24426" lon="-1.35401"><ele>112.2</ele></trkpt><trkpt lat="48.24423" lon="-1.35401"><ele>112.2</ele></trkpt><trkpt lat="48.24421" lon="-1.35401"><ele>112.18</ele></trkpt><trkpt lat="48.24418" lon="-1.35402"><ele>112.11</ele></trkpt><trkpt lat="48.24416" lon="-1.35403"><ele>112.1</ele></trkpt><trkpt lat="48.24414" lon="-1.35403"><ele>112.08</ele></trkpt><trkpt lat="48.24412" lon="-1.35404"><ele>112.08</ele></trkpt><trkpt lat="48.2441" lon="-1.35405"><ele>112.08</ele></trkpt><trkpt lat="48.24408" lon="-1.35406"><ele>112.01</ele></trkpt><trkpt lat="48.24406" lon="-1.35407"><ele>112</ele></trkpt><trkpt lat="48.24404" lon="-1.35409"><ele>111.92</ele></trkpt><trkpt lat="48.24402" lon="-1.35409"><ele>111.92</ele></trkpt><trkpt lat="48.24399" lon="-1.35411"><ele>111.8</ele></trkpt><trkpt lat="48.24397" lon="-1.35412"><ele>111.68</ele></trkpt><trkpt lat="48.24394" lon="-1.35413"><ele>111.68</ele></trkpt><trkpt lat="48.24393" lon="-1.35413"><ele>111.68</ele></trkpt><trkpt lat="48.24391" lon="-1.35413"><ele>111.56</ele></trkpt><trkpt lat="48.24389" lon="-1.35414"><ele>111.56</ele></trkpt><trkpt lat="48.24386" lon="-1.35415"><ele>111.43</ele></trkpt><trkpt lat="48.24384" lon="-1.35416"><ele>111.31</ele></trkpt><trkpt lat="48.24383" lon="-1.35417"><ele>111.31</ele></trkpt><trkpt lat="48.2438" lon="-1.35418"><ele>111.31</ele></trkpt><trkpt lat="48.24378" lon="-1.3542"><ele>111.19</ele></trkpt><trkpt lat="48.24376" lon="-1.35419"><ele>111.2</ele></trkpt><trkpt lat="48.24374" lon="-1.35419"><ele>111.11</ele></trkpt><trkpt lat="48.24371" lon="-1.35421"><ele>111.01</ele></trkpt><trkpt lat="48.24368" lon="-1.35421"><ele>111.01</ele></trkpt><trkpt lat="48.24366" lon="-1.35422"><ele>110.93</ele></trkpt><trkpt lat="48.24363" lon="-1.35422"><ele>110.93</ele></trkpt><trkpt lat="48.24361" lon="-1.35423"><ele>110.85</ele></trkpt><trkpt lat="48.24359" lon="-1.35424"><ele>110.83</ele></trkpt><trkpt lat="48.24357" lon="-1.35425"><ele>110.75</ele></trkpt><trkpt lat="48.24355" lon="-1.35425"><ele>110.75</ele></trkpt><trkpt lat="48.24352" lon="-1.35426"><ele>110.67</ele></trkpt><trkpt lat="48.2435" lon="-1.35426"><ele>110.67</ele></trkpt><trkpt lat="48.24348" lon="-1.35427"><ele>110.56</ele></trkpt><trkpt lat="48.24346" lon="-1.35427"><ele>110.56</ele></trkpt><trkpt lat="48.24344" lon="-1.35427"><ele>110.42</ele></trkpt><trkpt lat="48.24343" lon="-1.35428"><ele>110.42</ele></trkpt><trkpt lat="48.2434" lon="-1.35429"><ele>110.29</ele></trkpt><trkpt lat="48.24339" lon="-1.3543"><ele>110.29</ele></trkpt><trkpt lat="48.24337" lon="-1.3543"><ele>110.2</ele></trkpt><trkpt lat="48.24333" lon="-1.35434"><ele>110.22</ele></trkpt><trkpt lat="48.24332" lon="-1.35434"><ele>110.18</ele></trkpt><trkpt lat="48.24327" lon="-1.35433"><ele>110.13</ele></trkpt><trkpt lat="48.24325" lon="-1.35434"><ele>110.13</ele></trkpt><trkpt lat="48.24323" lon="-1.35435"><ele>110.08</ele></trkpt><trkpt lat="48.24322" lon="-1.35435"><ele>110.08</ele></trkpt><trkpt lat="48.24319" lon="-1.35437"><ele>110.02</ele></trkpt><trkpt lat="48.24318" lon="-1.35437"><ele>110.02</ele></trkpt><trkpt lat="48.24316" lon="-1.35437"><ele>110.02</ele></trkpt><trkpt lat="48.24314" lon="-1.35438"><ele>109.98</ele></trkpt><trkpt lat="48.24312" lon="-1.35439"><ele>109.98</ele></trkpt><trkpt lat="48.2431" lon="-1.35439"><ele>109.91</ele></trkpt><trkpt lat="48.24308" lon="-1.3544"><ele>109.91</ele></trkpt><trkpt lat="48.24306" lon="-1.35441"><ele>109.9</ele></trkpt><trkpt lat="48.24303" lon="-1.35443"><ele>109.9</ele></trkpt><trkpt lat="48.24302" lon="-1.35442"><ele>109.87</ele></trkpt><trkpt lat="48.24299" lon="-1.35443"><ele>109.87</ele></trkpt><trkpt lat="48.24297" lon="-1.35443"><ele>109.82</ele></trkpt><trkpt lat="48.24295" lon="-1.35445"><ele>109.82</ele></trkpt><trkpt lat="48.24292" lon="-1.35446"><ele>109.89</ele></trkpt><trkpt lat="48.2429" lon="-1.35447"><ele>109.89</ele></trkpt><trkpt lat="48.24287" lon="-1.35448"><ele>109.9</ele></trkpt><trkpt lat="48.24284" lon="-1.3545"><ele>109.98</ele></trkpt><trkpt lat="48.24282" lon="-1.3545"><ele>109.98</ele></trkpt><trkpt lat="48.2428" lon="-1.35452"><ele>110</ele></trkpt><trkpt lat="48.24277" lon="-1.35452"><ele>110</ele></trkpt><trkpt lat="48.24275" lon="-1.35453"><ele>110.01</ele></trkpt><trkpt lat="48.24273" lon="-1.35454"><ele>110.08</ele></trkpt><trkpt lat="48.24271" lon="-1.35455"><ele>110.1</ele></trkpt><trkpt lat="48.24268" lon="-1.35456"><ele>110.12</ele></trkpt><trkpt lat="48.24266" lon="-1.35457"><ele>110.12</ele></trkpt><trkpt lat="48.24263" lon="-1.35458"><ele>110.21</ele></trkpt><trkpt lat="48.24261" lon="-1.35459"><ele>110.21</ele></trkpt><trkpt lat="48.24258" lon="-1.35459"><ele>110.26</ele></trkpt><trkpt lat="48.24257" lon="-1.3546"><ele>110.26</ele></trkpt><trkpt lat="48.24254" lon="-1.35461"><ele>110.32</ele></trkpt><trkpt lat="48.24252" lon="-1.35463"><ele>110.38</ele></trkpt><trkpt lat="48.2425" lon="-1.35464"><ele>110.44</ele></trkpt><trkpt lat="48.24248" lon="-1.35464"><ele>110.44</ele></trkpt><trkpt lat="48.24247" lon="-1.35464"><ele>110.44</ele></trkpt><trkpt lat="48.24245" lon="-1.35465"><ele>110.51</ele></trkpt><trkpt lat="48.24244" lon="-1.35465"><ele>110.51</ele></trkpt><trkpt lat="48.24242" lon="-1.35466"><ele>110.59</ele></trkpt><trkpt lat="48.24241" lon="-1.35468"><ele>110.65</ele></trkpt><trkpt lat="48.2424" lon="-1.35468"><ele>110.65</ele></trkpt><trkpt lat="48.24237" lon="-1.35469"><ele>110.71</ele></trkpt><trkpt lat="48.24235" lon="-1.35471"><ele>110.77</ele></trkpt><trkpt lat="48.24234" lon="-1.35472"><ele>110.83</ele></trkpt><trkpt lat="48.24231" lon="-1.35473"><ele>110.83</ele></trkpt><trkpt lat="48.2423" lon="-1.35473"><ele>110.83</ele></trkpt><trkpt lat="48.24228" lon="-1.35474"><ele>110.89</ele></trkpt><trkpt lat="48.24226" lon="-1.35475"><ele>110.89</ele></trkpt><trkpt lat="48.24224" lon="-1.35475"><ele>110.97</ele></trkpt><trkpt lat="48.24222" lon="-1.35476"><ele>111.03</ele></trkpt><trkpt lat="48.2422" lon="-1.35477"><ele>111.12</ele></trkpt><trkpt lat="48.24218" lon="-1.35477"><ele>111.12</ele></trkpt><trkpt lat="48.24216" lon="-1.35478"><ele>111.26</ele></trkpt><trkpt lat="48.24214" lon="-1.35477"><ele>111.26</ele></trkpt><trkpt lat="48.24212" lon="-1.35478"><ele>111.43</ele></trkpt><trkpt lat="48.24208" lon="-1.3548"><ele>111.67</ele></trkpt><trkpt lat="48.24208" lon="-1.35481"><ele>111.67</ele></trkpt><trkpt lat="48.24206" lon="-1.35481"><ele>111.67</ele></trkpt><trkpt lat="48.24204" lon="-1.35482"><ele>111.67</ele></trkpt><trkpt lat="48.24202" lon="-1.35482"><ele>111.86</ele></trkpt><trkpt lat="48.242" lon="-1.35483"><ele>111.86</ele></trkpt><trkpt lat="48.24199" lon="-1.35482"><ele>112.05</ele></trkpt><trkpt lat="48.24196" lon="-1.35482"><ele>112.05</ele></trkpt><trkpt lat="48.24195" lon="-1.35483"><ele>112.22</ele></trkpt><trkpt lat="48.24192" lon="-1.35484"><ele>112.28</ele></trkpt><trkpt lat="48.24191" lon="-1.35485"><ele>112.39</ele></trkpt><trkpt lat="48.24188" lon="-1.35486"><ele>112.39</ele></trkpt><trkpt lat="48.24186" lon="-1.35486"><ele>112.45</ele></trkpt><trkpt lat="48.24185" lon="-1.35487"><ele>112.45</ele></trkpt><trkpt lat="48.24183" lon="-1.35488"><ele>112.45</ele></trkpt><trkpt lat="48.24181" lon="-1.3549"><ele>112.52</ele></trkpt><trkpt lat="48.24178" lon="-1.3549"><ele>112.56</ele></trkpt><trkpt lat="48.24177" lon="-1.35491"><ele>112.56</ele></trkpt><trkpt lat="48.24175" lon="-1.35491"><ele>112.56</ele></trkpt><trkpt lat="48.24173" lon="-1.35491"><ele>112.6</ele></trkpt><trkpt lat="48.2417" lon="-1.35493"><ele>112.64</ele></trkpt><trkpt lat="48.24168" lon="-1.35494"><ele>112.69</ele></trkpt><trkpt lat="48.24166" lon="-1.35494"><ele>112.69</ele></trkpt><trkpt lat="48.24164" lon="-1.35495"><ele>112.71</ele></trkpt><trkpt lat="48.24162" lon="-1.35496"><ele>112.71</ele></trkpt><trkpt lat="48.2416" lon="-1.35497"><ele>112.83</ele></trkpt><trkpt lat="48.24158" lon="-1.35498"><ele>112.83</ele></trkpt><trkpt lat="48.24156" lon="-1.35499"><ele>112.89</ele></trkpt><trkpt lat="48.24153" lon="-1.355"><ele>112.89</ele></trkpt><trkpt lat="48.24151" lon="-1.35501"><ele>113.04</ele></trkpt><trkpt lat="48.24149" lon="-1.35502"><ele>113.04</ele></trkpt><trkpt lat="48.24148" lon="-1.35503"><ele>113.13</ele></trkpt><trkpt lat="48.24146" lon="-1.35504"><ele>113.13</ele></trkpt><trkpt lat="48.24144" lon="-1.35505"><ele>113.13</ele></trkpt><trkpt lat="48.24141" lon="-1.35505"><ele>113.21</ele></trkpt><trkpt lat="48.24139" lon="-1.35506"><ele>113.35</ele></trkpt><trkpt lat="48.24136" lon="-1.35507"><ele>113.35</ele></trkpt><trkpt lat="48.24134" lon="-1.35507"><ele>113.44</ele></trkpt><trkpt lat="48.24131" lon="-1.35508"><ele>113.54</ele></trkpt><trkpt lat="48.24129" lon="-1.3551"><ele>113.59</ele></trkpt><trkpt lat="48.24127" lon="-1.3551"><ele>113.59</ele></trkpt><trkpt lat="48.2405" lon="-1.35531"><ele>114.61</ele></trkpt><trkpt lat="48.23817" lon="-1.35467"><ele>113</ele></trkpt><trkpt lat="48.23785" lon="-1.35711"><ele>116.1</ele></trkpt><trkpt lat="48.23819" lon="-1.35755"><ele>116.4</ele></trkpt><trkpt lat="48.23746" lon="-1.35943"><ele>118.31</ele></trkpt><trkpt lat="48.23748" lon="-1.35964"><ele>118.36</ele></trkpt><trkpt lat="48.23678" lon="-1.36106"><ele>118.65</ele></trkpt><trkpt lat="48.23677" lon="-1.36109"><ele>118.62</ele></trkpt><trkpt lat="48.23676" lon="-1.36111"><ele>118.6</ele></trkpt><trkpt lat="48.23675" lon="-1.36113"><ele>118.6</ele></trkpt><trkpt lat="48.23673" lon="-1.36116"><ele>118.58</ele></trkpt><trkpt lat="48.23672" lon="-1.36118"><ele>118.58</ele></trkpt><trkpt lat="48.23672" lon="-1.36121"><ele>118.54</ele></trkpt><trkpt lat="48.2367" lon="-1.36123"><ele>118.5</ele></trkpt><trkpt lat="48.23669" lon="-1.36126"><ele>118.5</ele></trkpt><trkpt lat="48.23668" lon="-1.36129"><ele>118.5</ele></trkpt><trkpt lat="48.23667" lon="-1.36133"><ele>118.41</ele></trkpt><trkpt lat="48.23666" lon="-1.36135"><ele>118.41</ele></trkpt><trkpt lat="48.23664" lon="-1.36138"><ele>118.4</ele></trkpt><trkpt lat="48.23663" lon="-1.36142"><ele>118.38</ele></trkpt><trkpt lat="48.23662" lon="-1.36143"><ele>118.38</ele></trkpt><trkpt lat="48.23661" lon="-1.36145"><ele>118.38</ele></trkpt><trkpt lat="48.2366" lon="-1.36148"><ele>118.38</ele></trkpt><trkpt lat="48.23659" lon="-1.36151"><ele>118.37</ele></trkpt><trkpt lat="48.23658" lon="-1.36153"><ele>118.3</ele></trkpt><trkpt lat="48.23656" lon="-1.36156"><ele>118.3</ele></trkpt><trkpt lat="48.23655" lon="-1.36159"><ele>118.3</ele></trkpt><trkpt lat="48.23655" lon="-1.36161"><ele>118.3</ele></trkpt><trkpt lat="48.23653" lon="-1.36164"><ele>118.3</ele></trkpt><trkpt lat="48.23653" lon="-1.36166"><ele>118.3</ele></trkpt><trkpt lat="48.23651" lon="-1.36169"><ele>118.3</ele></trkpt><trkpt lat="48.2365" lon="-1.3617"><ele>118.26</ele></trkpt><trkpt lat="48.2365" lon="-1.36172"><ele>118.25</ele></trkpt><trkpt lat="48.23648" lon="-1.36176"><ele>118.24</ele></trkpt><trkpt lat="48.23647" lon="-1.36179"><ele>118.22</ele></trkpt><trkpt lat="48.23646" lon="-1.36182"><ele>118.2</ele></trkpt><trkpt lat="48.23645" lon="-1.36184"><ele>118.2</ele></trkpt><trkpt lat="48.23644" lon="-1.36187"><ele>118.2</ele></trkpt><trkpt lat="48.23643" lon="-1.36189"><ele>118.19</ele></trkpt><trkpt lat="48.23642" lon="-1.36192"><ele>118.18</ele></trkpt><trkpt lat="48.23641" lon="-1.36195"><ele>118.11</ele></trkpt><trkpt lat="48.2364" lon="-1.36198"><ele>118.1</ele></trkpt><trkpt lat="48.23639" lon="-1.36199"><ele>118.1</ele></trkpt><trkpt lat="48.23638" lon="-1.36202"><ele>118.1</ele></trkpt><trkpt lat="48.23637" lon="-1.36205"><ele>118.03</ele></trkpt><trkpt lat="48.23636" lon="-1.36207"><ele>118.03</ele></trkpt><trkpt lat="48.23634" lon="-1.36209"><ele>118.03</ele></trkpt><trkpt lat="48.23633" lon="-1.36212"><ele>117.96</ele></trkpt><trkpt lat="48.23631" lon="-1.36215"><ele>117.89</ele></trkpt><trkpt lat="48.2363" lon="-1.36218"><ele>117.79</ele></trkpt><trkpt lat="48.23629" lon="-1.36221"><ele>117.79</ele></trkpt><trkpt lat="48.23627" lon="-1.36223"><ele>117.62</ele></trkpt><trkpt lat="48.23626" lon="-1.36227"><ele>117.55</ele></trkpt><trkpt lat="48.23624" lon="-1.3623"><ele>117.58</ele></trkpt><trkpt lat="48.23623" lon="-1.36232"><ele>117.58</ele></trkpt><trkpt lat="48.23622" lon="-1.36235"><ele>117.6</ele></trkpt><trkpt lat="48.2362" lon="-1.36237"><ele>117.59</ele></trkpt><trkpt lat="48.23619" lon="-1.3624"><ele>117.6</ele></trkpt><trkpt lat="48.23618" lon="-1.36242"><ele>117.6</ele></trkpt><trkpt lat="48.23616" lon="-1.36244"><ele>117.58</ele></trkpt><trkpt lat="48.23614" lon="-1.36245"><ele>117.58</ele></trkpt><trkpt lat="48.23613" lon="-1.36247"><ele>117.58</ele></trkpt><trkpt lat="48.23611" lon="-1.36249"><ele>117.55</ele></trkpt><trkpt lat="48.2361" lon="-1.36251"><ele>117.55</ele></trkpt><trkpt lat="48.23608" lon="-1.36253"><ele>117.59</ele></trkpt><trkpt lat="48.23606" lon="-1.36255"><ele>117.53</ele></trkpt><trkpt lat="48.23605" lon="-1.36257"><ele>117.56</ele></trkpt><trkpt lat="48.23603" lon="-1.36259"><ele>117.5</ele></trkpt><trkpt lat="48.23601" lon="-1.3626"><ele>117.5</ele></trkpt><trkpt lat="48.23599" lon="-1.36262"><ele>117.5</ele></trkpt><trkpt lat="48.23598" lon="-1.36265"><ele>117.49</ele></trkpt><trkpt lat="48.23596" lon="-1.36266"><ele>117.49</ele></trkpt><trkpt lat="48.23594" lon="-1.36268"><ele>117.41</ele></trkpt><trkpt lat="48.23592" lon="-1.3627"><ele>117.41</ele></trkpt><trkpt lat="48.23591" lon="-1.36271"><ele>117.41</ele></trkpt><trkpt lat="48.23589" lon="-1.36274"><ele>117.36</ele></trkpt><trkpt lat="48.23588" lon="-1.36276"><ele>117.36</ele></trkpt><trkpt lat="48.23587" lon="-1.36278"><ele>117.35</ele></trkpt><trkpt lat="48.23586" lon="-1.3628"><ele>117.35</ele></trkpt><trkpt lat="48.23586" lon="-1.36283"><ele>117.34</ele></trkpt><trkpt lat="48.23584" lon="-1.36285"><ele>117.29</ele></trkpt><trkpt lat="48.23582" lon="-1.36287"><ele>117.27</ele></trkpt><trkpt lat="48.23582" lon="-1.36289"><ele>117.27</ele></trkpt><trkpt lat="48.23581" lon="-1.36291"><ele>117.18</ele></trkpt><trkpt lat="48.2358" lon="-1.36293"><ele>117.18</ele></trkpt><trkpt lat="48.23579" lon="-1.36296"><ele>117.16</ele></trkpt><trkpt lat="48.23578" lon="-1.36298"><ele>117.16</ele></trkpt><trkpt lat="48.23577" lon="-1.36301"><ele>117.07</ele></trkpt><trkpt lat="48.23576" lon="-1.36304"><ele>117.06</ele></trkpt><trkpt lat="48.23575" lon="-1.36308"><ele>117.04</ele></trkpt><trkpt lat="48.23574" lon="-1.36309"><ele>117.04</ele></trkpt><trkpt lat="48.23572" lon="-1.36313"><ele>116.95</ele></trkpt><trkpt lat="48.23571" lon="-1.36315"><ele>116.95</ele></trkpt><trkpt lat="48.23569" lon="-1.36318"><ele>116.93</ele></trkpt><trkpt lat="48.23568" lon="-1.3632"><ele>116.85</ele></trkpt><trkpt lat="48.23566" lon="-1.36323"><ele>116.83</ele></trkpt><trkpt lat="48.23566" lon="-1.36325"><ele>116.82</ele></trkpt><trkpt lat="48.23564" lon="-1.36328"><ele>116.72</ele></trkpt><trkpt lat="48.23563" lon="-1.36331"><ele>116.71</ele></trkpt><trkpt lat="48.23562" lon="-1.36333"><ele>116.71</ele></trkpt><trkpt lat="48.23561" lon="-1.36337"><ele>116.69</ele></trkpt><trkpt lat="48.2356" lon="-1.36338"><ele>116.58</ele></trkpt><trkpt lat="48.23558" lon="-1.36341"><ele>116.58</ele></trkpt><trkpt lat="48.23558" lon="-1.36343"><ele>116.56</ele></trkpt><trkpt lat="48.23557" lon="-1.36346"><ele>116.56</ele></trkpt><trkpt lat="48.23555" lon="-1.36349"><ele>116.43</ele></trkpt><trkpt lat="48.23554" lon="-1.36352"><ele>116.41</ele></trkpt><trkpt lat="48.23553" lon="-1.36354"><ele>116.41</ele></trkpt><trkpt lat="48.23552" lon="-1.36357"><ele>116.38</ele></trkpt><trkpt lat="48.23551" lon="-1.36359"><ele>116.29</ele></trkpt><trkpt lat="48.2355" lon="-1.36362"><ele>116.27</ele></trkpt><trkpt lat="48.2355" lon="-1.36364"><ele>116.24</ele></trkpt><trkpt lat="48.23549" lon="-1.36367"><ele>116.24</ele></trkpt><trkpt lat="48.23547" lon="-1.3637"><ele>116.12</ele></trkpt><trkpt lat="48.23546" lon="-1.36372"><ele>116.12</ele></trkpt><trkpt lat="48.23545" lon="-1.36375"><ele>116.09</ele></trkpt><trkpt lat="48.23543" lon="-1.36378"><ele>115.95</ele></trkpt><trkpt lat="48.23541" lon="-1.36381"><ele>115.93</ele></trkpt><trkpt lat="48.2354" lon="-1.36383"><ele>115.93</ele></trkpt><trkpt lat="48.23539" lon="-1.36386"><ele>115.92</ele></trkpt><trkpt lat="48.23537" lon="-1.3639"><ele>115.8</ele></trkpt><trkpt lat="48.23536" lon="-1.36393"><ele>115.8</ele></trkpt><trkpt lat="48.23535" lon="-1.36395"><ele>115.78</ele></trkpt><trkpt lat="48.23533" lon="-1.36398"><ele>115.66</ele></trkpt><trkpt lat="48.23531" lon="-1.36401"><ele>115.66</ele></trkpt><trkpt lat="48.23531" lon="-1.36404"><ele>115.63</ele></trkpt><trkpt lat="48.23529" lon="-1.36407"><ele>115.49</ele></trkpt><trkpt lat="48.23529" lon="-1.36409"><ele>115.49</ele></trkpt><trkpt lat="48.23528" lon="-1.36411"><ele>115.46</ele></trkpt><trkpt lat="48.23526" lon="-1.36413"><ele>115.46</ele></trkpt><trkpt lat="48.23526" lon="-1.36416"><ele>115.43</ele></trkpt><trkpt lat="48.23526" lon="-1.36419"><ele>115.43</ele></trkpt><trkpt lat="48.23525" lon="-1.36422"><ele>115.3</ele></trkpt><trkpt lat="48.23526" lon="-1.36423"><ele>115.4</ele></trkpt><trkpt lat="48.23525" lon="-1.36426"><ele>115.29</ele></trkpt><trkpt lat="48.23527" lon="-1.36428"><ele>115.35</ele></trkpt><trkpt lat="48.23527" lon="-1.3643"><ele>115.35</ele></trkpt><trkpt lat="48.23527" lon="-1.36434"><ele>115.32</ele></trkpt><trkpt lat="48.23527" lon="-1.36437"><ele>115.31</ele></trkpt><trkpt lat="48.23526" lon="-1.3644"><ele>115.31</ele></trkpt><trkpt lat="48.23527" lon="-1.36442"><ele>115.3</ele></trkpt><trkpt lat="48.23526" lon="-1.36444"><ele>115.3</ele></trkpt><trkpt lat="48.23526" lon="-1.36442"><ele>115.3</ele></trkpt><trkpt lat="48.23525" lon="-1.36441"><ele>115.26</ele></trkpt><trkpt lat="48.23525" lon="-1.36439"><ele>115.27</ele></trkpt><trkpt lat="48.23524" lon="-1.36436"><ele>115.27</ele></trkpt><trkpt lat="48.23524" lon="-1.36435"><ele>115.27</ele></trkpt><trkpt lat="48.23526" lon="-1.36433"><ele>115.32</ele></trkpt><trkpt lat="48.23527" lon="-1.36432"><ele>115.35</ele></trkpt><trkpt lat="48.23527" lon="-1.36434"><ele>115.32</ele></trkpt><trkpt lat="48.23528" lon="-1.36436"><ele>115.32</ele></trkpt><trkpt lat="48.23527" lon="-1.36439"><ele>115.31</ele></trkpt><trkpt lat="48.23527" lon="-1.36441"><ele>115.3</ele></trkpt><trkpt lat="48.23526" lon="-1.36444"><ele>115.3</ele></trkpt><trkpt lat="48.23527" lon="-1.36448"><ele>115.3</ele></trkpt><trkpt lat="48.23527" lon="-1.3645"><ele>115.3</ele></trkpt><trkpt lat="48.23527" lon="-1.36453"><ele>115.3</ele></trkpt><trkpt lat="48.23526" lon="-1.36455"><ele>115.3</ele></trkpt><trkpt lat="48.23526" lon="-1.36459"><ele>115.3</ele></trkpt><trkpt lat="48.23526" lon="-1.36462"><ele>115.3</ele></trkpt><trkpt lat="48.23525" lon="-1.36466"><ele>115.23</ele></trkpt><trkpt lat="48.23524" lon="-1.36469"><ele>115.24</ele></trkpt><trkpt lat="48.23524" lon="-1.36473"><ele>115.25</ele></trkpt><trkpt lat="48.23524" lon="-1.36476"><ele>115.27</ele></trkpt><trkpt lat="48.23524" lon="-1.36479"><ele>115.27</ele></trkpt><trkpt lat="48.23524" lon="-1.36481"><ele>115.29</ele></trkpt><trkpt lat="48.23524" lon="-1.36485"><ele>115.3</ele></trkpt><trkpt lat="48.23524" lon="-1.36487"><ele>115.3</ele></trkpt><trkpt lat="48.23524" lon="-1.36491"><ele>115.31</ele></trkpt><trkpt lat="48.23524" lon="-1.36494"><ele>115.34</ele></trkpt><trkpt lat="48.23524" lon="-1.36498"><ele>115.38</ele></trkpt><trkpt lat="48.23524" lon="-1.36501"><ele>115.42</ele></trkpt><trkpt lat="48.23525" lon="-1.36505"><ele>115.42</ele></trkpt><trkpt lat="48.23525" lon="-1.36507"><ele>115.48</ele></trkpt><trkpt lat="48.23525" lon="-1.3651"><ele>115.54</ele></trkpt><trkpt lat="48.23526" lon="-1.36512"><ele>115.6</ele></trkpt><trkpt lat="48.23525" lon="-1.36515"><ele>115.61</ele></trkpt><trkpt lat="48.23525" lon="-1.36518"><ele>115.61</ele></trkpt><trkpt lat="48.23525" lon="-1.36521"><ele>115.67</ele></trkpt><trkpt lat="48.23525" lon="-1.36525"><ele>115.72</ele></trkpt><trkpt lat="48.23525" lon="-1.36527"><ele>115.77</ele></trkpt><trkpt lat="48.23524" lon="-1.3653"><ele>115.77</ele></trkpt><trkpt lat="48.23524" lon="-1.36533"><ele>115.8</ele></trkpt><trkpt lat="48.23524" lon="-1.36536"><ele>115.81</ele></trkpt><trkpt lat="48.23524" lon="-1.3654"><ele>115.81</ele></trkpt><trkpt lat="48.23524" lon="-1.36542"><ele>115.81</ele></trkpt><trkpt lat="48.23523" lon="-1.36546"><ele>115.82</ele></trkpt><trkpt lat="48.23523" lon="-1.3655"><ele>115.82</ele></trkpt><trkpt lat="48.23523" lon="-1.36552"><ele>115.82</ele></trkpt><trkpt lat="48.23524" lon="-1.36555"><ele>115.83</ele></trkpt><trkpt lat="48.23524" lon="-1.36557"><ele>115.83</ele></trkpt><trkpt lat="48.23524" lon="-1.36561"><ele>115.84</ele></trkpt><trkpt lat="48.23514" lon="-1.36955"><ele>111.48</ele></trkpt><trkpt lat="48.23401" lon="-1.36999"><ele>113.02</ele></trkpt><trkpt lat="48.23372" lon="-1.37008"><ele>113.38</ele></trkpt><trkpt lat="48.23419" lon="-1.3723"><ele>112.02</ele></trkpt><trkpt lat="48.23442" lon="-1.37522"><ele>111.51</ele></trkpt><trkpt lat="48.23448" lon="-1.37553"><ele>111.74</ele></trkpt><trkpt lat="48.23321" lon="-1.37671"><ele>111.38</ele></trkpt><trkpt lat="48.23365" lon="-1.37786"><ele>113.03</ele></trkpt><trkpt lat="48.23458" lon="-1.37941"><ele>114</ele></trkpt><trkpt lat="48.23579" lon="-1.38142"><ele>112.3</ele></trkpt><trkpt lat="48.23711" lon="-1.38394"><ele>112.8</ele></trkpt><trkpt lat="48.23815" lon="-1.38583"><ele>114.85</ele></trkpt><trkpt lat="48.23834" lon="-1.38732"><ele>117.07</ele></trkpt><trkpt lat="48.23837" lon="-1.38858"><ele>117.4</ele></trkpt><trkpt lat="48.23817" lon="-1.38927"><ele>117.3</ele></trkpt><trkpt lat="48.23737" lon="-1.39097"><ele>116.81</ele></trkpt><trkpt lat="48.23771" lon="-1.39089"><ele>117.36</ele></trkpt><trkpt lat="48.24055" lon="-1.39185"><ele>110.22</ele></trkpt><trkpt lat="48.24297" lon="-1.39266"><ele>105</ele></trkpt><trkpt lat="48.24322" lon="-1.39237"><ele>105.89</ele></trkpt><trkpt lat="48.24399" lon="-1.39218"><ele>108.27</ele></trkpt><trkpt lat="48.24401" lon="-1.39218"><ele>108.27</ele></trkpt><trkpt lat="48.24403" lon="-1.39218"><ele>108.39</ele></trkpt><trkpt lat="48.24405" lon="-1.39217"><ele>108.43</ele></trkpt><trkpt lat="48.24407" lon="-1.39217"><ele>108.55</ele></trkpt><trkpt lat="48.24409" lon="-1.39217"><ele>108.55</ele></trkpt><trkpt lat="48.24411" lon="-1.39217"><ele>108.68</ele></trkpt><trkpt lat="48.24413" lon="-1.39217"><ele>108.68</ele></trkpt><trkpt lat="48.24415" lon="-1.39216"><ele>108.81</ele></trkpt><trkpt lat="48.24417" lon="-1.39216"><ele>108.81</ele></trkpt><trkpt lat="48.24419" lon="-1.39216"><ele>108.95</ele></trkpt><trkpt lat="48.2442" lon="-1.39216"><ele>108.95</ele></trkpt><trkpt lat="48.24423" lon="-1.39215"><ele>109.1</ele></trkpt><trkpt lat="48.24424" lon="-1.39215"><ele>109.1</ele></trkpt><trkpt lat="48.24426" lon="-1.39215"><ele>109.1</ele></trkpt><trkpt lat="48.24428" lon="-1.39215"><ele>109.23</ele></trkpt><trkpt lat="48.2443" lon="-1.39215"><ele>109.23</ele></trkpt><trkpt lat="48.24432" lon="-1.39215"><ele>109.36</ele></trkpt><trkpt lat="48.24434" lon="-1.39214"><ele>109.36</ele></trkpt><trkpt lat="48.24435" lon="-1.39214"><ele>109.36</ele></trkpt><trkpt lat="48.24438" lon="-1.39212"><ele>109.48</ele></trkpt><trkpt lat="48.2444" lon="-1.39213"><ele>109.48</ele></trkpt><trkpt lat="48.24442" lon="-1.39212"><ele>109.59</ele></trkpt><trkpt lat="48.24445" lon="-1.39213"><ele>109.69</ele></trkpt><trkpt lat="48.24447" lon="-1.39212"><ele>109.69</ele></trkpt><trkpt lat="48.24449" lon="-1.39212"><ele>109.71</ele></trkpt><trkpt lat="48.24451" lon="-1.39212"><ele>109.71</ele></trkpt><trkpt lat="48.24453" lon="-1.39212"><ele>109.77</ele></trkpt><trkpt lat="48.24455" lon="-1.39212"><ele>109.77</ele></trkpt><trkpt lat="48.24457" lon="-1.39212"><ele>109.77</ele></trkpt><trkpt lat="48.24459" lon="-1.39211"><ele>109.8</ele></trkpt><trkpt lat="48.24461" lon="-1.39211"><ele>109.8</ele></trkpt><trkpt lat="48.24463" lon="-1.39212"><ele>109.8</ele></trkpt><trkpt lat="48.24465" lon="-1.39211"><ele>109.8</ele></trkpt><trkpt lat="48.24467" lon="-1.3921"><ele>109.82</ele></trkpt><trkpt lat="48.24469" lon="-1.3921"><ele>109.82</ele></trkpt><trkpt lat="48.24472" lon="-1.39209"><ele>109.82</ele></trkpt><trkpt lat="48.24474" lon="-1.39209"><ele>109.82</ele></trkpt><trkpt lat="48.24475" lon="-1.39209"><ele>109.8</ele></trkpt><trkpt lat="48.24477" lon="-1.3921"><ele>109.8</ele></trkpt><trkpt lat="48.24479" lon="-1.39209"><ele>109.8</ele></trkpt><trkpt lat="48.24481" lon="-1.39209"><ele>109.8</ele></trkpt><trkpt lat="48.24483" lon="-1.39209"><ele>109.8</ele></trkpt><trkpt lat="48.24485" lon="-1.39208"><ele>109.8</ele></trkpt><trkpt lat="48.24487" lon="-1.39208"><ele>109.8</ele></trkpt><trkpt lat="48.24489" lon="-1.39208"><ele>109.8</ele></trkpt><trkpt lat="48.24491" lon="-1.39208"><ele>109.8</ele></trkpt><trkpt lat="48.24493" lon="-1.39207"><ele>109.76</ele></trkpt><trkpt lat="48.24494" lon="-1.39207"><ele>109.76</ele></trkpt><trkpt lat="48.24497" lon="-1.39207"><ele>109.7</ele></trkpt><trkpt lat="48.24498" lon="-1.39207"><ele>109.7</ele></trkpt><trkpt lat="48.245" lon="-1.39207"><ele>109.7</ele></trkpt><trkpt lat="48.24502" lon="-1.39208"><ele>109.7</ele></trkpt><trkpt lat="48.24504" lon="-1.39207"><ele>109.7</ele></trkpt><trkpt lat="48.24506" lon="-1.39206"><ele>109.68</ele></trkpt><trkpt lat="48.24508" lon="-1.39205"><ele>109.68</ele></trkpt><trkpt lat="48.24511" lon="-1.39205"><ele>109.62</ele></trkpt><trkpt lat="48.24512" lon="-1.39204"><ele>109.65</ele></trkpt><trkpt lat="48.24515" lon="-1.39204"><ele>109.6</ele></trkpt><trkpt lat="48.24517" lon="-1.39203"><ele>109.6</ele></trkpt><trkpt lat="48.24519" lon="-1.39203"><ele>109.6</ele></trkpt><trkpt lat="48.24522" lon="-1.39202"><ele>109.56</ele></trkpt><trkpt lat="48.24524" lon="-1.39202"><ele>109.56</ele></trkpt><trkpt lat="48.24525" lon="-1.39202"><ele>109.56</ele></trkpt><trkpt lat="48.24528" lon="-1.39202"><ele>109.5</ele></trkpt><trkpt lat="48.2453" lon="-1.39202"><ele>109.5</ele></trkpt><trkpt lat="48.24532" lon="-1.39201"><ele>109.49</ele></trkpt><trkpt lat="48.24535" lon="-1.392"><ele>109.48</ele></trkpt><trkpt lat="48.24537" lon="-1.392"><ele>109.48</ele></trkpt><trkpt lat="48.24539" lon="-1.392"><ele>109.42</ele></trkpt><trkpt lat="48.24541" lon="-1.392"><ele>109.42</ele></trkpt><trkpt lat="48.24543" lon="-1.39199"><ele>109.4</ele></trkpt><trkpt lat="48.24545" lon="-1.39199"><ele>109.4</ele></trkpt><trkpt lat="48.24548" lon="-1.39199"><ele>109.4</ele></trkpt><trkpt lat="48.2455" lon="-1.39199"><ele>109.4</ele></trkpt><trkpt lat="48.24552" lon="-1.39199"><ele>109.4</ele></trkpt><trkpt lat="48.24554" lon="-1.39199"><ele>109.4</ele></trkpt><trkpt lat="48.24556" lon="-1.39197"><ele>109.4</ele></trkpt><trkpt lat="48.24558" lon="-1.39198"><ele>109.4</ele></trkpt><trkpt lat="48.2456" lon="-1.39198"><ele>109.4</ele></trkpt><trkpt lat="48.24562" lon="-1.39198"><ele>109.43</ele></trkpt><trkpt lat="48.24565" lon="-1.39197"><ele>109.47</ele></trkpt><trkpt lat="48.24567" lon="-1.39197"><ele>109.47</ele></trkpt><trkpt lat="48.24568" lon="-1.39197"><ele>109.47</ele></trkpt><trkpt lat="48.2457" lon="-1.39196"><ele>109.49</ele></trkpt><trkpt lat="48.24572" lon="-1.39195"><ele>109.5</ele></trkpt><trkpt lat="48.24574" lon="-1.39195"><ele>109.5</ele></trkpt><trkpt lat="48.24576" lon="-1.39195"><ele>109.5</ele></trkpt><trkpt lat="48.24578" lon="-1.39195"><ele>109.5</ele></trkpt><trkpt lat="48.2458" lon="-1.39195"><ele>109.5</ele></trkpt><trkpt lat="48.24583" lon="-1.39195"><ele>109.5</ele></trkpt><trkpt lat="48.24585" lon="-1.39195"><ele>109.5</ele></trkpt><trkpt lat="48.24586" lon="-1.39194"><ele>109.5</ele></trkpt><trkpt lat="48.24588" lon="-1.39193"><ele>109.5</ele></trkpt><trkpt lat="48.2459" lon="-1.39194"><ele>109.5</ele></trkpt><trkpt lat="48.24593" lon="-1.39193"><ele>109.5</ele></trkpt><trkpt lat="48.24594" lon="-1.39193"><ele>109.5</ele></trkpt><trkpt lat="48.24596" lon="-1.39192"><ele>109.47</ele></trkpt><trkpt lat="48.24599" lon="-1.39191"><ele>109.47</ele></trkpt><trkpt lat="48.246" lon="-1.3919"><ele>109.47</ele></trkpt><trkpt lat="48.24603" lon="-1.39191"><ele>109.47</ele></trkpt><trkpt lat="48.24604" lon="-1.3919"><ele>109.41</ele></trkpt><trkpt lat="48.24606" lon="-1.3919"><ele>109.41</ele></trkpt><trkpt lat="48.24608" lon="-1.3919"><ele>109.38</ele></trkpt><trkpt lat="48.24611" lon="-1.39189"><ele>109.38</ele></trkpt><trkpt lat="48.24613" lon="-1.39189"><ele>109.28</ele></trkpt><trkpt lat="48.24614" lon="-1.3919"><ele>109.28</ele></trkpt><trkpt lat="48.24617" lon="-1.3919"><ele>109.15</ele></trkpt><trkpt lat="48.24619" lon="-1.39189"><ele>109.15</ele></trkpt><trkpt lat="48.2462" lon="-1.39189"><ele>109.15</ele></trkpt><trkpt lat="48.24622" lon="-1.39189"><ele>109.01</ele></trkpt><trkpt lat="48.24624" lon="-1.39189"><ele>109.01</ele></trkpt><trkpt lat="48.24626" lon="-1.39189"><ele>108.9</ele></trkpt><trkpt lat="48.24627" lon="-1.39189"><ele>108.9</ele></trkpt><trkpt lat="48.2463" lon="-1.39189"><ele>108.81</ele></trkpt><trkpt lat="48.24632" lon="-1.39188"><ele>108.81</ele></trkpt><trkpt lat="48.24633" lon="-1.39187"><ele>108.82</ele></trkpt><trkpt lat="48.24636" lon="-1.39186"><ele>108.77</ele></trkpt><trkpt lat="48.24638" lon="-1.39186"><ele>108.7</ele></trkpt><trkpt lat="48.2464" lon="-1.39186"><ele>108.7</ele></trkpt><trkpt lat="48.24642" lon="-1.39186"><ele>108.64</ele></trkpt><trkpt lat="48.24645" lon="-1.39186"><ele>108.64</ele></trkpt><trkpt lat="48.24647" lon="-1.39185"><ele>108.6</ele></trkpt><trkpt lat="48.24649" lon="-1.39185"><ele>108.6</ele></trkpt><trkpt lat="48.24651" lon="-1.39185"><ele>108.53</ele></trkpt><trkpt lat="48.24652" lon="-1.39184"><ele>108.53</ele></trkpt><trkpt lat="48.24655" lon="-1.39184"><ele>108.47</ele></trkpt><trkpt lat="48.24657" lon="-1.39184"><ele>108.47</ele></trkpt><trkpt lat="48.24658" lon="-1.39183"><ele>108.45</ele></trkpt><trkpt lat="48.24661" lon="-1.39183"><ele>108.37</ele></trkpt><trkpt lat="48.24663" lon="-1.39183"><ele>108.37</ele></trkpt><trkpt lat="48.24665" lon="-1.39182"><ele>108.25</ele></trkpt><trkpt lat="48.24667" lon="-1.39183"><ele>108.25</ele></trkpt><trkpt lat="48.24669" lon="-1.39182"><ele>108.13</ele></trkpt><trkpt lat="48.24671" lon="-1.39182"><ele>108.13</ele></trkpt><trkpt lat="48.24673" lon="-1.39182"><ele>108</ele></trkpt><trkpt lat="48.24675" lon="-1.39182"><ele>108</ele></trkpt><trkpt lat="48.24677" lon="-1.39182"><ele>107.85</ele></trkpt><trkpt lat="48.24679" lon="-1.39181"><ele>107.85</ele></trkpt><trkpt lat="48.24681" lon="-1.39181"><ele>107.69</ele></trkpt><trkpt lat="48.24683" lon="-1.39181"><ele>107.69</ele></trkpt><trkpt lat="48.24686" lon="-1.39181"><ele>107.5</ele></trkpt><trkpt lat="48.24688" lon="-1.3918"><ele>107.5</ele></trkpt><trkpt lat="48.24689" lon="-1.3918"><ele>107.28</ele></trkpt><trkpt lat="48.24692" lon="-1.3918"><ele>107.28</ele></trkpt><trkpt lat="48.24694" lon="-1.3918"><ele>107.04</ele></trkpt><trkpt lat="48.24696" lon="-1.39179"><ele>107.04</ele></trkpt><trkpt lat="48.24698" lon="-1.39179"><ele>106.82</ele></trkpt><trkpt lat="48.247" lon="-1.39179"><ele>106.82</ele></trkpt><trkpt lat="48.24702" lon="-1.39178"><ele>106.57</ele></trkpt><trkpt lat="48.24705" lon="-1.39178"><ele>106.57</ele></trkpt><trkpt lat="48.24707" lon="-1.39177"><ele>106.41</ele></trkpt><trkpt lat="48.24709" lon="-1.39177"><ele>106.41</ele></trkpt><trkpt lat="48.24711" lon="-1.39176"><ele>106.25</ele></trkpt><trkpt lat="48.24713" lon="-1.39176"><ele>106.25</ele></trkpt><trkpt lat="48.24715" lon="-1.39175"><ele>106.09</ele></trkpt><trkpt lat="48.24717" lon="-1.39175"><ele>106.09</ele></trkpt><trkpt lat="48.24719" lon="-1.39176"><ele>105.92</ele></trkpt><trkpt lat="48.24722" lon="-1.39175"><ele>105.92</ele></trkpt><trkpt lat="48.24724" lon="-1.39175"><ele>105.73</ele></trkpt><trkpt lat="48.24725" lon="-1.39175"><ele>105.73</ele></trkpt><trkpt lat="48.24727" lon="-1.39174"><ele>105.74</ele></trkpt><trkpt lat="48.24729" lon="-1.39174"><ele>105.54</ele></trkpt><trkpt lat="48.24731" lon="-1.39174"><ele>105.54</ele></trkpt><trkpt lat="48.24733" lon="-1.39173"><ele>105.32</ele></trkpt><trkpt lat="48.24735" lon="-1.39172"><ele>105.32</ele></trkpt><trkpt lat="48.24737" lon="-1.39172"><ele>105.11</ele></trkpt><trkpt lat="48.24739" lon="-1.39172"><ele>105.11</ele></trkpt><trkpt lat="48.24741" lon="-1.39172"><ele>104.91</ele></trkpt><trkpt lat="48.24743" lon="-1.39171"><ele>104.91</ele></trkpt><trkpt lat="48.24746" lon="-1.39171"><ele>104.71</ele></trkpt><trkpt lat="48.24748" lon="-1.39171"><ele>104.71</ele></trkpt><trkpt lat="48.24751" lon="-1.3917"><ele>104.58</ele></trkpt><trkpt lat="48.24753" lon="-1.3917"><ele>104.58</ele></trkpt><trkpt lat="48.24755" lon="-1.3917"><ele>104.39</ele></trkpt><trkpt lat="48.24757" lon="-1.39169"><ele>104.39</ele></trkpt><trkpt lat="48.24759" lon="-1.39168"><ele>104.19</ele></trkpt><trkpt lat="48.24761" lon="-1.39168"><ele>104.19</ele></trkpt><trkpt lat="48.24763" lon="-1.39168"><ele>103.99</ele></trkpt><trkpt lat="48.24765" lon="-1.39168"><ele>103.99</ele></trkpt><trkpt lat="48.24767" lon="-1.39168"><ele>103.86</ele></trkpt><trkpt lat="48.24769" lon="-1.39167"><ele>103.86</ele></trkpt><trkpt lat="48.24772" lon="-1.39166"><ele>103.76</ele></trkpt><trkpt lat="48.24774" lon="-1.39167"><ele>103.76</ele></trkpt><trkpt lat="48.24776" lon="-1.39166"><ele>103.56</ele></trkpt><trkpt lat="48.24778" lon="-1.39166"><ele>103.56</ele></trkpt><trkpt lat="48.2478" lon="-1.39166"><ele>103.24</ele></trkpt><trkpt lat="48.24783" lon="-1.39165"><ele>103.27</ele></trkpt><trkpt lat="48.24784" lon="-1.39164"><ele>103</ele></trkpt><trkpt lat="48.24786" lon="-1.39164"><ele>103</ele></trkpt><trkpt lat="48.24789" lon="-1.39163"><ele>102.83</ele></trkpt><trkpt lat="48.24791" lon="-1.39163"><ele>102.83</ele></trkpt><trkpt lat="48.24793" lon="-1.39162"><ele>102.69</ele></trkpt><trkpt lat="48.24795" lon="-1.39162"><ele>102.69</ele></trkpt><trkpt lat="48.24797" lon="-1.39162"><ele>102.53</ele></trkpt><trkpt lat="48.24799" lon="-1.39162"><ele>102.53</ele></trkpt><trkpt lat="48.24801" lon="-1.39161"><ele>102.42</ele></trkpt><trkpt lat="48.24804" lon="-1.39161"><ele>102.42</ele></trkpt><trkpt lat="48.24806" lon="-1.39161"><ele>102.26</ele></trkpt><trkpt lat="48.24808" lon="-1.39161"><ele>102.26</ele></trkpt><trkpt lat="48.2481" lon="-1.39162"><ele>102.11</ele></trkpt><trkpt lat="48.24813" lon="-1.39161"><ele>102.1</ele></trkpt><trkpt lat="48.24814" lon="-1.3916"><ele>101.96</ele></trkpt><trkpt lat="48.24816" lon="-1.3916"><ele>101.96</ele></trkpt><trkpt lat="48.24818" lon="-1.39159"><ele>101.81</ele></trkpt><trkpt lat="48.2482" lon="-1.39159"><ele>101.81</ele></trkpt><trkpt lat="48.24821" lon="-1.39159"><ele>101.81</ele></trkpt><trkpt lat="48.24824" lon="-1.39158"><ele>101.67</ele></trkpt><trkpt lat="48.24826" lon="-1.39157"><ele>101.7</ele></trkpt><trkpt lat="48.24828" lon="-1.39156"><ele>101.53</ele></trkpt><trkpt lat="48.2483" lon="-1.39156"><ele>101.53</ele></trkpt><trkpt lat="48.24832" lon="-1.39156"><ele>101.37</ele></trkpt><trkpt lat="48.24834" lon="-1.39154"><ele>101.37</ele></trkpt><trkpt lat="48.24836" lon="-1.39154"><ele>101.2</ele></trkpt><trkpt lat="48.24839" lon="-1.39154"><ele>101.2</ele></trkpt><trkpt lat="48.24841" lon="-1.39153"><ele>101.05</ele></trkpt><trkpt lat="48.24843" lon="-1.39152"><ele>101.05</ele></trkpt><trkpt lat="48.24845" lon="-1.39151"><ele>100.89</ele></trkpt><trkpt lat="48.24847" lon="-1.39151"><ele>100.89</ele></trkpt><trkpt lat="48.24849" lon="-1.3915"><ele>100.73</ele></trkpt><trkpt lat="48.24851" lon="-1.39149"><ele>100.73</ele></trkpt><trkpt lat="48.24853" lon="-1.39149"><ele>100.58</ele></trkpt><trkpt lat="48.24855" lon="-1.39149"><ele>100.58</ele></trkpt><trkpt lat="48.24857" lon="-1.39148"><ele>100.42</ele></trkpt><trkpt lat="48.24859" lon="-1.39147"><ele>100.42</ele></trkpt><trkpt lat="48.24861" lon="-1.39147"><ele>100.26</ele></trkpt><trkpt lat="48.24863" lon="-1.39146"><ele>100.26</ele></trkpt><trkpt lat="48.24865" lon="-1.39145"><ele>100.12</ele></trkpt><trkpt lat="48.24867" lon="-1.39145"><ele>100.12</ele></trkpt><trkpt lat="48.24869" lon="-1.39144"><ele>100.13</ele></trkpt><trkpt lat="48.24871" lon="-1.39142"><ele>99.99</ele></trkpt><trkpt lat="48.24873" lon="-1.39142"><ele>99.99</ele></trkpt><trkpt lat="48.24875" lon="-1.39141"><ele>99.85</ele></trkpt><trkpt lat="48.24877" lon="-1.3914"><ele>99.87</ele></trkpt><trkpt lat="48.24879" lon="-1.3914"><ele>99.74</ele></trkpt><trkpt lat="48.24882" lon="-1.39139"><ele>99.74</ele></trkpt><trkpt lat="48.24884" lon="-1.39138"><ele>99.61</ele></trkpt><trkpt lat="48.24886" lon="-1.39137"><ele>99.61</ele></trkpt><trkpt lat="48.24888" lon="-1.39136"><ele>99.49</ele></trkpt><trkpt lat="48.24889" lon="-1.39134"><ele>99.55</ele></trkpt><trkpt lat="48.24891" lon="-1.39134"><ele>99.43</ele></trkpt><trkpt lat="48.24894" lon="-1.39134"><ele>99.43</ele></trkpt><trkpt lat="48.24895" lon="-1.39134"><ele>99.32</ele></trkpt><trkpt lat="48.24896" lon="-1.39134"><ele>99.32</ele></trkpt><trkpt lat="48.24899" lon="-1.39134"><ele>99.32</ele></trkpt><trkpt lat="48.24901" lon="-1.39132"><ele>99.24</ele></trkpt><trkpt lat="48.24902" lon="-1.39132"><ele>99.24</ele></trkpt><trkpt lat="48.24905" lon="-1.3913"><ele>99.17</ele></trkpt><trkpt lat="48.24907" lon="-1.39129"><ele>99.17</ele></trkpt><trkpt lat="48.24909" lon="-1.39128"><ele>99.08</ele></trkpt><trkpt lat="48.24911" lon="-1.39129"><ele>99.08</ele></trkpt><trkpt lat="48.24913" lon="-1.39128"><ele>98.99</ele></trkpt><trkpt lat="48.24915" lon="-1.39127"><ele>99</ele></trkpt><trkpt lat="48.24917" lon="-1.39126"><ele>98.91</ele></trkpt><trkpt lat="48.24918" lon="-1.39125"><ele>98.91</ele></trkpt><trkpt lat="48.2492" lon="-1.39123"><ele>98.91</ele></trkpt><trkpt lat="48.24923" lon="-1.39123"><ele>98.81</ele></trkpt><trkpt lat="48.24924" lon="-1.3912"><ele>98.84</ele></trkpt><trkpt lat="48.24926" lon="-1.39118"><ele>98.77</ele></trkpt><trkpt lat="48.24928" lon="-1.39119"><ele>98.73</ele></trkpt><trkpt lat="48.24929" lon="-1.39119"><ele>98.73</ele></trkpt><trkpt lat="48.24931" lon="-1.39118"><ele>98.66</ele></trkpt><trkpt lat="48.24934" lon="-1.39117"><ele>98.56</ele></trkpt><trkpt lat="48.24935" lon="-1.39115"><ele>98.56</ele></trkpt><trkpt lat="48.24937" lon="-1.39115"><ele>98.56</ele></trkpt><trkpt lat="48.24939" lon="-1.39114"><ele>98.53</ele></trkpt><trkpt lat="48.2494" lon="-1.39113"><ele>98.53</ele></trkpt><trkpt lat="48.24943" lon="-1.39112"><ele>98.41</ele></trkpt><trkpt lat="48.24944" lon="-1.39111"><ele>98.41</ele></trkpt><trkpt lat="48.24946" lon="-1.39111"><ele>98.41</ele></trkpt><trkpt lat="48.24948" lon="-1.3911"><ele>98.32</ele></trkpt><trkpt lat="48.24951" lon="-1.39107"><ele>98.18</ele></trkpt><trkpt lat="48.24953" lon="-1.39105"><ele>98.22</ele></trkpt><trkpt lat="48.24955" lon="-1.39105"><ele>98.09</ele></trkpt><trkpt lat="48.24957" lon="-1.39104"><ele>98.09</ele></trkpt><trkpt lat="48.24958" lon="-1.39103"><ele>98.09</ele></trkpt><trkpt lat="48.2496" lon="-1.39102"><ele>97.96</ele></trkpt><trkpt lat="48.24962" lon="-1.39102"><ele>97.96</ele></trkpt><trkpt lat="48.24963" lon="-1.39102"><ele>97.96</ele></trkpt><trkpt lat="48.24966" lon="-1.39101"><ele>97.86</ele></trkpt><trkpt lat="48.24968" lon="-1.391"><ele>97.7</ele></trkpt><trkpt lat="48.24969" lon="-1.39099"><ele>97.7</ele></trkpt><trkpt lat="48.24972" lon="-1.39098"><ele>97.7</ele></trkpt><trkpt lat="48.24974" lon="-1.39097"><ele>97.57</ele></trkpt><trkpt lat="48.24976" lon="-1.39095"><ele>97.57</ele></trkpt><trkpt lat="48.24978" lon="-1.39095"><ele>97.39</ele></trkpt><trkpt lat="48.2498" lon="-1.39094"><ele>97.39</ele></trkpt><trkpt lat="48.24982" lon="-1.39093"><ele>97.21</ele></trkpt><trkpt lat="48.24984" lon="-1.39092"><ele>97.25</ele></trkpt><trkpt lat="48.24987" lon="-1.3909"><ele>97.07</ele></trkpt><trkpt lat="48.24988" lon="-1.3909"><ele>97.07</ele></trkpt><trkpt lat="48.2499" lon="-1.39089"><ele>96.86</ele></trkpt><trkpt lat="48.24991" lon="-1.39089"><ele>96.86</ele></trkpt><trkpt lat="48.24994" lon="-1.39088"><ele>96.66</ele></trkpt><trkpt lat="48.24995" lon="-1.39087"><ele>96.66</ele></trkpt><trkpt lat="48.24997" lon="-1.39087"><ele>96.66</ele></trkpt><trkpt lat="48.24998" lon="-1.39085"><ele>96.44</ele></trkpt><trkpt lat="48.25001" lon="-1.39083"><ele>96.47</ele></trkpt><trkpt lat="48.25002" lon="-1.39083"><ele>96.47</ele></trkpt><trkpt lat="48.25005" lon="-1.39081"><ele>96.27</ele></trkpt><trkpt lat="48.25008" lon="-1.39081"><ele>96.09</ele></trkpt><trkpt lat="48.2501" lon="-1.3908"><ele>96.12</ele></trkpt><trkpt lat="48.25011" lon="-1.3908"><ele>95.96</ele></trkpt><trkpt lat="48.25013" lon="-1.39078"><ele>95.96</ele></trkpt><trkpt lat="48.25015" lon="-1.39077"><ele>95.96</ele></trkpt><trkpt lat="48.25017" lon="-1.39077"><ele>95.81</ele></trkpt><trkpt lat="48.25019" lon="-1.39076"><ele>95.81</ele></trkpt><trkpt lat="48.25023" lon="-1.39073"><ele>95.71</ele></trkpt><trkpt lat="48.25026" lon="-1.39073"><ele>95.61</ele></trkpt><trkpt lat="48.25027" lon="-1.39072"><ele>95.61</ele></trkpt><trkpt lat="48.25029" lon="-1.39071"><ele>95.56</ele></trkpt><trkpt lat="48.25031" lon="-1.39071"><ele>95.56</ele></trkpt><trkpt lat="48.25033" lon="-1.3907"><ele>95.5</ele></trkpt><trkpt lat="48.25035" lon="-1.3907"><ele>95.5</ele></trkpt><trkpt lat="48.25036" lon="-1.39069"><ele>95.5</ele></trkpt><trkpt lat="48.25037" lon="-1.39069"><ele>95.42</ele></trkpt><trkpt lat="48.25039" lon="-1.39068"><ele>95.42</ele></trkpt><trkpt lat="48.25041" lon="-1.39067"><ele>95.4</ele></trkpt><trkpt lat="48.25043" lon="-1.39067"><ele>95.4</ele></trkpt><trkpt lat="48.25045" lon="-1.39066"><ele>95.4</ele></trkpt><trkpt lat="48.25047" lon="-1.39065"><ele>95.33</ele></trkpt><trkpt lat="48.25048" lon="-1.39064"><ele>95.33</ele></trkpt><trkpt lat="48.2505" lon="-1.39063"><ele>95.25</ele></trkpt><trkpt lat="48.25051" lon="-1.39063"><ele>95.25</ele></trkpt><trkpt lat="48.25053" lon="-1.39062"><ele>95.31</ele></trkpt><trkpt lat="48.25056" lon="-1.3906"><ele>95.23</ele></trkpt><trkpt lat="48.25058" lon="-1.39059"><ele>95.17</ele></trkpt><trkpt lat="48.2506" lon="-1.39058"><ele>95.21</ele></trkpt><trkpt lat="48.25061" lon="-1.39057"><ele>95.21</ele></trkpt><trkpt lat="48.25063" lon="-1.39056"><ele>95.14</ele></trkpt><trkpt lat="48.25065" lon="-1.39055"><ele>95.14</ele></trkpt><trkpt lat="48.25067" lon="-1.39055"><ele>95.1</ele></trkpt><trkpt lat="48.25069" lon="-1.39054"><ele>95.1</ele></trkpt><trkpt lat="48.25071" lon="-1.39053"><ele>95.06</ele></trkpt><trkpt lat="48.25072" lon="-1.39052"><ele>95.06</ele></trkpt><trkpt lat="48.25075" lon="-1.39052"><ele>95.06</ele></trkpt><trkpt lat="48.25077" lon="-1.39051"><ele>95.01</ele></trkpt><trkpt lat="48.25079" lon="-1.3905"><ele>94.96</ele></trkpt><trkpt lat="48.2508" lon="-1.39049"><ele>94.99</ele></trkpt><trkpt lat="48.25082" lon="-1.39048"><ele>94.99</ele></trkpt><trkpt lat="48.25084" lon="-1.39047"><ele>95.07</ele></trkpt><trkpt lat="48.25085" lon="-1.39046"><ele>95.07</ele></trkpt><trkpt lat="48.25087" lon="-1.39045"><ele>95.06</ele></trkpt><trkpt lat="48.25089" lon="-1.39044"><ele>95.1</ele></trkpt><trkpt lat="48.25091" lon="-1.39043"><ele>95.1</ele></trkpt><trkpt lat="48.25093" lon="-1.39042"><ele>95.1</ele></trkpt><trkpt lat="48.25095" lon="-1.39041"><ele>95.1</ele></trkpt><trkpt lat="48.25097" lon="-1.3904"><ele>95.16</ele></trkpt><trkpt lat="48.25099" lon="-1.39039"><ele>95.16</ele></trkpt><trkpt lat="48.25101" lon="-1.3904"><ele>95.21</ele></trkpt><trkpt lat="48.25103" lon="-1.3904"><ele>95.21</ele></trkpt><trkpt lat="48.25105" lon="-1.39038"><ele>95.21</ele></trkpt><trkpt lat="48.25108" lon="-1.39038"><ele>95.3</ele></trkpt><trkpt lat="48.25109" lon="-1.39038"><ele>95.3</ele></trkpt><trkpt lat="48.25112" lon="-1.39038"><ele>95.39</ele></trkpt><trkpt lat="48.25114" lon="-1.39039"><ele>95.4</ele></trkpt><trkpt lat="48.25115" lon="-1.3904"><ele>95.4</ele></trkpt><trkpt lat="48.25116" lon="-1.39039"><ele>95.4</ele></trkpt><trkpt lat="48.25119" lon="-1.39038"><ele>95.41</ele></trkpt><trkpt lat="48.2512" lon="-1.39038"><ele>95.41</ele></trkpt><trkpt lat="48.25122" lon="-1.39037"><ele>95.42</ele></trkpt><trkpt lat="48.25124" lon="-1.39036"><ele>95.5</ele></trkpt><trkpt lat="48.25127" lon="-1.39032"><ele>95.64</ele></trkpt><trkpt lat="48.25127" lon="-1.39033"><ele>95.63</ele></trkpt><trkpt lat="48.25129" lon="-1.39033"><ele>95.63</ele></trkpt><trkpt lat="48.2513" lon="-1.39033"><ele>95.63</ele></trkpt><trkpt lat="48.25132" lon="-1.39032"><ele>95.79</ele></trkpt><trkpt lat="48.25133" lon="-1.39032"><ele>95.79</ele></trkpt><trkpt lat="48.25135" lon="-1.39032"><ele>95.79</ele></trkpt><trkpt lat="48.25137" lon="-1.39032"><ele>95.94</ele></trkpt><trkpt lat="48.25138" lon="-1.39032"><ele>95.94</ele></trkpt><trkpt lat="48.25141" lon="-1.39031"><ele>96.1</ele></trkpt><trkpt lat="48.25143" lon="-1.39032"><ele>96.1</ele></trkpt><trkpt lat="48.25144" lon="-1.39032"><ele>96.27</ele></trkpt><trkpt lat="48.25146" lon="-1.39032"><ele>96.27</ele></trkpt><trkpt lat="48.25148" lon="-1.39031"><ele>96.27</ele></trkpt><trkpt lat="48.25151" lon="-1.3903"><ele>96.5</ele></trkpt><trkpt lat="48.25153" lon="-1.39029"><ele>96.76</ele></trkpt><trkpt lat="48.25155" lon="-1.39029"><ele>96.76</ele></trkpt><trkpt lat="48.25156" lon="-1.39029"><ele>96.76</ele></trkpt><trkpt lat="48.25158" lon="-1.39029"><ele>97.07</ele></trkpt><trkpt lat="48.2516" lon="-1.39029"><ele>97.07</ele></trkpt><trkpt lat="48.25161" lon="-1.39029"><ele>97.39</ele></trkpt><trkpt lat="48.25163" lon="-1.39028"><ele>97.41</ele></trkpt><trkpt lat="48.25164" lon="-1.39029"><ele>97.39</ele></trkpt><trkpt lat="48.25166" lon="-1.39028"><ele>97.74</ele></trkpt><trkpt lat="48.25167" lon="-1.39028"><ele>97.74</ele></trkpt><trkpt lat="48.25168" lon="-1.39029"><ele>97.72</ele></trkpt><trkpt lat="48.25169" lon="-1.39029"><ele>97.72</ele></trkpt><trkpt lat="48.25171" lon="-1.39029"><ele>98.06</ele></trkpt><trkpt lat="48.25174" lon="-1.39029"><ele>98.4</ele></trkpt><trkpt lat="48.25175" lon="-1.39029"><ele>98.4</ele></trkpt><trkpt lat="48.25177" lon="-1.39028"><ele>98.4</ele></trkpt><trkpt lat="48.2518" lon="-1.39028"><ele>98.71</ele></trkpt><trkpt lat="48.25182" lon="-1.39028"><ele>98.71</ele></trkpt><trkpt lat="48.25183" lon="-1.39028"><ele>99.01</ele></trkpt><trkpt lat="48.25185" lon="-1.39027"><ele>99.01</ele></trkpt><trkpt lat="48.25187" lon="-1.39027"><ele>99.31</ele></trkpt><trkpt lat="48.2519" lon="-1.39026"><ele>99.31</ele></trkpt><trkpt lat="48.2519" lon="-1.39025"><ele>99.31</ele></trkpt><trkpt lat="48.25192" lon="-1.39026"><ele>99.61</ele></trkpt><trkpt lat="48.25194" lon="-1.39026"><ele>99.61</ele></trkpt><trkpt lat="48.25195" lon="-1.39025"><ele>99.61</ele></trkpt><trkpt lat="48.25197" lon="-1.39025"><ele>99.92</ele></trkpt><trkpt lat="48.25199" lon="-1.39025"><ele>99.92</ele></trkpt><trkpt lat="48.252" lon="-1.39025"><ele>100.23</ele></trkpt><trkpt lat="48.25202" lon="-1.39024"><ele>100.26</ele></trkpt><trkpt lat="48.25203" lon="-1.39025"><ele>100.23</ele></trkpt><trkpt lat="48.25204" lon="-1.39025"><ele>100.56</ele></trkpt><trkpt lat="48.25207" lon="-1.39025"><ele>100.56</ele></trkpt><trkpt lat="48.25209" lon="-1.39024"><ele>100.93</ele></trkpt><trkpt lat="48.2521" lon="-1.39025"><ele>100.9</ele></trkpt><trkpt lat="48.25212" lon="-1.39024"><ele>100.93</ele></trkpt><trkpt lat="48.25214" lon="-1.39024"><ele>101.26</ele></trkpt><trkpt lat="48.25215" lon="-1.39024"><ele>101.26</ele></trkpt><trkpt lat="48.25216" lon="-1.39025"><ele>101.24</ele></trkpt><trkpt lat="48.25218" lon="-1.39026"><ele>101.56</ele></trkpt><trkpt lat="48.2522" lon="-1.39025"><ele>101.56</ele></trkpt><trkpt lat="48.25222" lon="-1.39025"><ele>101.88</ele></trkpt><trkpt lat="48.25224" lon="-1.39025"><ele>101.88</ele></trkpt><trkpt lat="48.25225" lon="-1.39024"><ele>101.91</ele></trkpt><trkpt lat="48.25227" lon="-1.39024"><ele>102.23</ele></trkpt><trkpt lat="48.2523" lon="-1.39024"><ele>102.55</ele></trkpt><trkpt lat="48.25231" lon="-1.39023"><ele>102.55</ele></trkpt><trkpt lat="48.25233" lon="-1.39023"><ele>102.55</ele></trkpt><trkpt lat="48.25234" lon="-1.39022"><ele>102.87</ele></trkpt><trkpt lat="48.25237" lon="-1.39022"><ele>102.87</ele></trkpt><trkpt lat="48.2524" lon="-1.39022"><ele>103.19</ele></trkpt><trkpt lat="48.25241" lon="-1.39021"><ele>103.19</ele></trkpt><trkpt lat="48.25243" lon="-1.39022"><ele>103.47</ele></trkpt><trkpt lat="48.25245" lon="-1.39021"><ele>103.47</ele></trkpt><trkpt lat="48.25246" lon="-1.39022"><ele>103.47</ele></trkpt><trkpt lat="48.25248" lon="-1.39022"><ele>103.71</ele></trkpt><trkpt lat="48.2525" lon="-1.39023"><ele>103.71</ele></trkpt><trkpt lat="48.25253" lon="-1.39022"><ele>103.91</ele></trkpt><trkpt lat="48.25255" lon="-1.39023"><ele>103.91</ele></trkpt><trkpt lat="48.25257" lon="-1.39022"><ele>104.09</ele></trkpt><trkpt lat="48.25258" lon="-1.39021"><ele>104.09</ele></trkpt><trkpt lat="48.25261" lon="-1.39021"><ele>104.26</ele></trkpt><trkpt lat="48.25263" lon="-1.39021"><ele>104.26</ele></trkpt><trkpt lat="48.25264" lon="-1.39021"><ele>104.42</ele></trkpt><trkpt lat="48.25266" lon="-1.39021"><ele>104.42</ele></trkpt><trkpt lat="48.25268" lon="-1.39021"><ele>104.42</ele></trkpt><trkpt lat="48.2527" lon="-1.39021"><ele>104.59</ele></trkpt><trkpt lat="48.25271" lon="-1.39021"><ele>104.59</ele></trkpt><trkpt lat="48.25273" lon="-1.39021"><ele>104.76</ele></trkpt><trkpt lat="48.25274" lon="-1.39021"><ele>104.76</ele></trkpt><trkpt lat="48.25276" lon="-1.39021"><ele>104.76</ele></trkpt><trkpt lat="48.25278" lon="-1.39021"><ele>104.91</ele></trkpt><trkpt lat="48.2528" lon="-1.39021"><ele>104.91</ele></trkpt><trkpt lat="48.25281" lon="-1.39022"><ele>104.91</ele></trkpt><trkpt lat="48.25283" lon="-1.39022"><ele>105.05</ele></trkpt><trkpt lat="48.25284" lon="-1.39022"><ele>105.05</ele></trkpt><trkpt lat="48.25285" lon="-1.39022"><ele>105.05</ele></trkpt><trkpt lat="48.25287" lon="-1.39022"><ele>105.18</ele></trkpt><trkpt lat="48.25289" lon="-1.39023"><ele>105.18</ele></trkpt><trkpt lat="48.2529" lon="-1.39022"><ele>105.31</ele></trkpt><trkpt lat="48.25292" lon="-1.39022"><ele>105.31</ele></trkpt><trkpt lat="48.25293" lon="-1.39023"><ele>105.31</ele></trkpt><trkpt lat="48.25295" lon="-1.39023"><ele>105.43</ele></trkpt><trkpt lat="48.25297" lon="-1.39023"><ele>105.43</ele></trkpt><trkpt lat="48.25299" lon="-1.39022"><ele>105.57</ele></trkpt><trkpt lat="48.25301" lon="-1.39021"><ele>105.57</ele></trkpt><trkpt lat="48.25304" lon="-1.39021"><ele>105.72</ele></trkpt><trkpt lat="48.25305" lon="-1.3902"><ele>105.72</ele></trkpt><trkpt lat="48.25308" lon="-1.3902"><ele>105.89</ele></trkpt><trkpt lat="48.2531" lon="-1.3902"><ele>105.89</ele></trkpt><trkpt lat="48.25311" lon="-1.3902"><ele>105.89</ele></trkpt><trkpt lat="48.25313" lon="-1.3902"><ele>106.07</ele></trkpt><trkpt lat="48.25315" lon="-1.39019"><ele>106.14</ele></trkpt><trkpt lat="48.25317" lon="-1.39019"><ele>106.34</ele></trkpt><trkpt lat="48.25319" lon="-1.3902"><ele>106.26</ele></trkpt><trkpt lat="48.2532" lon="-1.3902"><ele>106.41</ele></trkpt><trkpt lat="48.25322" lon="-1.39019"><ele>106.48</ele></trkpt><trkpt lat="48.25323" lon="-1.39018"><ele>106.48</ele></trkpt><trkpt lat="48.25326" lon="-1.39017"><ele>106.55</ele></trkpt><trkpt lat="48.25328" lon="-1.39017"><ele>106.55</ele></trkpt><trkpt lat="48.2533" lon="-1.39016"><ele>106.6</ele></trkpt><trkpt lat="48.25332" lon="-1.39016"><ele>106.6</ele></trkpt><trkpt lat="48.25333" lon="-1.39015"><ele>106.74</ele></trkpt><trkpt lat="48.25336" lon="-1.39015"><ele>106.74</ele></trkpt><trkpt lat="48.25338" lon="-1.39015"><ele>106.9</ele></trkpt><trkpt lat="48.2534" lon="-1.39014"><ele>106.9</ele></trkpt><trkpt lat="48.25341" lon="-1.39014"><ele>106.9</ele></trkpt><trkpt lat="48.25343" lon="-1.39014"><ele>107.1</ele></trkpt><trkpt lat="48.25344" lon="-1.39015"><ele>107.1</ele></trkpt><trkpt lat="48.25346" lon="-1.39014"><ele>107.32</ele></trkpt><trkpt lat="48.25348" lon="-1.39013"><ele>107.32</ele></trkpt><trkpt lat="48.25349" lon="-1.39013"><ele>107.32</ele></trkpt><trkpt lat="48.25351" lon="-1.39012"><ele>107.53</ele></trkpt><trkpt lat="48.25353" lon="-1.39011"><ele>107.55</ele></trkpt><trkpt lat="48.25354" lon="-1.39011"><ele>107.55</ele></trkpt><trkpt lat="48.25356" lon="-1.3901"><ele>107.68</ele></trkpt><trkpt lat="48.25357" lon="-1.3901"><ele>107.68</ele></trkpt><trkpt lat="48.25359" lon="-1.39011"><ele>107.76</ele></trkpt><trkpt lat="48.25361" lon="-1.3901"><ele>107.76</ele></trkpt><trkpt lat="48.25362" lon="-1.3901"><ele>107.76</ele></trkpt><trkpt lat="48.25364" lon="-1.39009"><ele>107.85</ele></trkpt><trkpt lat="48.25366" lon="-1.39008"><ele>107.85</ele></trkpt><trkpt lat="48.25368" lon="-1.39006"><ele>108.03</ele></trkpt><trkpt lat="48.2537" lon="-1.39006"><ele>108.03</ele></trkpt><trkpt lat="48.25372" lon="-1.39005"><ele>108.19</ele></trkpt><trkpt lat="48.25373" lon="-1.39004"><ele>108.19</ele></trkpt><trkpt lat="48.25375" lon="-1.39003"><ele>108.19</ele></trkpt><trkpt lat="48.25377" lon="-1.39001"><ele>108.35</ele></trkpt><trkpt lat="48.25378" lon="-1.39001"><ele>108.35</ele></trkpt><trkpt lat="48.2538" lon="-1.38999"><ele>108.46</ele></trkpt><trkpt lat="48.25381" lon="-1.38999"><ele>108.46</ele></trkpt><trkpt lat="48.25383" lon="-1.38999"><ele>108.46</ele></trkpt><trkpt lat="48.25385" lon="-1.38997"><ele>108.59</ele></trkpt><trkpt lat="48.25387" lon="-1.38996"><ele>108.59</ele></trkpt><trkpt lat="48.25389" lon="-1.38995"><ele>108.71</ele></trkpt><trkpt lat="48.2539" lon="-1.38994"><ele>108.72</ele></trkpt><trkpt lat="48.25393" lon="-1.38992"><ele>108.82</ele></trkpt><trkpt lat="48.25394" lon="-1.38991"><ele>108.82</ele></trkpt><trkpt lat="48.25396" lon="-1.38991"><ele>108.82</ele></trkpt><trkpt lat="48.25397" lon="-1.38991"><ele>108.82</ele></trkpt><trkpt lat="48.25398" lon="-1.3899"><ele>108.95</ele></trkpt><trkpt lat="48.254" lon="-1.3899"><ele>108.95</ele></trkpt><trkpt lat="48.25402" lon="-1.38989"><ele>109.09</ele></trkpt><trkpt lat="48.25404" lon="-1.38988"><ele>109.09</ele></trkpt><trkpt lat="48.25405" lon="-1.38988"><ele>109.09</ele></trkpt><trkpt lat="48.25407" lon="-1.38987"><ele>109.26</ele></trkpt><trkpt lat="48.25409" lon="-1.38985"><ele>109.26</ele></trkpt><trkpt lat="48.25411" lon="-1.38983"><ele>109.47</ele></trkpt><trkpt lat="48.25413" lon="-1.38982"><ele>109.47</ele></trkpt><trkpt lat="48.25414" lon="-1.3898"><ele>109.48</ele></trkpt><trkpt lat="48.25416" lon="-1.3898"><ele>109.64</ele></trkpt><trkpt lat="48.25417" lon="-1.38979"><ele>109.64</ele></trkpt><trkpt lat="48.25418" lon="-1.38979"><ele>109.64</ele></trkpt><trkpt lat="48.2542" lon="-1.38977"><ele>109.69</ele></trkpt><trkpt lat="48.25422" lon="-1.38976"><ele>109.69</ele></trkpt><trkpt lat="48.25425" lon="-1.38975"><ele>109.77</ele></trkpt><trkpt lat="48.25426" lon="-1.38974"><ele>109.77</ele></trkpt><trkpt lat="48.25428" lon="-1.38972"><ele>109.91</ele></trkpt><trkpt lat="48.25429" lon="-1.38972"><ele>109.91</ele></trkpt><trkpt lat="48.2543" lon="-1.38971"><ele>109.91</ele></trkpt><trkpt lat="48.25432" lon="-1.38968"><ele>110.19</ele></trkpt><trkpt lat="48.25434" lon="-1.38966"><ele>110.19</ele></trkpt><trkpt lat="48.25436" lon="-1.38965"><ele>110.47</ele></trkpt><trkpt lat="48.25438" lon="-1.38965"><ele>110.47</ele></trkpt><trkpt lat="48.25439" lon="-1.38964"><ele>110.51</ele></trkpt><trkpt lat="48.25441" lon="-1.38963"><ele>110.77</ele></trkpt><trkpt lat="48.25443" lon="-1.38962"><ele>110.77</ele></trkpt><trkpt lat="48.25444" lon="-1.38961"><ele>110.77</ele></trkpt><trkpt lat="48.25446" lon="-1.38961"><ele>111.01</ele></trkpt><trkpt lat="48.25448" lon="-1.3896"><ele>111.01</ele></trkpt><trkpt lat="48.2545" lon="-1.38959"><ele>111.22</ele></trkpt><trkpt lat="48.25452" lon="-1.38959"><ele>111.22</ele></trkpt><trkpt lat="48.25454" lon="-1.38958"><ele>111.4</ele></trkpt><trkpt lat="48.25457" lon="-1.38954"><ele>111.38</ele></trkpt><trkpt lat="48.25459" lon="-1.38953"><ele>111.54</ele></trkpt><trkpt lat="48.25461" lon="-1.38951"><ele>111.53</ele></trkpt><trkpt lat="48.25462" lon="-1.38951"><ele>111.69</ele></trkpt><trkpt lat="48.25464" lon="-1.3895"><ele>111.69</ele></trkpt><trkpt lat="48.25466" lon="-1.38948"><ele>111.85</ele></trkpt><trkpt lat="48.25468" lon="-1.38948"><ele>111.85</ele></trkpt><trkpt lat="48.2547" lon="-1.38947"><ele>111.98</ele></trkpt><trkpt lat="48.25483" lon="-1.38926"><ele>112.36</ele></trkpt><trkpt lat="48.25523" lon="-1.39024"><ele>112.4</ele></trkpt><trkpt lat="48.25547" lon="-1.38999"><ele>111.72</ele></trkpt><trkpt lat="48.25634" lon="-1.38998"><ele>111.58</ele></trkpt><trkpt lat="48.2565" lon="-1.39142"><ele>113.09</ele></trkpt><trkpt lat="48.25675" lon="-1.39205"><ele>113.5</ele></trkpt><trkpt lat="48.25698" lon="-1.39234"><ele>113.94</ele></trkpt><trkpt lat="48.25693" lon="-1.39298"><ele>113.53</ele></trkpt><trkpt lat="48.25853" lon="-1.39292"><ele>104.83</ele></trkpt><trkpt lat="48.25826" lon="-1.39369"><ele>105.4</ele></trkpt><trkpt lat="48.25816" lon="-1.39455"><ele>105.37</ele></trkpt><trkpt lat="48.2582" lon="-1.3951"><ele>105.72</ele></trkpt><trkpt lat="48.25838" lon="-1.39553"><ele>105.34</ele></trkpt><trkpt lat="48.25839" lon="-1.39556"><ele>105.34</ele></trkpt><trkpt lat="48.2584" lon="-1.39557"><ele>105.23</ele></trkpt><trkpt lat="48.25841" lon="-1.39559"><ele>105.23</ele></trkpt><trkpt lat="48.25842" lon="-1.39561"><ele>105.32</ele></trkpt><trkpt lat="48.25843" lon="-1.39564"><ele>105.32</ele></trkpt><trkpt lat="48.25844" lon="-1.39566"><ele>105.26</ele></trkpt><trkpt lat="48.25845" lon="-1.39568"><ele>105.26</ele></trkpt><trkpt lat="48.25846" lon="-1.3957"><ele>105.34</ele></trkpt><trkpt lat="48.25848" lon="-1.39572"><ele>105.22</ele></trkpt><trkpt lat="48.2585" lon="-1.39573"><ele>105.22</ele></trkpt><trkpt lat="48.25851" lon="-1.39575"><ele>105.32</ele></trkpt><trkpt lat="48.25853" lon="-1.39577"><ele>105.19</ele></trkpt><trkpt lat="48.25854" lon="-1.39581"><ele>105.31</ele></trkpt><trkpt lat="48.25856" lon="-1.39582"><ele>105.31</ele></trkpt><trkpt lat="48.25858" lon="-1.39584"><ele>105.3</ele></trkpt><trkpt lat="48.25859" lon="-1.39586"><ele>105.3</ele></trkpt><trkpt lat="48.25862" lon="-1.39588"><ele>105.31</ele></trkpt><trkpt lat="48.25864" lon="-1.39591"><ele>105.38</ele></trkpt><trkpt lat="48.25866" lon="-1.39594"><ele>105.31</ele></trkpt><trkpt lat="48.25867" lon="-1.39596"><ele>105.38</ele></trkpt><trkpt lat="48.25868" lon="-1.39598"><ele>105.38</ele></trkpt><trkpt lat="48.2587" lon="-1.396"><ele>105.39</ele></trkpt><trkpt lat="48.25872" lon="-1.39602"><ele>105.39</ele></trkpt><trkpt lat="48.25874" lon="-1.39603"><ele>105.34</ele></trkpt><trkpt lat="48.25876" lon="-1.39604"><ele>105.39</ele></trkpt><trkpt lat="48.25878" lon="-1.39605"><ele>105.34</ele></trkpt><trkpt lat="48.25881" lon="-1.39605"><ele>105.34</ele></trkpt><trkpt lat="48.25883" lon="-1.39605"><ele>105.32</ele></trkpt><trkpt lat="48.25885" lon="-1.39604"><ele>105.32</ele></trkpt><trkpt lat="48.25887" lon="-1.39605"><ele>105.32</ele></trkpt><trkpt lat="48.2589" lon="-1.39605"><ele>105.32</ele></trkpt><trkpt lat="48.25891" lon="-1.39604"><ele>105.34</ele></trkpt><trkpt lat="48.25893" lon="-1.39604"><ele>105.34</ele></trkpt><trkpt lat="48.25895" lon="-1.39604"><ele>105.34</ele></trkpt><trkpt lat="48.25898" lon="-1.39604"><ele>105.34</ele></trkpt><trkpt lat="48.259" lon="-1.39604"><ele>105.32</ele></trkpt><trkpt lat="48.25902" lon="-1.39604"><ele>105.32</ele></trkpt><trkpt lat="48.25904" lon="-1.39604"><ele>105.3</ele></trkpt><trkpt lat="48.25905" lon="-1.39605"><ele>105.3</ele></trkpt><trkpt lat="48.25908" lon="-1.39604"><ele>105.27</ele></trkpt><trkpt lat="48.25911" lon="-1.39604"><ele>105.27</ele></trkpt><trkpt lat="48.25913" lon="-1.39604"><ele>105.21</ele></trkpt><trkpt lat="48.25914" lon="-1.39605"><ele>105.21</ele></trkpt><trkpt lat="48.25917" lon="-1.39605"><ele>105.2</ele></trkpt><trkpt lat="48.25918" lon="-1.39605"><ele>105.2</ele></trkpt><trkpt lat="48.25921" lon="-1.39604"><ele>105.2</ele></trkpt><trkpt lat="48.25924" lon="-1.39604"><ele>105.2</ele></trkpt><trkpt lat="48.25927" lon="-1.39602"><ele>105.17</ele></trkpt><trkpt lat="48.25929" lon="-1.39601"><ele>105.17</ele></trkpt><trkpt lat="48.2593" lon="-1.39604"><ele>105.19</ele></trkpt><trkpt lat="48.25932" lon="-1.39604"><ele>105.19</ele></trkpt><trkpt lat="48.25935" lon="-1.39603"><ele>105.11</ele></trkpt><trkpt lat="48.25938" lon="-1.39602"><ele>105.1</ele></trkpt><trkpt lat="48.2594" lon="-1.39601"><ele>105.1</ele></trkpt><trkpt lat="48.25941" lon="-1.39601"><ele>105.1</ele></trkpt><trkpt lat="48.25943" lon="-1.39601"><ele>105.04</ele></trkpt><trkpt lat="48.25946" lon="-1.39601"><ele>105.04</ele></trkpt><trkpt lat="48.25948" lon="-1.39602"><ele>104.96</ele></trkpt><trkpt lat="48.2595" lon="-1.39602"><ele>104.96</ele></trkpt><trkpt lat="48.25952" lon="-1.39602"><ele>104.9</ele></trkpt><trkpt lat="48.25954" lon="-1.39603"><ele>104.9</ele></trkpt><trkpt lat="48.25956" lon="-1.39603"><ele>104.92</ele></trkpt><trkpt lat="48.25958" lon="-1.39602"><ele>104.92</ele></trkpt><trkpt lat="48.25959" lon="-1.39601"><ele>104.92</ele></trkpt><trkpt lat="48.25962" lon="-1.39602"><ele>104.99</ele></trkpt><trkpt lat="48.25964" lon="-1.39602"><ele>105.06</ele></trkpt><trkpt lat="48.25965" lon="-1.39601"><ele>105.06</ele></trkpt><trkpt lat="48.25967" lon="-1.39601"><ele>105.06</ele></trkpt><trkpt lat="48.25969" lon="-1.396"><ele>105.11</ele></trkpt><trkpt lat="48.25972" lon="-1.396"><ele>105.11</ele></trkpt><trkpt lat="48.25975" lon="-1.396"><ele>105.19</ele></trkpt><trkpt lat="48.25977" lon="-1.396"><ele>105.31</ele></trkpt><trkpt lat="48.25978" lon="-1.396"><ele>105.31</ele></trkpt><trkpt lat="48.25982" lon="-1.39599"><ele>105.42</ele></trkpt><trkpt lat="48.25983" lon="-1.396"><ele>105.46</ele></trkpt><trkpt lat="48.25985" lon="-1.39601"><ele>105.6</ele></trkpt><trkpt lat="48.25987" lon="-1.39601"><ele>105.6</ele></trkpt><trkpt lat="48.25988" lon="-1.39602"><ele>105.6</ele></trkpt><trkpt lat="48.25989" lon="-1.39605"><ele>105.63</ele></trkpt><trkpt lat="48.2599" lon="-1.39607"><ele>105.78</ele></trkpt><trkpt lat="48.25991" lon="-1.39609"><ele>105.83</ele></trkpt><trkpt lat="48.25992" lon="-1.39612"><ele>105.83</ele></trkpt><trkpt lat="48.25993" lon="-1.39614"><ele>105.87</ele></trkpt><trkpt lat="48.25994" lon="-1.39616"><ele>106.04</ele></trkpt><trkpt lat="48.25995" lon="-1.39618"><ele>106.07</ele></trkpt><trkpt lat="48.25996" lon="-1.39622"><ele>106.1</ele></trkpt><trkpt lat="48.25996" lon="-1.39625"><ele>106.1</ele></trkpt><trkpt lat="48.25996" lon="-1.39628"><ele>106.1</ele></trkpt><trkpt lat="48.25995" lon="-1.39632"><ele>106.09</ele></trkpt><trkpt lat="48.25994" lon="-1.39635"><ele>106.08</ele></trkpt><trkpt lat="48.25994" lon="-1.39638"><ele>106.06</ele></trkpt><trkpt lat="48.25994" lon="-1.39643"><ele>106.05</ele></trkpt><trkpt lat="48.25993" lon="-1.39644"><ele>105.96</ele></trkpt><trkpt lat="48.25993" lon="-1.39647"><ele>105.99</ele></trkpt><trkpt lat="48.25994" lon="-1.39651"><ele>106.1</ele></trkpt><trkpt lat="48.25993" lon="-1.39654"><ele>106.05</ele></trkpt><trkpt lat="48.25993" lon="-1.39658"><ele>106.11</ele></trkpt><trkpt lat="48.25992" lon="-1.39661"><ele>106.18</ele></trkpt><trkpt lat="48.25992" lon="-1.39663"><ele>106.18</ele></trkpt><trkpt lat="48.25993" lon="-1.39666"><ele>106.26</ele></trkpt><trkpt lat="48.25992" lon="-1.39669"><ele>106.34</ele></trkpt><trkpt lat="48.25993" lon="-1.39677"><ele>106.48</ele></trkpt><trkpt lat="48.25992" lon="-1.39681"><ele>106.53</ele></trkpt><trkpt lat="48.25991" lon="-1.39684"><ele>106.53</ele></trkpt><trkpt lat="48.25991" lon="-1.39687"><ele>106.57</ele></trkpt><trkpt lat="48.25991" lon="-1.3969"><ele>106.58</ele></trkpt><trkpt lat="48.2599" lon="-1.39693"><ele>106.58</ele></trkpt><trkpt lat="48.2599" lon="-1.39696"><ele>106.59</ele></trkpt><trkpt lat="48.2599" lon="-1.39698"><ele>106.59</ele></trkpt><trkpt lat="48.2599" lon="-1.39701"><ele>106.58</ele></trkpt><trkpt lat="48.2599" lon="-1.39704"><ele>106.58</ele></trkpt><trkpt lat="48.2599" lon="-1.39707"><ele>106.56</ele></trkpt><trkpt lat="48.25991" lon="-1.3971"><ele>106.56</ele></trkpt><trkpt lat="48.25991" lon="-1.39713"><ele>106.56</ele></trkpt><trkpt lat="48.25991" lon="-1.39717"><ele>106.54</ele></trkpt><trkpt lat="48.25991" lon="-1.3972"><ele>106.53</ele></trkpt><trkpt lat="48.2599" lon="-1.39726"><ele>106.54</ele></trkpt><trkpt lat="48.2599" lon="-1.39729"><ele>106.55</ele></trkpt><trkpt lat="48.2599" lon="-1.39733"><ele>106.56</ele></trkpt><trkpt lat="48.2599" lon="-1.39736"><ele>106.56</ele></trkpt><trkpt lat="48.25989" lon="-1.3974"><ele>106.43</ele></trkpt><trkpt lat="48.2599" lon="-1.39744"><ele>106.66</ele></trkpt><trkpt lat="48.2599" lon="-1.39746"><ele>106.73</ele></trkpt><trkpt lat="48.25989" lon="-1.39749"><ele>106.55</ele></trkpt><trkpt lat="48.25988" lon="-1.39752"><ele>106.63</ele></trkpt><trkpt lat="48.25988" lon="-1.39755"><ele>106.72</ele></trkpt><trkpt lat="48.25987" lon="-1.39758"><ele>106.72</ele></trkpt><trkpt lat="48.25986" lon="-1.3976"><ele>106.82</ele></trkpt><trkpt lat="48.25986" lon="-1.39764"><ele>106.9</ele></trkpt><trkpt lat="48.25985" lon="-1.39765"><ele>106.9</ele></trkpt><trkpt lat="48.25984" lon="-1.39769"><ele>106.8</ele></trkpt><trkpt lat="48.25983" lon="-1.39772"><ele>106.86</ele></trkpt><trkpt lat="48.25983" lon="-1.39776"><ele>106.92</ele></trkpt><trkpt lat="48.25983" lon="-1.3978"><ele>106.97</ele></trkpt><trkpt lat="48.25983" lon="-1.39784"><ele>107.01</ele></trkpt><trkpt lat="48.25982" lon="-1.39787"><ele>107.01</ele></trkpt><trkpt lat="48.25982" lon="-1.39791"><ele>107.06</ele></trkpt><trkpt lat="48.25981" lon="-1.39794"><ele>107.11</ele></trkpt><trkpt lat="48.25981" lon="-1.39798"><ele>107.18</ele></trkpt><trkpt lat="48.25981" lon="-1.398"><ele>107.18</ele></trkpt><trkpt lat="48.2598" lon="-1.39802"><ele>107.07</ele></trkpt><trkpt lat="48.25979" lon="-1.39805"><ele>107.07</ele></trkpt><trkpt lat="48.2598" lon="-1.39806"><ele>107.18</ele></trkpt><trkpt lat="48.2598" lon="-1.39809"><ele>107.18</ele></trkpt><trkpt lat="48.2598" lon="-1.39812"><ele>107.3</ele></trkpt><trkpt lat="48.2598" lon="-1.39814"><ele>107.44</ele></trkpt><trkpt lat="48.25979" lon="-1.39818"><ele>107.44</ele></trkpt><trkpt lat="48.25978" lon="-1.3982"><ele>107.58</ele></trkpt><trkpt lat="48.25978" lon="-1.39823"><ele>107.71</ele></trkpt><trkpt lat="48.25977" lon="-1.39827"><ele>107.84</ele></trkpt><trkpt lat="48.25977" lon="-1.3983"><ele>107.84</ele></trkpt><trkpt lat="48.25977" lon="-1.39834"><ele>107.94</ele></trkpt><trkpt lat="48.25975" lon="-1.3984"><ele>107.94</ele></trkpt><trkpt lat="48.25975" lon="-1.39843"><ele>107.94</ele></trkpt><trkpt lat="48.25975" lon="-1.39846"><ele>108</ele></trkpt><trkpt lat="48.25974" lon="-1.3985"><ele>108.05</ele></trkpt><trkpt lat="48.25974" lon="-1.39852"><ele>108.05</ele></trkpt><trkpt lat="48.25973" lon="-1.39856"><ele>108.11</ele></trkpt><trkpt lat="48.25973" lon="-1.3986"><ele>108.19</ele></trkpt><trkpt lat="48.25973" lon="-1.39863"><ele>108.26</ele></trkpt><trkpt lat="48.25972" lon="-1.39864"><ele>108.23</ele></trkpt><trkpt lat="48.25971" lon="-1.39867"><ele>108.31</ele></trkpt><trkpt lat="48.25971" lon="-1.39869"><ele>108.31</ele></trkpt><trkpt lat="48.2597" lon="-1.39872"><ele>108.39</ele></trkpt><trkpt lat="48.2597" lon="-1.39875"><ele>108.44</ele></trkpt><trkpt lat="48.2597" lon="-1.39879"><ele>108.5</ele></trkpt><trkpt lat="48.25971" lon="-1.39882"><ele>108.5</ele></trkpt><trkpt lat="48.25973" lon="-1.39885"><ele>108.61</ele></trkpt><trkpt lat="48.25972" lon="-1.39886"><ele>108.54</ele></trkpt><trkpt lat="48.25972" lon="-1.39888"><ele>108.62</ele></trkpt><trkpt lat="48.25972" lon="-1.39891"><ele>108.62</ele></trkpt><trkpt lat="48.25973" lon="-1.39894"><ele>108.8</ele></trkpt><trkpt lat="48.25975" lon="-1.39896"><ele>108.91</ele></trkpt><trkpt lat="48.25976" lon="-1.39898"><ele>108.91</ele></trkpt><trkpt lat="48.25975" lon="-1.39903"><ele>109.03</ele></trkpt><trkpt lat="48.25975" lon="-1.39907"><ele>109.14</ele></trkpt><trkpt lat="48.25975" lon="-1.39909"><ele>109.26</ele></trkpt><trkpt lat="48.25976" lon="-1.39912"><ele>109.26</ele></trkpt><trkpt lat="48.25977" lon="-1.39915"><ele>109.43</ele></trkpt><trkpt lat="48.25978" lon="-1.39918"><ele>109.49</ele></trkpt><trkpt lat="48.25978" lon="-1.39919"><ele>109.49</ele></trkpt><trkpt lat="48.2598" lon="-1.39922"><ele>109.53</ele></trkpt><trkpt lat="48.2598" lon="-1.39923"><ele>109.53</ele></trkpt><trkpt lat="48.25979" lon="-1.39924"><ele>109.53</ele></trkpt><trkpt lat="48.25979" lon="-1.39927"><ele>109.59</ele></trkpt><trkpt lat="48.2598" lon="-1.39931"><ele>109.67</ele></trkpt><trkpt lat="48.2598" lon="-1.39932"><ele>109.67</ele></trkpt><trkpt lat="48.26004" lon="-1.3999"><ele>111.45</ele></trkpt></trkseg></trk></gpx>
