<?xml version="1.0" encoding="UTF-8" standalone="no"?>
<gpx xmlns="http://www.topografix.com/GPX/1/1" version="1.1" xmlns:xsi="http://www.w3.org/2001/XMLSchema-instance" xsi:schemaLocation="http://www.topografix.com/GPX/1/1 http://www.topografix.com/GPX/1/1/gpx.xsd" creator="Cirkwi"><metadata><name><![CDATA[Sentier Écologique]]></name><desc><![CDATA[Sentier bien exposé qui domine le village et traverse l’éboulis de la Perrière. Tout au long, indications sur la faune et la flore locale.]]></desc><author><name><![CDATA[Renault]]></name></author><link href="http://fichier0.cirkwi.com/image/photo/circuit/1300x1300/66954/fr/0.jpg"><text><![CDATA[|]]></text></link><time>2024-12-23T16:03:13Z</time></metadata><trk><trkseg><trkpt lat="45.90783" lon="6.42872"><ele>1100.59</ele></trkpt><trkpt lat="45.90783" lon="6.42889"><ele>1102.23</ele></trkpt><trkpt lat="45.90788" lon="6.42929"><ele>1105.73</ele></trkpt><trkpt lat="45.90799" lon="6.4301"><ele>1111.26</ele></trkpt><trkpt lat="45.90812" lon="6.43066"><ele>1115.22</ele></trkpt><trkpt lat="45.9082" lon="6.43066"><ele>1116.02</ele></trkpt><trkpt lat="45.90814" lon="6.42995"><ele>1121.64</ele></trkpt><trkpt lat="45.90826" lon="6.42949"><ele>1124.33</ele></trkpt><trkpt lat="45.90824" lon="6.42911"><ele>1124.12</ele></trkpt><trkpt lat="45.90826" lon="6.42881"><ele>1129.06</ele></trkpt><trkpt lat="45.90844" lon="6.42893"><ele>1135.02</ele></trkpt><trkpt lat="45.90847" lon="6.42893"><ele>1136.45</ele></trkpt><trkpt lat="45.90861" lon="6.42891"><ele>1142.62</ele></trkpt><trkpt lat="45.9087" lon="6.42913"><ele>1146.49</ele></trkpt><trkpt lat="45.90873" lon="6.42907"><ele>1148.55</ele></trkpt><trkpt lat="45.90874" lon="6.42902"><ele>1149.26</ele></trkpt><trkpt lat="45.90884" lon="6.42922"><ele>1153.69</ele></trkpt><trkpt lat="45.90892" lon="6.42927"><ele>1155.55</ele></trkpt><trkpt lat="45.90898" lon="6.42929"><ele>1157.79</ele></trkpt><trkpt lat="45.90895" lon="6.42921"><ele>1159.26</ele></trkpt><trkpt lat="45.90895" lon="6.42913"><ele>1161.96</ele></trkpt><trkpt lat="45.90898" lon="6.429"><ele>1163.62</ele></trkpt><trkpt lat="45.90899" lon="6.4289"><ele>1164.66</ele></trkpt><trkpt lat="45.90899" lon="6.42879"><ele>1165.86</ele></trkpt><trkpt lat="45.90901" lon="6.42871"><ele>1167.99</ele></trkpt><trkpt lat="45.90906" lon="6.4288"><ele>1170.07</ele></trkpt><trkpt lat="45.90908" lon="6.42884"><ele>1170.3</ele></trkpt><trkpt lat="45.90911" lon="6.42883"><ele>1172.76</ele></trkpt><trkpt lat="45.90913" lon="6.4287"><ele>1174.55</ele></trkpt><trkpt lat="45.90917" lon="6.4286"><ele>1176.3</ele></trkpt><trkpt lat="45.90922" lon="6.42882"><ele>1179.1</ele></trkpt><trkpt lat="45.90958" lon="6.42937"><ele>1195.2</ele></trkpt><trkpt lat="45.90977" lon="6.42967"><ele>1207.03</ele></trkpt><trkpt lat="45.90987" lon="6.4299"><ele>1214.11</ele></trkpt><trkpt lat="45.90998" lon="6.43003"><ele>1218.15</ele></trkpt><trkpt lat="45.91" lon="6.42996"><ele>1219.17</ele></trkpt><trkpt lat="45.91002" lon="6.42989"><ele>1220.3</ele></trkpt><trkpt lat="45.91008" lon="6.42993"><ele>1225.45</ele></trkpt><trkpt lat="45.91014" lon="6.43002"><ele>1227.44</ele></trkpt><trkpt lat="45.91028" lon="6.43018"><ele>1229.94</ele></trkpt><trkpt lat="45.91037" lon="6.43033"><ele>1234.46</ele></trkpt><trkpt lat="45.91043" lon="6.43035"><ele>1239.06</ele></trkpt><trkpt lat="45.91048" lon="6.43016"><ele>1243.89</ele></trkpt><trkpt lat="45.91063" lon="6.43054"><ele>1250.99</ele></trkpt><trkpt lat="45.91072" lon="6.43077"><ele>1256.65</ele></trkpt><trkpt lat="45.91081" lon="6.43064"><ele>1262.7</ele></trkpt><trkpt lat="45.91098" lon="6.43094"><ele>1269.12</ele></trkpt><trkpt lat="45.91118" lon="6.43141"><ele>1276.03</ele></trkpt><trkpt lat="45.9113" lon="6.43165"><ele>1279.94</ele></trkpt><trkpt lat="45.91136" lon="6.43178"><ele>1282.14</ele></trkpt><trkpt lat="45.91141" lon="6.43196"><ele>1283.14</ele></trkpt><trkpt lat="45.91149" lon="6.43211"><ele>1285.93</ele></trkpt><trkpt lat="45.91169" lon="6.43228"><ele>1295.85</ele></trkpt><trkpt lat="45.91174" lon="6.43233"><ele>1297.68</ele></trkpt><trkpt lat="45.91184" lon="6.43251"><ele>1300.94</ele></trkpt><trkpt lat="45.91189" lon="6.43261"><ele>1302.31</ele></trkpt><trkpt lat="45.91201" lon="6.43273"><ele>1305.47</ele></trkpt><trkpt lat="45.91205" lon="6.43264"><ele>1310.1</ele></trkpt><trkpt lat="45.91202" lon="6.43229"><ele>1315.13</ele></trkpt><trkpt lat="45.912" lon="6.43195"><ele>1320.27</ele></trkpt><trkpt lat="45.91192" lon="6.43128"><ele>1326.2</ele></trkpt><trkpt lat="45.91205" lon="6.43133"><ele>1330.32</ele></trkpt><trkpt lat="45.91205" lon="6.43106"><ele>1336.55</ele></trkpt><trkpt lat="45.91225" lon="6.43123"><ele>1340.25</ele></trkpt><trkpt lat="45.91218" lon="6.43098"><ele>1342.5</ele></trkpt><trkpt lat="45.91216" lon="6.43088"><ele>1342.97</ele></trkpt><trkpt lat="45.91215" lon="6.43078"><ele>1344.15</ele></trkpt><trkpt lat="45.91218" lon="6.43021"><ele>1351.62</ele></trkpt><trkpt lat="45.91218" lon="6.43007"><ele>1353.02</ele></trkpt><trkpt lat="45.9122" lon="6.4299"><ele>1355.42</ele></trkpt><trkpt lat="45.91221" lon="6.42978"><ele>1357.55</ele></trkpt><trkpt lat="45.9122" lon="6.42955"><ele>1361.06</ele></trkpt><trkpt lat="45.91223" lon="6.42933"><ele>1362.62</ele></trkpt><trkpt lat="45.91225" lon="6.42921"><ele>1363.25</ele></trkpt><trkpt lat="45.91224" lon="6.42902"><ele>1364.42</ele></trkpt><trkpt lat="45.91223" lon="6.42893"><ele>1364.52</ele></trkpt><trkpt lat="45.91227" lon="6.42875"><ele>1367.11</ele></trkpt><trkpt lat="45.91227" lon="6.42842"><ele>1364.5</ele></trkpt><trkpt lat="45.91216" lon="6.42835"><ele>1361.79</ele></trkpt><trkpt lat="45.9121" lon="6.42826"><ele>1360.62</ele></trkpt><trkpt lat="45.91208" lon="6.42823"><ele>1359.92</ele></trkpt><trkpt lat="45.91196" lon="6.42818"><ele>1356.34</ele></trkpt><trkpt lat="45.91183" lon="6.42808"><ele>1351.86</ele></trkpt><trkpt lat="45.9116" lon="6.42787"><ele>1347.11</ele></trkpt><trkpt lat="45.91149" lon="6.42754"><ele>1345.43</ele></trkpt><trkpt lat="45.91141" lon="6.42718"><ele>1344.89</ele></trkpt><trkpt lat="45.91128" lon="6.42681"><ele>1342.64</ele></trkpt><trkpt lat="45.91102" lon="6.42644"><ele>1336.69</ele></trkpt><trkpt lat="45.91094" lon="6.42617"><ele>1333.21</ele></trkpt><trkpt lat="45.91089" lon="6.42597"><ele>1331.8</ele></trkpt><trkpt lat="45.91084" lon="6.42576"><ele>1327.73</ele></trkpt><trkpt lat="45.91084" lon="6.42554"><ele>1325.36</ele></trkpt><trkpt lat="45.91086" lon="6.4253"><ele>1315.86</ele></trkpt><trkpt lat="45.91095" lon="6.42508"><ele>1310.29</ele></trkpt><trkpt lat="45.91088" lon="6.42505"><ele>1305.5</ele></trkpt><trkpt lat="45.91086" lon="6.425"><ele>1302.68</ele></trkpt><trkpt lat="45.91089" lon="6.42497"><ele>1303.24</ele></trkpt><trkpt lat="45.91082" lon="6.42476"><ele>1295.15</ele></trkpt><trkpt lat="45.9106" lon="6.42485"><ele>1289.01</ele></trkpt><trkpt lat="45.91054" lon="6.42452"><ele>1287.1</ele></trkpt><trkpt lat="45.91044" lon="6.4243"><ele>1284.31</ele></trkpt><trkpt lat="45.91037" lon="6.42408"><ele>1281.93</ele></trkpt><trkpt lat="45.91025" lon="6.42412"><ele>1275.55</ele></trkpt><trkpt lat="45.91016" lon="6.42394"><ele>1273.5</ele></trkpt><trkpt lat="45.91" lon="6.42424"><ele>1260.89</ele></trkpt><trkpt lat="45.90986" lon="6.42398"><ele>1256.8</ele></trkpt><trkpt lat="45.90978" lon="6.42411"><ele>1249.09</ele></trkpt><trkpt lat="45.90974" lon="6.42381"><ele>1251.55</ele></trkpt><trkpt lat="45.90966" lon="6.42387"><ele>1246</ele></trkpt><trkpt lat="45.90954" lon="6.42341"><ele>1243.18</ele></trkpt><trkpt lat="45.90942" lon="6.42306"><ele>1239.27</ele></trkpt><trkpt lat="45.90922" lon="6.42289"><ele>1230.54</ele></trkpt><trkpt lat="45.90905" lon="6.42273"><ele>1222.3</ele></trkpt><trkpt lat="45.909" lon="6.42294"><ele>1214.95</ele></trkpt><trkpt lat="45.90884" lon="6.42265"><ele>1211.46</ele></trkpt><trkpt lat="45.9088" lon="6.42271"><ele>1207.57</ele></trkpt><trkpt lat="45.90874" lon="6.42295"><ele>1198.28</ele></trkpt><trkpt lat="45.90867" lon="6.42292"><ele>1194.93</ele></trkpt><trkpt lat="45.90836" lon="6.42237"><ele>1186.26</ele></trkpt><trkpt lat="45.9082" lon="6.42194"><ele>1178</ele></trkpt><trkpt lat="45.908" lon="6.4222"><ele>1164.83</ele></trkpt><trkpt lat="45.90794" lon="6.42265"><ele>1156.1</ele></trkpt><trkpt lat="45.90808" lon="6.42332"><ele>1158.86</ele></trkpt><trkpt lat="45.90811" lon="6.42356"><ele>1157.46</ele></trkpt><trkpt lat="45.90813" lon="6.4238"><ele>1157.07</ele></trkpt><trkpt lat="45.90815" lon="6.42404"><ele>1156.83</ele></trkpt><trkpt lat="45.90819" lon="6.42429"><ele>1155.99</ele></trkpt><trkpt lat="45.90823" lon="6.42462"><ele>1155.79</ele></trkpt><trkpt lat="45.90824" lon="6.42486"><ele>1154.39</ele></trkpt><trkpt lat="45.90819" lon="6.42529"><ele>1148.68</ele></trkpt><trkpt lat="45.90828" lon="6.42576"><ele>1143.15</ele></trkpt><trkpt lat="45.90837" lon="6.42606"><ele>1139.02</ele></trkpt><trkpt lat="45.90837" lon="6.42628"><ele>1138.5</ele></trkpt><trkpt lat="45.90838" lon="6.42645"><ele>1141.96</ele></trkpt><trkpt lat="45.90837" lon="6.42655"><ele>1142.84</ele></trkpt><trkpt lat="45.90833" lon="6.42663"><ele>1143.65</ele></trkpt><trkpt lat="45.90834" lon="6.42706"><ele>1147.8</ele></trkpt><trkpt lat="45.90841" lon="6.42744"><ele>1144.95</ele></trkpt><trkpt lat="45.90845" lon="6.42748"><ele>1146.21</ele></trkpt><trkpt lat="45.90865" lon="6.42777"><ele>1152.84</ele></trkpt><trkpt lat="45.9087" lon="6.4279"><ele>1155.7</ele></trkpt><trkpt lat="45.90846" lon="6.42789"><ele>1153.06</ele></trkpt><trkpt lat="45.90856" lon="6.42849"><ele>1151.67</ele></trkpt><trkpt lat="45.90853" lon="6.42857"><ele>1146.98</ele></trkpt><trkpt lat="45.9086" lon="6.42881"><ele>1143.87</ele></trkpt><trkpt lat="45.9086" lon="6.42891"><ele>1142.05</ele></trkpt><trkpt lat="45.90848" lon="6.42893"><ele>1136.44</ele></trkpt><trkpt lat="45.90844" lon="6.42892"><ele>1135.43</ele></trkpt><trkpt lat="45.90827" lon="6.42882"><ele>1129.67</ele></trkpt><trkpt lat="45.90825" lon="6.4291"><ele>1124.23</ele></trkpt><trkpt lat="45.90826" lon="6.4295"><ele>1124.35</ele></trkpt><trkpt lat="45.90814" lon="6.42995"><ele>1121.64</ele></trkpt><trkpt lat="45.90822" lon="6.43066"><ele>1116.24</ele></trkpt><trkpt lat="45.90813" lon="6.43066"><ele>1115.16</ele></trkpt><trkpt lat="45.90799" lon="6.43008"><ele>1111.09</ele></trkpt><trkpt lat="45.90784" lon="6.42909"><ele>1103.88</ele></trkpt><trkpt lat="45.90783" lon="6.42876"><ele>1100.99</ele></trkpt></trkseg></trk></gpx>
