<?xml version="1.0" encoding="UTF-8" standalone="no"?>
<gpx xmlns="http://www.topografix.com/GPX/1/1" version="1.1" xmlns:xsi="http://www.w3.org/2001/XMLSchema-instance" xsi:schemaLocation="http://www.topografix.com/GPX/1/1 http://www.topografix.com/GPX/1/1/gpx.xsd" creator="Cirkwi"><metadata><name><![CDATA[Sévailles et le Pont Romain à La Bouëxière]]></name><desc><![CDATA[Départ: Parking de l'étang de Chevré à La Bouëxière. Parcours entre les communes de Liffré et de La Bouëxière, fort agréable dans la forêt domaniale de Liffré ainsi que vers l'étang de Chevré. Balisage jaune puis GR dans la forêt et à nouveau jaune.]]></desc><author><name><![CDATA[Renault]]></name></author><time>2024-12-23T16:49:43Z</time></metadata><trk><name><![CDATA[Sévailles et le Pont Romain à La Bouëxière]]></name><trkseg><trkpt lat="48.19505" lon="-1.46026"><ele>55.86</ele></trkpt><trkpt lat="48.19505" lon="-1.46025"><ele>55.88</ele></trkpt><trkpt lat="48.19504" lon="-1.46024"><ele>55.82</ele></trkpt><trkpt lat="48.195" lon="-1.46023"><ele>55.83</ele></trkpt><trkpt lat="48.19493" lon="-1.46023"><ele>53.43</ele></trkpt><trkpt lat="48.19487" lon="-1.4603"><ele>52.18</ele></trkpt><trkpt lat="48.19477" lon="-1.46042"><ele>51.17</ele></trkpt><trkpt lat="48.1943" lon="-1.46102"><ele>55.06</ele></trkpt><trkpt lat="48.19423" lon="-1.46116"><ele>55.04</ele></trkpt><trkpt lat="48.19404" lon="-1.46139"><ele>55.04</ele></trkpt><trkpt lat="48.19393" lon="-1.46151"><ele>52.77</ele></trkpt><trkpt lat="48.19387" lon="-1.46157"><ele>53.47</ele></trkpt><trkpt lat="48.19381" lon="-1.46159"><ele>55.08</ele></trkpt><trkpt lat="48.19375" lon="-1.4616"><ele>55.2</ele></trkpt><trkpt lat="48.19374" lon="-1.46147"><ele>54.86</ele></trkpt><trkpt lat="48.19337" lon="-1.4605"><ele>55.28</ele></trkpt><trkpt lat="48.19335" lon="-1.46038"><ele>55.33</ele></trkpt><trkpt lat="48.19335" lon="-1.4603"><ele>55.13</ele></trkpt><trkpt lat="48.19337" lon="-1.46015"><ele>53.9</ele></trkpt><trkpt lat="48.19335" lon="-1.46006"><ele>53.78</ele></trkpt><trkpt lat="48.19335" lon="-1.45996"><ele>53.62</ele></trkpt><trkpt lat="48.19335" lon="-1.45987"><ele>53.43</ele></trkpt><trkpt lat="48.19339" lon="-1.45965"><ele>53.48</ele></trkpt><trkpt lat="48.19341" lon="-1.45952"><ele>53.42</ele></trkpt><trkpt lat="48.19347" lon="-1.45928"><ele>53.57</ele></trkpt><trkpt lat="48.19353" lon="-1.45901"><ele>53.46</ele></trkpt><trkpt lat="48.19365" lon="-1.45814"><ele>53.45</ele></trkpt><trkpt lat="48.19395" lon="-1.45691"><ele>53.36</ele></trkpt><trkpt lat="48.19406" lon="-1.45657"><ele>53.54</ele></trkpt><trkpt lat="48.19422" lon="-1.45611"><ele>53.49</ele></trkpt><trkpt lat="48.1943" lon="-1.45582"><ele>53.35</ele></trkpt><trkpt lat="48.19445" lon="-1.45545"><ele>53.46</ele></trkpt><trkpt lat="48.19457" lon="-1.4552"><ele>54.86</ele></trkpt><trkpt lat="48.19466" lon="-1.45507"><ele>54.19</ele></trkpt><trkpt lat="48.19493" lon="-1.45473"><ele>53.24</ele></trkpt><trkpt lat="48.19506" lon="-1.45456"><ele>55.26</ele></trkpt><trkpt lat="48.19534" lon="-1.45412"><ele>53.13</ele></trkpt><trkpt lat="48.19541" lon="-1.45398"><ele>53.16</ele></trkpt><trkpt lat="48.19546" lon="-1.45389"><ele>53.22</ele></trkpt><trkpt lat="48.19565" lon="-1.45362"><ele>53.18</ele></trkpt><trkpt lat="48.196" lon="-1.45318"><ele>53.23</ele></trkpt><trkpt lat="48.19607" lon="-1.45308"><ele>53.24</ele></trkpt><trkpt lat="48.19614" lon="-1.45294"><ele>53.23</ele></trkpt><trkpt lat="48.1962" lon="-1.45262"><ele>52.88</ele></trkpt><trkpt lat="48.19635" lon="-1.45218"><ele>53.03</ele></trkpt><trkpt lat="48.19637" lon="-1.45197"><ele>53.04</ele></trkpt><trkpt lat="48.19633" lon="-1.45187"><ele>53.29</ele></trkpt><trkpt lat="48.19625" lon="-1.45177"><ele>53.34</ele></trkpt><trkpt lat="48.196" lon="-1.45152"><ele>53.2</ele></trkpt><trkpt lat="48.19592" lon="-1.45145"><ele>53.25</ele></trkpt><trkpt lat="48.19577" lon="-1.45137"><ele>53.3</ele></trkpt><trkpt lat="48.19571" lon="-1.45134"><ele>53.34</ele></trkpt><trkpt lat="48.19569" lon="-1.4513"><ele>52.53</ele></trkpt><trkpt lat="48.19552" lon="-1.45108"><ele>52.53</ele></trkpt><trkpt lat="48.19546" lon="-1.451"><ele>53.02</ele></trkpt><trkpt lat="48.19538" lon="-1.45088"><ele>53.1</ele></trkpt><trkpt lat="48.19532" lon="-1.45078"><ele>53.34</ele></trkpt><trkpt lat="48.19521" lon="-1.45055"><ele>53.3</ele></trkpt><trkpt lat="48.19515" lon="-1.45041"><ele>54.08</ele></trkpt><trkpt lat="48.19508" lon="-1.45017"><ele>53.15</ele></trkpt><trkpt lat="48.19503" lon="-1.44993"><ele>52.99</ele></trkpt><trkpt lat="48.195" lon="-1.44962"><ele>54.17</ele></trkpt><trkpt lat="48.195" lon="-1.44945"><ele>54.76</ele></trkpt><trkpt lat="48.19502" lon="-1.4491"><ele>53.6</ele></trkpt><trkpt lat="48.1952" lon="-1.44814"><ele>54.18</ele></trkpt><trkpt lat="48.19538" lon="-1.44757"><ele>53.68</ele></trkpt><trkpt lat="48.19566" lon="-1.44689"><ele>53.61</ele></trkpt><trkpt lat="48.19623" lon="-1.44517"><ele>53.27</ele></trkpt><trkpt lat="48.19639" lon="-1.44467"><ele>53.12</ele></trkpt><trkpt lat="48.19652" lon="-1.44435"><ele>53.24</ele></trkpt><trkpt lat="48.19667" lon="-1.444"><ele>53.69</ele></trkpt><trkpt lat="48.19672" lon="-1.44394"><ele>53.69</ele></trkpt><trkpt lat="48.19693" lon="-1.44407"><ele>52.53</ele></trkpt><trkpt lat="48.19762" lon="-1.44453"><ele>53.42</ele></trkpt><trkpt lat="48.19764" lon="-1.44454"><ele>53.52</ele></trkpt><trkpt lat="48.19777" lon="-1.44416"><ele>53.42</ele></trkpt><trkpt lat="48.19787" lon="-1.44381"><ele>53.28</ele></trkpt><trkpt lat="48.19789" lon="-1.44369"><ele>53.33</ele></trkpt><trkpt lat="48.19791" lon="-1.44362"><ele>53.52</ele></trkpt><trkpt lat="48.19792" lon="-1.44358"><ele>53.29</ele></trkpt><trkpt lat="48.19798" lon="-1.44358"><ele>53.8</ele></trkpt><trkpt lat="48.19814" lon="-1.44363"><ele>55.81</ele></trkpt><trkpt lat="48.19818" lon="-1.44363"><ele>56.65</ele></trkpt><trkpt lat="48.19821" lon="-1.44367"><ele>56.86</ele></trkpt><trkpt lat="48.1982" lon="-1.44378"><ele>56.96</ele></trkpt><trkpt lat="48.19798" lon="-1.44518"><ele>59.41</ele></trkpt><trkpt lat="48.19795" lon="-1.44537"><ele>59.74</ele></trkpt><trkpt lat="48.19779" lon="-1.44644"><ele>59.84</ele></trkpt><trkpt lat="48.19806" lon="-1.4465"><ele>62.21</ele></trkpt><trkpt lat="48.19827" lon="-1.44651"><ele>64.2</ele></trkpt><trkpt lat="48.19842" lon="-1.44653"><ele>65.79</ele></trkpt><trkpt lat="48.19847" lon="-1.44656"><ele>65.66</ele></trkpt><trkpt lat="48.19851" lon="-1.44662"><ele>65.66</ele></trkpt><trkpt lat="48.19852" lon="-1.44678"><ele>65.5</ele></trkpt><trkpt lat="48.19856" lon="-1.44696"><ele>65.58</ele></trkpt><trkpt lat="48.1986" lon="-1.44708"><ele>65.56</ele></trkpt><trkpt lat="48.19867" lon="-1.44715"><ele>65.81</ele></trkpt><trkpt lat="48.19884" lon="-1.44734"><ele>65.84</ele></trkpt><trkpt lat="48.19893" lon="-1.44746"><ele>66.04</ele></trkpt><trkpt lat="48.19898" lon="-1.44768"><ele>66.19</ele></trkpt><trkpt lat="48.19899" lon="-1.4478"><ele>66.21</ele></trkpt><trkpt lat="48.19907" lon="-1.44812"><ele>67.02</ele></trkpt><trkpt lat="48.19908" lon="-1.44817"><ele>67.19</ele></trkpt><trkpt lat="48.19923" lon="-1.4488"><ele>68.53</ele></trkpt><trkpt lat="48.19929" lon="-1.44903"><ele>69.13</ele></trkpt><trkpt lat="48.19938" lon="-1.44911"><ele>69.4</ele></trkpt><trkpt lat="48.19952" lon="-1.44913"><ele>70.36</ele></trkpt><trkpt lat="48.19958" lon="-1.4491"><ele>71.52</ele></trkpt><trkpt lat="48.19975" lon="-1.44909"><ele>73.22</ele></trkpt><trkpt lat="48.1999" lon="-1.44907"><ele>74.63</ele></trkpt><trkpt lat="48.20016" lon="-1.44902"><ele>76.97</ele></trkpt><trkpt lat="48.20053" lon="-1.44898"><ele>79.46</ele></trkpt><trkpt lat="48.20067" lon="-1.44895"><ele>80.63</ele></trkpt><trkpt lat="48.2008" lon="-1.44891"><ele>82</ele></trkpt><trkpt lat="48.20085" lon="-1.44889"><ele>82.42</ele></trkpt><trkpt lat="48.20094" lon="-1.44887"><ele>83.23</ele></trkpt><trkpt lat="48.20099" lon="-1.44885"><ele>84.07</ele></trkpt><trkpt lat="48.20106" lon="-1.44885"><ele>84.62</ele></trkpt><trkpt lat="48.20111" lon="-1.44884"><ele>85.2</ele></trkpt><trkpt lat="48.20119" lon="-1.44881"><ele>86.2</ele></trkpt><trkpt lat="48.20125" lon="-1.44883"><ele>86.67</ele></trkpt><trkpt lat="48.2013" lon="-1.44884"><ele>87.23</ele></trkpt><trkpt lat="48.20137" lon="-1.44886"><ele>87.97</ele></trkpt><trkpt lat="48.20143" lon="-1.44889"><ele>88.43</ele></trkpt><trkpt lat="48.20149" lon="-1.44893"><ele>89.07</ele></trkpt><trkpt lat="48.20175" lon="-1.44879"><ele>91.45</ele></trkpt><trkpt lat="48.20231" lon="-1.44857"><ele>95.83</ele></trkpt><trkpt lat="48.20287" lon="-1.44848"><ele>100.97</ele></trkpt><trkpt lat="48.20297" lon="-1.44844"><ele>101.82</ele></trkpt><trkpt lat="48.20306" lon="-1.44922"><ele>102.36</ele></trkpt><trkpt lat="48.20311" lon="-1.44947"><ele>102.36</ele></trkpt><trkpt lat="48.20317" lon="-1.44971"><ele>102.4</ele></trkpt><trkpt lat="48.20324" lon="-1.44988"><ele>102.49</ele></trkpt><trkpt lat="48.20356" lon="-1.45055"><ele>103.21</ele></trkpt><trkpt lat="48.20369" lon="-1.4507"><ele>103.78</ele></trkpt><trkpt lat="48.20377" lon="-1.45075"><ele>104.21</ele></trkpt><trkpt lat="48.20384" lon="-1.45079"><ele>104.55</ele></trkpt><trkpt lat="48.20393" lon="-1.4508"><ele>105.03</ele></trkpt><trkpt lat="48.20407" lon="-1.4508"><ele>105.95</ele></trkpt><trkpt lat="48.20423" lon="-1.45075"><ele>106.98</ele></trkpt><trkpt lat="48.20434" lon="-1.45069"><ele>107.51</ele></trkpt><trkpt lat="48.20443" lon="-1.45061"><ele>107.93</ele></trkpt><trkpt lat="48.20447" lon="-1.45055"><ele>108.11</ele></trkpt><trkpt lat="48.20456" lon="-1.45045"><ele>108.52</ele></trkpt><trkpt lat="48.2047" lon="-1.4502"><ele>109.49</ele></trkpt><trkpt lat="48.20497" lon="-1.4498"><ele>111.67</ele></trkpt><trkpt lat="48.20523" lon="-1.44944"><ele>112.84</ele></trkpt><trkpt lat="48.20531" lon="-1.44931"><ele>112.83</ele></trkpt><trkpt lat="48.20618" lon="-1.44803"><ele>109.77</ele></trkpt><trkpt lat="48.20647" lon="-1.44759"><ele>108.88</ele></trkpt><trkpt lat="48.20785" lon="-1.44554"><ele>110</ele></trkpt><trkpt lat="48.20819" lon="-1.44508"><ele>110.66</ele></trkpt><trkpt lat="48.2082" lon="-1.44507"><ele>110.7</ele></trkpt><trkpt lat="48.20838" lon="-1.44481"><ele>110.61</ele></trkpt><trkpt lat="48.20855" lon="-1.44453"><ele>109.25</ele></trkpt><trkpt lat="48.20914" lon="-1.44362"><ele>105.2</ele></trkpt><trkpt lat="48.21069" lon="-1.44166"><ele>97.29</ele></trkpt><trkpt lat="48.21067" lon="-1.4416"><ele>97.33</ele></trkpt><trkpt lat="48.21067" lon="-1.44154"><ele>97.14</ele></trkpt><trkpt lat="48.21066" lon="-1.44147"><ele>96.96</ele></trkpt><trkpt lat="48.21067" lon="-1.44141"><ele>96.72</ele></trkpt><trkpt lat="48.21024" lon="-1.44057"><ele>96.52</ele></trkpt><trkpt lat="48.20922" lon="-1.4386"><ele>95.87</ele></trkpt><trkpt lat="48.20887" lon="-1.43793"><ele>95.3</ele></trkpt><trkpt lat="48.20779" lon="-1.43583"><ele>92.53</ele></trkpt><trkpt lat="48.20766" lon="-1.43555"><ele>92.36</ele></trkpt><trkpt lat="48.20753" lon="-1.43527"><ele>92.55</ele></trkpt><trkpt lat="48.2074" lon="-1.435"><ele>92.29</ele></trkpt><trkpt lat="48.20728" lon="-1.43472"><ele>91.51</ele></trkpt><trkpt lat="48.20715" lon="-1.43444"><ele>91.02</ele></trkpt><trkpt lat="48.20702" lon="-1.43416"><ele>90.94</ele></trkpt><trkpt lat="48.20689" lon="-1.43389"><ele>91.08</ele></trkpt><trkpt lat="48.20677" lon="-1.43361"><ele>91.49</ele></trkpt><trkpt lat="48.20664" lon="-1.43333"><ele>92.5</ele></trkpt><trkpt lat="48.20651" lon="-1.43306"><ele>93.42</ele></trkpt><trkpt lat="48.20638" lon="-1.43278"><ele>93.69</ele></trkpt><trkpt lat="48.20626" lon="-1.4325"><ele>93.6</ele></trkpt><trkpt lat="48.20613" lon="-1.43223"><ele>93.96</ele></trkpt><trkpt lat="48.206" lon="-1.43195"><ele>94.42</ele></trkpt><trkpt lat="48.20587" lon="-1.43167"><ele>94.06</ele></trkpt><trkpt lat="48.20575" lon="-1.4314"><ele>93.92</ele></trkpt><trkpt lat="48.2057" lon="-1.43129"><ele>93.91</ele></trkpt><trkpt lat="48.20563" lon="-1.43075"><ele>92.83</ele></trkpt><trkpt lat="48.20565" lon="-1.4306"><ele>93.12</ele></trkpt><trkpt lat="48.2057" lon="-1.43032"><ele>92.25</ele></trkpt><trkpt lat="48.20572" lon="-1.43001"><ele>91.84</ele></trkpt><trkpt lat="48.20572" lon="-1.42986"><ele>91.56</ele></trkpt><trkpt lat="48.20573" lon="-1.42962"><ele>91.21</ele></trkpt><trkpt lat="48.20575" lon="-1.42928"><ele>90.98</ele></trkpt><trkpt lat="48.20581" lon="-1.42898"><ele>90.83</ele></trkpt><trkpt lat="48.20583" lon="-1.42861"><ele>90.92</ele></trkpt><trkpt lat="48.20581" lon="-1.42816"><ele>91.31</ele></trkpt><trkpt lat="48.20583" lon="-1.42776"><ele>91.64</ele></trkpt><trkpt lat="48.20587" lon="-1.42733"><ele>91.62</ele></trkpt><trkpt lat="48.2059" lon="-1.42671"><ele>91.63</ele></trkpt><trkpt lat="48.20593" lon="-1.42595"><ele>91.23</ele></trkpt><trkpt lat="48.20589" lon="-1.42538"><ele>91.78</ele></trkpt><trkpt lat="48.20577" lon="-1.42449"><ele>92.93</ele></trkpt><trkpt lat="48.20574" lon="-1.42362"><ele>93.73</ele></trkpt><trkpt lat="48.20575" lon="-1.42349"><ele>93.69</ele></trkpt><trkpt lat="48.20576" lon="-1.42336"><ele>93.66</ele></trkpt><trkpt lat="48.20577" lon="-1.42325"><ele>93.89</ele></trkpt><trkpt lat="48.20578" lon="-1.42314"><ele>94.01</ele></trkpt><trkpt lat="48.20579" lon="-1.42301"><ele>94.18</ele></trkpt><trkpt lat="48.20579" lon="-1.42288"><ele>94.32</ele></trkpt><trkpt lat="48.2058" lon="-1.42276"><ele>94.54</ele></trkpt><trkpt lat="48.20582" lon="-1.42261"><ele>94.81</ele></trkpt><trkpt lat="48.20584" lon="-1.42247"><ele>95.01</ele></trkpt><trkpt lat="48.20586" lon="-1.42235"><ele>95.15</ele></trkpt><trkpt lat="48.2059" lon="-1.42211"><ele>95.24</ele></trkpt><trkpt lat="48.206" lon="-1.42158"><ele>95.21</ele></trkpt><trkpt lat="48.20604" lon="-1.42133"><ele>95.32</ele></trkpt><trkpt lat="48.20609" lon="-1.42109"><ele>95.22</ele></trkpt><trkpt lat="48.20613" lon="-1.42086"><ele>95.24</ele></trkpt><trkpt lat="48.20617" lon="-1.42063"><ele>95.3</ele></trkpt><trkpt lat="48.20623" lon="-1.42036"><ele>95.46</ele></trkpt><trkpt lat="48.20628" lon="-1.4201"><ele>95.6</ele></trkpt><trkpt lat="48.20633" lon="-1.41986"><ele>95.66</ele></trkpt><trkpt lat="48.20641" lon="-1.41954"><ele>95.84</ele></trkpt><trkpt lat="48.20653" lon="-1.419"><ele>96.4</ele></trkpt><trkpt lat="48.20664" lon="-1.41849"><ele>96.95</ele></trkpt><trkpt lat="48.20665" lon="-1.4184"><ele>96.95</ele></trkpt><trkpt lat="48.20666" lon="-1.4183"><ele>96.96</ele></trkpt><trkpt lat="48.20668" lon="-1.41817"><ele>97.38</ele></trkpt><trkpt lat="48.20669" lon="-1.41806"><ele>97.15</ele></trkpt><trkpt lat="48.20669" lon="-1.41795"><ele>97.28</ele></trkpt><trkpt lat="48.20668" lon="-1.41787"><ele>97.62</ele></trkpt><trkpt lat="48.20668" lon="-1.41776"><ele>98.14</ele></trkpt><trkpt lat="48.2067" lon="-1.41739"><ele>99.69</ele></trkpt><trkpt lat="48.2067" lon="-1.41724"><ele>100.03</ele></trkpt><trkpt lat="48.20671" lon="-1.41696"><ele>100.39</ele></trkpt><trkpt lat="48.20671" lon="-1.41678"><ele>100.49</ele></trkpt><trkpt lat="48.20671" lon="-1.41662"><ele>100.52</ele></trkpt><trkpt lat="48.20671" lon="-1.41649"><ele>100.53</ele></trkpt><trkpt lat="48.20671" lon="-1.41639"><ele>100.6</ele></trkpt><trkpt lat="48.2067" lon="-1.41627"><ele>100.58</ele></trkpt><trkpt lat="48.2067" lon="-1.41616"><ele>100.59</ele></trkpt><trkpt lat="48.20669" lon="-1.41606"><ele>100.5</ele></trkpt><trkpt lat="48.20668" lon="-1.41598"><ele>100.43</ele></trkpt><trkpt lat="48.20666" lon="-1.41589"><ele>100.37</ele></trkpt><trkpt lat="48.20664" lon="-1.41581"><ele>100.3</ele></trkpt><trkpt lat="48.20662" lon="-1.41572"><ele>100.18</ele></trkpt><trkpt lat="48.20659" lon="-1.41563"><ele>100.05</ele></trkpt><trkpt lat="48.20651" lon="-1.41543"><ele>99.71</ele></trkpt><trkpt lat="48.20645" lon="-1.41527"><ele>99.38</ele></trkpt><trkpt lat="48.20642" lon="-1.41519"><ele>99.23</ele></trkpt><trkpt lat="48.20641" lon="-1.41512"><ele>98.84</ele></trkpt><trkpt lat="48.2064" lon="-1.41505"><ele>98.47</ele></trkpt><trkpt lat="48.2064" lon="-1.41496"><ele>97.99</ele></trkpt><trkpt lat="48.20642" lon="-1.41477"><ele>96.82</ele></trkpt><trkpt lat="48.20646" lon="-1.41447"><ele>95.57</ele></trkpt><trkpt lat="48.20649" lon="-1.41432"><ele>94.96</ele></trkpt><trkpt lat="48.20658" lon="-1.41413"><ele>94.13</ele></trkpt><trkpt lat="48.20666" lon="-1.41396"><ele>93.61</ele></trkpt><trkpt lat="48.20676" lon="-1.41391"><ele>92.85</ele></trkpt><trkpt lat="48.20699" lon="-1.41377"><ele>91.3</ele></trkpt><trkpt lat="48.2074" lon="-1.41354"><ele>87.64</ele></trkpt><trkpt lat="48.20751" lon="-1.41347"><ele>86.49</ele></trkpt><trkpt lat="48.20769" lon="-1.41331"><ele>84.8</ele></trkpt><trkpt lat="48.2079" lon="-1.41321"><ele>83.29</ele></trkpt><trkpt lat="48.20807" lon="-1.4132"><ele>82.45</ele></trkpt><trkpt lat="48.20823" lon="-1.41314"><ele>81.04</ele></trkpt><trkpt lat="48.20836" lon="-1.41304"><ele>79.92</ele></trkpt><trkpt lat="48.20846" lon="-1.41288"><ele>79.3</ele></trkpt><trkpt lat="48.20851" lon="-1.41276"><ele>78.73</ele></trkpt><trkpt lat="48.20854" lon="-1.41269"><ele>78.78</ele></trkpt><trkpt lat="48.20864" lon="-1.41234"><ele>77.11</ele></trkpt><trkpt lat="48.20868" lon="-1.41218"><ele>76.35</ele></trkpt><trkpt lat="48.20883" lon="-1.41196"><ele>75.59</ele></trkpt><trkpt lat="48.20897" lon="-1.41166"><ele>74.84</ele></trkpt><trkpt lat="48.209" lon="-1.41158"><ele>74.73</ele></trkpt><trkpt lat="48.20905" lon="-1.4115"><ele>74.47</ele></trkpt><trkpt lat="48.20905" lon="-1.41146"><ele>74.28</ele></trkpt><trkpt lat="48.20919" lon="-1.41122"><ele>73.17</ele></trkpt><trkpt lat="48.20932" lon="-1.41091"><ele>71.3</ele></trkpt><trkpt lat="48.2094" lon="-1.41079"><ele>70.69</ele></trkpt><trkpt lat="48.20944" lon="-1.41075"><ele>70.45</ele></trkpt><trkpt lat="48.20955" lon="-1.41067"><ele>70.12</ele></trkpt><trkpt lat="48.2096" lon="-1.41062"><ele>69.79</ele></trkpt><trkpt lat="48.20984" lon="-1.41036"><ele>68.58</ele></trkpt><trkpt lat="48.21007" lon="-1.4102"><ele>67.43</ele></trkpt><trkpt lat="48.21027" lon="-1.4101"><ele>66.36</ele></trkpt><trkpt lat="48.21039" lon="-1.41006"><ele>65.87</ele></trkpt><trkpt lat="48.21048" lon="-1.40998"><ele>65.45</ele></trkpt><trkpt lat="48.21052" lon="-1.40997"><ele>65.37</ele></trkpt><trkpt lat="48.21062" lon="-1.4099"><ele>64.47</ele></trkpt><trkpt lat="48.21065" lon="-1.40985"><ele>64.22</ele></trkpt><trkpt lat="48.21078" lon="-1.40971"><ele>63.73</ele></trkpt><trkpt lat="48.21088" lon="-1.40966"><ele>62.83</ele></trkpt><trkpt lat="48.21094" lon="-1.40968"><ele>62.92</ele></trkpt><trkpt lat="48.21103" lon="-1.40966"><ele>62.32</ele></trkpt><trkpt lat="48.21109" lon="-1.40971"><ele>61.84</ele></trkpt><trkpt lat="48.21109" lon="-1.40979"><ele>62.14</ele></trkpt><trkpt lat="48.21116" lon="-1.40986"><ele>61.65</ele></trkpt><trkpt lat="48.2112" lon="-1.40984"><ele>61.73</ele></trkpt><trkpt lat="48.21122" lon="-1.4098"><ele>61.22</ele></trkpt><trkpt lat="48.21128" lon="-1.40987"><ele>62.13</ele></trkpt><trkpt lat="48.21131" lon="-1.40986"><ele>61.96</ele></trkpt><trkpt lat="48.21136" lon="-1.40981"><ele>61.73</ele></trkpt><trkpt lat="48.2114" lon="-1.40978"><ele>61.64</ele></trkpt><trkpt lat="48.21146" lon="-1.40972"><ele>61.69</ele></trkpt><trkpt lat="48.21147" lon="-1.40969"><ele>61.39</ele></trkpt><trkpt lat="48.21144" lon="-1.4097"><ele>61.33</ele></trkpt><trkpt lat="48.21141" lon="-1.40964"><ele>60.48</ele></trkpt><trkpt lat="48.21145" lon="-1.40955"><ele>60.73</ele></trkpt><trkpt lat="48.21154" lon="-1.40963"><ele>60.03</ele></trkpt><trkpt lat="48.21157" lon="-1.40964"><ele>60.36</ele></trkpt><trkpt lat="48.21162" lon="-1.40974"><ele>60.34</ele></trkpt><trkpt lat="48.21168" lon="-1.40971"><ele>61.64</ele></trkpt><trkpt lat="48.2117" lon="-1.4096"><ele>62.09</ele></trkpt><trkpt lat="48.21208" lon="-1.40945"><ele>64.23</ele></trkpt><trkpt lat="48.21212" lon="-1.40938"><ele>64.65</ele></trkpt><trkpt lat="48.21214" lon="-1.4094"><ele>64.59</ele></trkpt><trkpt lat="48.21219" lon="-1.4094"><ele>64.67</ele></trkpt><trkpt lat="48.21313" lon="-1.40911"><ele>65.08</ele></trkpt><trkpt lat="48.2134" lon="-1.40904"><ele>65.05</ele></trkpt><trkpt lat="48.21442" lon="-1.40868"><ele>66.4</ele></trkpt><trkpt lat="48.2154" lon="-1.40835"><ele>67.71</ele></trkpt><trkpt lat="48.21564" lon="-1.40827"><ele>67.85</ele></trkpt><trkpt lat="48.21648" lon="-1.40802"><ele>67.88</ele></trkpt><trkpt lat="48.21663" lon="-1.40797"><ele>67.89</ele></trkpt><trkpt lat="48.2169" lon="-1.40788"><ele>68.02</ele></trkpt><trkpt lat="48.21738" lon="-1.40773"><ele>67.93</ele></trkpt><trkpt lat="48.21783" lon="-1.40758"><ele>67.98</ele></trkpt><trkpt lat="48.21787" lon="-1.40806"><ele>66.03</ele></trkpt><trkpt lat="48.21793" lon="-1.40839"><ele>65.08</ele></trkpt><trkpt lat="48.21798" lon="-1.4085"><ele>64.48</ele></trkpt><trkpt lat="48.2181" lon="-1.40874"><ele>63.78</ele></trkpt><trkpt lat="48.21821" lon="-1.40915"><ele>63.5</ele></trkpt><trkpt lat="48.21825" lon="-1.40957"><ele>63.21</ele></trkpt><trkpt lat="48.21821" lon="-1.40991"><ele>62.91</ele></trkpt><trkpt lat="48.21815" lon="-1.41027"><ele>62.9</ele></trkpt><trkpt lat="48.21808" lon="-1.41052"><ele>62.66</ele></trkpt><trkpt lat="48.21807" lon="-1.41069"><ele>62.78</ele></trkpt><trkpt lat="48.21791" lon="-1.41113"><ele>62.36</ele></trkpt><trkpt lat="48.21786" lon="-1.41127"><ele>62.06</ele></trkpt><trkpt lat="48.21787" lon="-1.41166"><ele>62.65</ele></trkpt><trkpt lat="48.21787" lon="-1.41198"><ele>62.88</ele></trkpt><trkpt lat="48.21777" lon="-1.41226"><ele>62.69</ele></trkpt><trkpt lat="48.21763" lon="-1.41242"><ele>62.79</ele></trkpt><trkpt lat="48.21805" lon="-1.41508"><ele>65.4</ele></trkpt><trkpt lat="48.2178" lon="-1.41521"><ele>65.3</ele></trkpt><trkpt lat="48.21764" lon="-1.4153"><ele>65.3</ele></trkpt><trkpt lat="48.21757" lon="-1.41534"><ele>65.2</ele></trkpt><trkpt lat="48.21718" lon="-1.41555"><ele>65.2</ele></trkpt><trkpt lat="48.21748" lon="-1.41676"><ele>65</ele></trkpt><trkpt lat="48.21767" lon="-1.41684"><ele>65</ele></trkpt><trkpt lat="48.2178" lon="-1.41694"><ele>65</ele></trkpt><trkpt lat="48.21833" lon="-1.41769"><ele>65</ele></trkpt><trkpt lat="48.21858" lon="-1.41801"><ele>65</ele></trkpt><trkpt lat="48.2188" lon="-1.41843"><ele>65</ele></trkpt><trkpt lat="48.21905" lon="-1.41902"><ele>65.4</ele></trkpt><trkpt lat="48.21936" lon="-1.41944"><ele>66</ele></trkpt><trkpt lat="48.21968" lon="-1.41968"><ele>66.2</ele></trkpt><trkpt lat="48.22012" lon="-1.4198"><ele>66</ele></trkpt><trkpt lat="48.22079" lon="-1.42001"><ele>67</ele></trkpt><trkpt lat="48.22084" lon="-1.42003"><ele>67</ele></trkpt><trkpt lat="48.22123" lon="-1.42014"><ele>67</ele></trkpt><trkpt lat="48.22163" lon="-1.42039"><ele>67.9</ele></trkpt><trkpt lat="48.22209" lon="-1.4208"><ele>68.6</ele></trkpt><trkpt lat="48.22235" lon="-1.42122"><ele>69</ele></trkpt><trkpt lat="48.22247" lon="-1.42149"><ele>69</ele></trkpt><trkpt lat="48.22259" lon="-1.4218"><ele>69.1</ele></trkpt><trkpt lat="48.22271" lon="-1.42208"><ele>69.8</ele></trkpt><trkpt lat="48.2229" lon="-1.4222"><ele>70</ele></trkpt><trkpt lat="48.22355" lon="-1.42242"><ele>68.6</ele></trkpt><trkpt lat="48.22319" lon="-1.42295"><ele>69</ele></trkpt><trkpt lat="48.22279" lon="-1.42354"><ele>69.7</ele></trkpt><trkpt lat="48.22247" lon="-1.42401"><ele>70.1</ele></trkpt><trkpt lat="48.22176" lon="-1.42505"><ele>70.5</ele></trkpt><trkpt lat="48.22152" lon="-1.42541"><ele>70.9</ele></trkpt><trkpt lat="48.22147" lon="-1.42548"><ele>70.9</ele></trkpt><trkpt lat="48.2212" lon="-1.42588"><ele>71.3</ele></trkpt><trkpt lat="48.22078" lon="-1.4265"><ele>72.7</ele></trkpt><trkpt lat="48.22045" lon="-1.42698"><ele>73.9</ele></trkpt><trkpt lat="48.22019" lon="-1.42736"><ele>75.6</ele></trkpt><trkpt lat="48.21854" lon="-1.4298"><ele>79.1</ele></trkpt><trkpt lat="48.21783" lon="-1.43087"><ele>79.1</ele></trkpt><trkpt lat="48.21785" lon="-1.43089"><ele>79.1</ele></trkpt><trkpt lat="48.21786" lon="-1.43093"><ele>79.1</ele></trkpt><trkpt lat="48.21788" lon="-1.43097"><ele>79.1</ele></trkpt><trkpt lat="48.21788" lon="-1.43101"><ele>79.1</ele></trkpt><trkpt lat="48.21788" lon="-1.43104"><ele>79.1</ele></trkpt><trkpt lat="48.21788" lon="-1.43109"><ele>79.1</ele></trkpt><trkpt lat="48.21787" lon="-1.43113"><ele>79.1</ele></trkpt><trkpt lat="48.21785" lon="-1.43117"><ele>79.2</ele></trkpt><trkpt lat="48.21784" lon="-1.43121"><ele>79.2</ele></trkpt><trkpt lat="48.21782" lon="-1.43125"><ele>79.3</ele></trkpt><trkpt lat="48.21779" lon="-1.43128"><ele>79.3</ele></trkpt><trkpt lat="48.21777" lon="-1.4313"><ele>79.3</ele></trkpt><trkpt lat="48.21775" lon="-1.43131"><ele>79.3</ele></trkpt><trkpt lat="48.21772" lon="-1.43132"><ele>79.3</ele></trkpt><trkpt lat="48.21769" lon="-1.43133"><ele>79.3</ele></trkpt><trkpt lat="48.21766" lon="-1.43132"><ele>79.3</ele></trkpt><trkpt lat="48.2176" lon="-1.43171"><ele>79.5</ele></trkpt><trkpt lat="48.21753" lon="-1.43206"><ele>79.5</ele></trkpt><trkpt lat="48.21752" lon="-1.43214"><ele>79.5</ele></trkpt><trkpt lat="48.21738" lon="-1.43292"><ele>80.1</ele></trkpt><trkpt lat="48.21733" lon="-1.43322"><ele>80.4</ele></trkpt><trkpt lat="48.21715" lon="-1.43424"><ele>81</ele></trkpt><trkpt lat="48.21712" lon="-1.43439"><ele>81</ele></trkpt><trkpt lat="48.21702" lon="-1.43495"><ele>79.8</ele></trkpt><trkpt lat="48.21693" lon="-1.43546"><ele>78.3</ele></trkpt><trkpt lat="48.21691" lon="-1.43558"><ele>78.1</ele></trkpt><trkpt lat="48.21675" lon="-1.43648"><ele>77.1</ele></trkpt><trkpt lat="48.21668" lon="-1.43691"><ele>76.6</ele></trkpt><trkpt lat="48.21658" lon="-1.4375"><ele>75.89</ele></trkpt><trkpt lat="48.21653" lon="-1.43777"><ele>74.9</ele></trkpt><trkpt lat="48.21641" lon="-1.43842"><ele>74.96</ele></trkpt><trkpt lat="48.21634" lon="-1.43881"><ele>74.73</ele></trkpt><trkpt lat="48.21618" lon="-1.43976"><ele>74.8</ele></trkpt><trkpt lat="48.21616" lon="-1.43985"><ele>74.82</ele></trkpt><trkpt lat="48.21608" lon="-1.44032"><ele>75.22</ele></trkpt><trkpt lat="48.21598" lon="-1.44084"><ele>75.81</ele></trkpt><trkpt lat="48.21594" lon="-1.4411"><ele>76.06</ele></trkpt><trkpt lat="48.21575" lon="-1.44216"><ele>77.32</ele></trkpt><trkpt lat="48.2157" lon="-1.44246"><ele>78.04</ele></trkpt><trkpt lat="48.21551" lon="-1.44362"><ele>80.33</ele></trkpt><trkpt lat="48.21549" lon="-1.44371"><ele>80.5</ele></trkpt><trkpt lat="48.21538" lon="-1.44435"><ele>81.48</ele></trkpt><trkpt lat="48.21537" lon="-1.44439"><ele>81.52</ele></trkpt><trkpt lat="48.21537" lon="-1.44442"><ele>81.53</ele></trkpt><trkpt lat="48.21527" lon="-1.44498"><ele>82.35</ele></trkpt><trkpt lat="48.21505" lon="-1.44625"><ele>86.15</ele></trkpt><trkpt lat="48.21483" lon="-1.44752"><ele>90.67</ele></trkpt><trkpt lat="48.21474" lon="-1.44804"><ele>92.35</ele></trkpt><trkpt lat="48.21462" lon="-1.44872"><ele>94.67</ele></trkpt><trkpt lat="48.21461" lon="-1.44882"><ele>94.93</ele></trkpt><trkpt lat="48.21457" lon="-1.44903"><ele>95.76</ele></trkpt><trkpt lat="48.21454" lon="-1.44914"><ele>96.33</ele></trkpt><trkpt lat="48.21449" lon="-1.44926"><ele>96.99</ele></trkpt><trkpt lat="48.21437" lon="-1.44952"><ele>98.33</ele></trkpt><trkpt lat="48.21424" lon="-1.44971"><ele>99.53</ele></trkpt><trkpt lat="48.21346" lon="-1.45068"><ele>102.71</ele></trkpt><trkpt lat="48.21273" lon="-1.45167"><ele>104.81</ele></trkpt><trkpt lat="48.21264" lon="-1.45176"><ele>105.15</ele></trkpt><trkpt lat="48.2125" lon="-1.45187"><ele>105.48</ele></trkpt><trkpt lat="48.21227" lon="-1.45191"><ele>105.93</ele></trkpt><trkpt lat="48.20981" lon="-1.45198"><ele>103.85</ele></trkpt><trkpt lat="48.20972" lon="-1.45199"><ele>103.52</ele></trkpt><trkpt lat="48.20961" lon="-1.45204"><ele>102.85</ele></trkpt><trkpt lat="48.20952" lon="-1.45211"><ele>102.36</ele></trkpt><trkpt lat="48.2094" lon="-1.45227"><ele>101.45</ele></trkpt><trkpt lat="48.20928" lon="-1.45251"><ele>100.15</ele></trkpt><trkpt lat="48.20925" lon="-1.45257"><ele>99.96</ele></trkpt><trkpt lat="48.20929" lon="-1.45265"><ele>99.92</ele></trkpt><trkpt lat="48.20918" lon="-1.45292"><ele>99.23</ele></trkpt><trkpt lat="48.20859" lon="-1.45449"><ele>96.75</ele></trkpt><trkpt lat="48.20853" lon="-1.45464"><ele>96.44</ele></trkpt><trkpt lat="48.20852" lon="-1.45466"><ele>96.4</ele></trkpt><trkpt lat="48.20809" lon="-1.45586"><ele>92.4</ele></trkpt><trkpt lat="48.2079" lon="-1.45637"><ele>90.09</ele></trkpt><trkpt lat="48.20762" lon="-1.45711"><ele>86.26</ele></trkpt><trkpt lat="48.2075" lon="-1.4574"><ele>84.98</ele></trkpt><trkpt lat="48.2074" lon="-1.45772"><ele>84.4</ele></trkpt><trkpt lat="48.20735" lon="-1.4579"><ele>84.52</ele></trkpt><trkpt lat="48.20726" lon="-1.45825"><ele>85.44</ele></trkpt><trkpt lat="48.20722" lon="-1.45854"><ele>86.43</ele></trkpt><trkpt lat="48.20716" lon="-1.45908"><ele>87.74</ele></trkpt><trkpt lat="48.20713" lon="-1.45961"><ele>87.07</ele></trkpt><trkpt lat="48.20708" lon="-1.45987"><ele>86</ele></trkpt><trkpt lat="48.20702" lon="-1.46013"><ele>84.39</ele></trkpt><trkpt lat="48.20694" lon="-1.46035"><ele>82.69</ele></trkpt><trkpt lat="48.20684" lon="-1.46061"><ele>80.72</ele></trkpt><trkpt lat="48.2068" lon="-1.46067"><ele>80.37</ele></trkpt><trkpt lat="48.20658" lon="-1.46112"><ele>78.99</ele></trkpt><trkpt lat="48.20653" lon="-1.46127"><ele>78.79</ele></trkpt><trkpt lat="48.20639" lon="-1.46143"><ele>78.24</ele></trkpt><trkpt lat="48.20636" lon="-1.46146"><ele>78.09</ele></trkpt><trkpt lat="48.20623" lon="-1.46166"><ele>78.19</ele></trkpt><trkpt lat="48.20613" lon="-1.46179"><ele>78.63</ele></trkpt><trkpt lat="48.20597" lon="-1.46207"><ele>79.35</ele></trkpt><trkpt lat="48.20581" lon="-1.46229"><ele>80.77</ele></trkpt><trkpt lat="48.2056" lon="-1.46263"><ele>82.71</ele></trkpt><trkpt lat="48.20531" lon="-1.46306"><ele>82.91</ele></trkpt><trkpt lat="48.20512" lon="-1.4633"><ele>82.59</ele></trkpt><trkpt lat="48.20498" lon="-1.46349"><ele>82.45</ele></trkpt><trkpt lat="48.20486" lon="-1.46363"><ele>82.46</ele></trkpt><trkpt lat="48.2047" lon="-1.46383"><ele>82.49</ele></trkpt><trkpt lat="48.20375" lon="-1.46511"><ele>84.81</ele></trkpt><trkpt lat="48.20359" lon="-1.4653"><ele>85.53</ele></trkpt><trkpt lat="48.20305" lon="-1.46587"><ele>87.79</ele></trkpt><trkpt lat="48.2027" lon="-1.46507"><ele>87.01</ele></trkpt><trkpt lat="48.20262" lon="-1.46492"><ele>86.55</ele></trkpt><trkpt lat="48.20253" lon="-1.46479"><ele>86.27</ele></trkpt><trkpt lat="48.20246" lon="-1.46472"><ele>86.01</ele></trkpt><trkpt lat="48.20223" lon="-1.46482"><ele>85.85</ele></trkpt><trkpt lat="48.20216" lon="-1.46482"><ele>85.58</ele></trkpt><trkpt lat="48.20209" lon="-1.46474"><ele>85.21</ele></trkpt><trkpt lat="48.202" lon="-1.46453"><ele>84.8</ele></trkpt><trkpt lat="48.20194" lon="-1.46431"><ele>84.33</ele></trkpt><trkpt lat="48.20177" lon="-1.46387"><ele>83.28</ele></trkpt><trkpt lat="48.20167" lon="-1.46366"><ele>82.61</ele></trkpt><trkpt lat="48.20146" lon="-1.46314"><ele>81.39</ele></trkpt><trkpt lat="48.20129" lon="-1.46267"><ele>80.39</ele></trkpt><trkpt lat="48.20123" lon="-1.46243"><ele>80.04</ele></trkpt><trkpt lat="48.2012" lon="-1.46214"><ele>80.21</ele></trkpt><trkpt lat="48.20119" lon="-1.46191"><ele>80.1</ele></trkpt><trkpt lat="48.20122" lon="-1.46129"><ele>78.68</ele></trkpt><trkpt lat="48.2012" lon="-1.4611"><ele>77.72</ele></trkpt><trkpt lat="48.20117" lon="-1.461"><ele>77.19</ele></trkpt><trkpt lat="48.2011" lon="-1.46087"><ele>76.11</ele></trkpt><trkpt lat="48.20103" lon="-1.46082"><ele>75.12</ele></trkpt><trkpt lat="48.20096" lon="-1.46091"><ele>74.68</ele></trkpt><trkpt lat="48.20091" lon="-1.46088"><ele>74.04</ele></trkpt><trkpt lat="48.20086" lon="-1.46084"><ele>73.31</ele></trkpt><trkpt lat="48.20081" lon="-1.46079"><ele>72.91</ele></trkpt><trkpt lat="48.20076" lon="-1.46072"><ele>72.47</ele></trkpt><trkpt lat="48.20072" lon="-1.46062"><ele>72.01</ele></trkpt><trkpt lat="48.20067" lon="-1.46053"><ele>71.59</ele></trkpt><trkpt lat="48.20062" lon="-1.46039"><ele>71.08</ele></trkpt><trkpt lat="48.20053" lon="-1.46021"><ele>70.42</ele></trkpt><trkpt lat="48.20048" lon="-1.46014"><ele>70.05</ele></trkpt><trkpt lat="48.20043" lon="-1.46009"><ele>69.57</ele></trkpt><trkpt lat="48.20033" lon="-1.45997"><ele>68.37</ele></trkpt><trkpt lat="48.20026" lon="-1.45988"><ele>67.35</ele></trkpt><trkpt lat="48.20022" lon="-1.4598"><ele>66.35</ele></trkpt><trkpt lat="48.20019" lon="-1.4597"><ele>65.47</ele></trkpt><trkpt lat="48.20019" lon="-1.4596"><ele>64.94</ele></trkpt><trkpt lat="48.2002" lon="-1.45946"><ele>64.43</ele></trkpt><trkpt lat="48.20026" lon="-1.4593"><ele>63.91</ele></trkpt><trkpt lat="48.20031" lon="-1.4592"><ele>63.86</ele></trkpt><trkpt lat="48.20037" lon="-1.45908"><ele>63.82</ele></trkpt><trkpt lat="48.20045" lon="-1.45892"><ele>64.06</ele></trkpt><trkpt lat="48.20054" lon="-1.45873"><ele>64.63</ele></trkpt><trkpt lat="48.2006" lon="-1.45864"><ele>65.32</ele></trkpt><trkpt lat="48.20051" lon="-1.4586"><ele>66.08</ele></trkpt><trkpt lat="48.20046" lon="-1.45855"><ele>68.07</ele></trkpt><trkpt lat="48.2003" lon="-1.45854"><ele>67.74</ele></trkpt><trkpt lat="48.2" lon="-1.45848"><ele>68.62</ele></trkpt><trkpt lat="48.1999" lon="-1.45845"><ele>68.91</ele></trkpt><trkpt lat="48.19983" lon="-1.45839"><ele>69.37</ele></trkpt><trkpt lat="48.19961" lon="-1.45821"><ele>71.82</ele></trkpt><trkpt lat="48.19951" lon="-1.45812"><ele>73.11</ele></trkpt><trkpt lat="48.1993" lon="-1.45805"><ele>74.38</ele></trkpt><trkpt lat="48.19917" lon="-1.45805"><ele>74.93</ele></trkpt><trkpt lat="48.19908" lon="-1.45813"><ele>75.49</ele></trkpt><trkpt lat="48.19901" lon="-1.4583"><ele>76.54</ele></trkpt><trkpt lat="48.199" lon="-1.45846"><ele>76.9</ele></trkpt><trkpt lat="48.19901" lon="-1.45869"><ele>77.58</ele></trkpt><trkpt lat="48.19903" lon="-1.45904"><ele>78.37</ele></trkpt><trkpt lat="48.19899" lon="-1.4593"><ele>79.23</ele></trkpt><trkpt lat="48.19893" lon="-1.45947"><ele>79.81</ele></trkpt><trkpt lat="48.19879" lon="-1.45963"><ele>80.32</ele></trkpt><trkpt lat="48.19871" lon="-1.45967"><ele>80.49</ele></trkpt><trkpt lat="48.19852" lon="-1.45968"><ele>80.65</ele></trkpt><trkpt lat="48.19791" lon="-1.45969"><ele>78.78</ele></trkpt><trkpt lat="48.19757" lon="-1.45968"><ele>77.51</ele></trkpt><trkpt lat="48.19709" lon="-1.45966"><ele>74.96</ele></trkpt><trkpt lat="48.19698" lon="-1.45967"><ele>74.11</ele></trkpt><trkpt lat="48.19692" lon="-1.45969"><ele>73.57</ele></trkpt><trkpt lat="48.19678" lon="-1.45975"><ele>72.19</ele></trkpt><trkpt lat="48.19668" lon="-1.4598"><ele>71.27</ele></trkpt><trkpt lat="48.1965" lon="-1.45984"><ele>69.59</ele></trkpt><trkpt lat="48.19625" lon="-1.45992"><ele>67.1</ele></trkpt><trkpt lat="48.19601" lon="-1.45998"><ele>64.71</ele></trkpt><trkpt lat="48.19586" lon="-1.46"><ele>62.91</ele></trkpt><trkpt lat="48.19569" lon="-1.45996"><ele>61.18</ele></trkpt><trkpt lat="48.19562" lon="-1.46032"><ele>61.05</ele></trkpt><trkpt lat="48.19512" lon="-1.46027"><ele>56.13</ele></trkpt><trkpt lat="48.19506" lon="-1.46025"><ele>55.88</ele></trkpt></trkseg></trk></gpx>
