<?xml version="1.0" encoding="UTF-8" standalone="no"?>
<gpx xmlns="http://www.topografix.com/GPX/1/1" version="1.1" xmlns:xsi="http://www.w3.org/2001/XMLSchema-instance" xsi:schemaLocation="http://www.topografix.com/GPX/1/1 http://www.topografix.com/GPX/1/1/gpx.xsd" creator="Cirkwi"><metadata><name><![CDATA[Sur les traces de Châteaubriand à Mézières-sur-Couesnon]]></name><desc><![CDATA[Parking devant le château de la Ville Olivier à Mézières sur Couesnon. François René Vicomte de Chateaubriand aimait se promener le long de l'allée de châtaigniers, aujourd’hui replantée de chênes, du château de Sécardais situé le long du parcours. Très beaux paysages en début et en fin de parcours le long de la vallée du Couesnon. La partie centrale de la randonnée se déroule dans la campagne au sud de la vallée, avec beaucoup de chemins ruraux et de petites routes peu fréquentées, afin d'éviter les passages inondés ou trop boueux après un mois de janvier très pluvieux.]]></desc><author><name><![CDATA[UTL Rennes]]></name></author><link href="http://fichier0.cirkwi.com/image/photo/circuit/1300x1300/849527/fr/0.jpg"><text><![CDATA[Le Couesnon|BA]]></text></link><link href="http://fichier0.cirkwi.com/image/photo/circuit/1300x1300/849527/fr/1.jpg"><text><![CDATA[Chemin rural|BA]]></text></link><time>2025-11-18T12:20:14Z</time></metadata><trk><name><![CDATA[Sur les traces de Châteaubriand à Mézières-sur-Couesnon]]></name><trkseg><trkpt lat="48.30725" lon="-1.43307"><ele>56.83</ele></trkpt><trkpt lat="48.30725" lon="-1.43299"><ele>56.66</ele></trkpt><trkpt lat="48.30725" lon="-1.43293"><ele>56.27</ele></trkpt><trkpt lat="48.30725" lon="-1.43288"><ele>56.05</ele></trkpt><trkpt lat="48.30725" lon="-1.43282"><ele>55.81</ele></trkpt><trkpt lat="48.30724" lon="-1.43273"><ele>55.49</ele></trkpt><trkpt lat="48.30803" lon="-1.4328"><ele>54.1</ele></trkpt><trkpt lat="48.30821" lon="-1.43281"><ele>53.75</ele></trkpt><trkpt lat="48.30821" lon="-1.43292"><ele>53.93</ele></trkpt><trkpt lat="48.30821" lon="-1.43297"><ele>53.97</ele></trkpt><trkpt lat="48.30831" lon="-1.43296"><ele>53.12</ele></trkpt><trkpt lat="48.30848" lon="-1.43295"><ele>52.89</ele></trkpt><trkpt lat="48.30856" lon="-1.43296"><ele>53.35</ele></trkpt><trkpt lat="48.30869" lon="-1.43299"><ele>53.9</ele></trkpt><trkpt lat="48.30872" lon="-1.433"><ele>53.9</ele></trkpt><trkpt lat="48.30872" lon="-1.43293"><ele>53.89</ele></trkpt><trkpt lat="48.30871" lon="-1.43289"><ele>53.89</ele></trkpt><trkpt lat="48.30884" lon="-1.43287"><ele>54.82</ele></trkpt><trkpt lat="48.30889" lon="-1.43285"><ele>55.11</ele></trkpt><trkpt lat="48.30896" lon="-1.43284"><ele>56.1</ele></trkpt><trkpt lat="48.309" lon="-1.43283"><ele>56.62</ele></trkpt><trkpt lat="48.30905" lon="-1.43282"><ele>57.18</ele></trkpt><trkpt lat="48.3091" lon="-1.43281"><ele>57.73</ele></trkpt><trkpt lat="48.30915" lon="-1.4328"><ele>58.33</ele></trkpt><trkpt lat="48.3092" lon="-1.43278"><ele>58.92</ele></trkpt><trkpt lat="48.30924" lon="-1.43277"><ele>58.83</ele></trkpt><trkpt lat="48.3093" lon="-1.43276"><ele>60.74</ele></trkpt><trkpt lat="48.30936" lon="-1.43274"><ele>61.48</ele></trkpt><trkpt lat="48.30942" lon="-1.43272"><ele>62.37</ele></trkpt><trkpt lat="48.30979" lon="-1.43254"><ele>61.08</ele></trkpt><trkpt lat="48.31019" lon="-1.43245"><ele>61.07</ele></trkpt><trkpt lat="48.31066" lon="-1.43247"><ele>59.81</ele></trkpt><trkpt lat="48.31102" lon="-1.43249"><ele>63.7</ele></trkpt><trkpt lat="48.31134" lon="-1.4324"><ele>63.9</ele></trkpt><trkpt lat="48.31161" lon="-1.4323"><ele>67.83</ele></trkpt><trkpt lat="48.31188" lon="-1.43198"><ele>64.17</ele></trkpt><trkpt lat="48.31206" lon="-1.43176"><ele>60.64</ele></trkpt><trkpt lat="48.31208" lon="-1.43174"><ele>61.5</ele></trkpt><trkpt lat="48.31209" lon="-1.4317"><ele>61.5</ele></trkpt><trkpt lat="48.31211" lon="-1.43164"><ele>60.82</ele></trkpt><trkpt lat="48.31214" lon="-1.43158"><ele>61.4</ele></trkpt><trkpt lat="48.31216" lon="-1.43155"><ele>60.48</ele></trkpt><trkpt lat="48.3122" lon="-1.43153"><ele>61.29</ele></trkpt><trkpt lat="48.31222" lon="-1.43153"><ele>61.42</ele></trkpt><trkpt lat="48.31225" lon="-1.43155"><ele>61.26</ele></trkpt><trkpt lat="48.31229" lon="-1.43158"><ele>62.58</ele></trkpt><trkpt lat="48.31234" lon="-1.43161"><ele>61.75</ele></trkpt><trkpt lat="48.31239" lon="-1.43165"><ele>62.81</ele></trkpt><trkpt lat="48.31244" lon="-1.43167"><ele>63.72</ele></trkpt><trkpt lat="48.31251" lon="-1.4317"><ele>63.94</ele></trkpt><trkpt lat="48.31258" lon="-1.43173"><ele>63.68</ele></trkpt><trkpt lat="48.31264" lon="-1.43176"><ele>63.9</ele></trkpt><trkpt lat="48.3127" lon="-1.43178"><ele>63.5</ele></trkpt><trkpt lat="48.31274" lon="-1.43179"><ele>63.92</ele></trkpt><trkpt lat="48.31278" lon="-1.43182"><ele>63.34</ele></trkpt><trkpt lat="48.31283" lon="-1.43184"><ele>64.23</ele></trkpt><trkpt lat="48.31288" lon="-1.43186"><ele>64.39</ele></trkpt><trkpt lat="48.31293" lon="-1.43187"><ele>64.65</ele></trkpt><trkpt lat="48.31297" lon="-1.43187"><ele>64.7</ele></trkpt><trkpt lat="48.31301" lon="-1.43186"><ele>64.58</ele></trkpt><trkpt lat="48.31307" lon="-1.43186"><ele>64.05</ele></trkpt><trkpt lat="48.31311" lon="-1.43186"><ele>63.7</ele></trkpt><trkpt lat="48.31314" lon="-1.43186"><ele>63.7</ele></trkpt><trkpt lat="48.31319" lon="-1.43186"><ele>63.16</ele></trkpt><trkpt lat="48.31322" lon="-1.43187"><ele>62.16</ele></trkpt><trkpt lat="48.31325" lon="-1.43187"><ele>60.53</ele></trkpt><trkpt lat="48.31326" lon="-1.43189"><ele>61.25</ele></trkpt><trkpt lat="48.31328" lon="-1.43193"><ele>59.99</ele></trkpt><trkpt lat="48.31331" lon="-1.43197"><ele>60.76</ele></trkpt><trkpt lat="48.31333" lon="-1.43202"><ele>59.4</ele></trkpt><trkpt lat="48.31334" lon="-1.43206"><ele>59.71</ele></trkpt><trkpt lat="48.31335" lon="-1.43211"><ele>60.08</ele></trkpt><trkpt lat="48.31335" lon="-1.43215"><ele>60.38</ele></trkpt><trkpt lat="48.31335" lon="-1.4322"><ele>60.63</ele></trkpt><trkpt lat="48.31335" lon="-1.43223"><ele>60.87</ele></trkpt><trkpt lat="48.31333" lon="-1.43229"><ele>61.06</ele></trkpt><trkpt lat="48.31332" lon="-1.43231"><ele>62.53</ele></trkpt><trkpt lat="48.31332" lon="-1.43235"><ele>62.52</ele></trkpt><trkpt lat="48.3133" lon="-1.43239"><ele>62.38</ele></trkpt><trkpt lat="48.31329" lon="-1.43242"><ele>62.38</ele></trkpt><trkpt lat="48.31328" lon="-1.43247"><ele>62.17</ele></trkpt><trkpt lat="48.31328" lon="-1.43252"><ele>61.69</ele></trkpt><trkpt lat="48.31327" lon="-1.43259"><ele>62.81</ele></trkpt><trkpt lat="48.31328" lon="-1.43265"><ele>61.32</ele></trkpt><trkpt lat="48.31328" lon="-1.43269"><ele>61.09</ele></trkpt><trkpt lat="48.31328" lon="-1.43272"><ele>61.09</ele></trkpt><trkpt lat="48.31328" lon="-1.43275"><ele>60.54</ele></trkpt><trkpt lat="48.31327" lon="-1.43278"><ele>60.35</ele></trkpt><trkpt lat="48.31326" lon="-1.43284"><ele>59.68</ele></trkpt><trkpt lat="48.31323" lon="-1.43289"><ele>60.67</ele></trkpt><trkpt lat="48.31321" lon="-1.43293"><ele>60.49</ele></trkpt><trkpt lat="48.31318" lon="-1.43299"><ele>63.17</ele></trkpt><trkpt lat="48.31317" lon="-1.43302"><ele>63.17</ele></trkpt><trkpt lat="48.31317" lon="-1.43306"><ele>63.36</ele></trkpt><trkpt lat="48.31316" lon="-1.43311"><ele>63.49</ele></trkpt><trkpt lat="48.31315" lon="-1.43315"><ele>65.58</ele></trkpt><trkpt lat="48.31313" lon="-1.4332"><ele>65.68</ele></trkpt><trkpt lat="48.31313" lon="-1.43326"><ele>65.53</ele></trkpt><trkpt lat="48.31312" lon="-1.43334"><ele>65.21</ele></trkpt><trkpt lat="48.3131" lon="-1.43339"><ele>67.14</ele></trkpt><trkpt lat="48.31309" lon="-1.43343"><ele>66.98</ele></trkpt><trkpt lat="48.31308" lon="-1.43348"><ele>66.7</ele></trkpt><trkpt lat="48.31307" lon="-1.43353"><ele>66.43</ele></trkpt><trkpt lat="48.31305" lon="-1.4336"><ele>68.34</ele></trkpt><trkpt lat="48.31303" lon="-1.43366"><ele>68.12</ele></trkpt><trkpt lat="48.31301" lon="-1.43374"><ele>69.83</ele></trkpt><trkpt lat="48.31299" lon="-1.43382"><ele>69.58</ele></trkpt><trkpt lat="48.31297" lon="-1.4339"><ele>71.67</ele></trkpt><trkpt lat="48.31297" lon="-1.43396"><ele>71.67</ele></trkpt><trkpt lat="48.31295" lon="-1.43405"><ele>71.65</ele></trkpt><trkpt lat="48.31294" lon="-1.43414"><ele>71.79</ele></trkpt><trkpt lat="48.31293" lon="-1.43423"><ele>73.92</ele></trkpt><trkpt lat="48.31292" lon="-1.43429"><ele>73.73</ele></trkpt><trkpt lat="48.3129" lon="-1.43434"><ele>73.63</ele></trkpt><trkpt lat="48.31289" lon="-1.43438"><ele>75.06</ele></trkpt><trkpt lat="48.31288" lon="-1.43442"><ele>74.99</ele></trkpt><trkpt lat="48.31288" lon="-1.43444"><ele>74.99</ele></trkpt><trkpt lat="48.31289" lon="-1.43447"><ele>74.94</ele></trkpt><trkpt lat="48.31289" lon="-1.43449"><ele>74.79</ele></trkpt><trkpt lat="48.31289" lon="-1.43456"><ele>74.66</ele></trkpt><trkpt lat="48.31288" lon="-1.43461"><ele>74.72</ele></trkpt><trkpt lat="48.31287" lon="-1.43472"><ele>74.67</ele></trkpt><trkpt lat="48.31286" lon="-1.43485"><ele>74.15</ele></trkpt><trkpt lat="48.31285" lon="-1.43492"><ele>73.75</ele></trkpt><trkpt lat="48.31282" lon="-1.43504"><ele>75.61</ele></trkpt><trkpt lat="48.31282" lon="-1.43511"><ele>75.01</ele></trkpt><trkpt lat="48.31282" lon="-1.43518"><ele>74.5</ele></trkpt><trkpt lat="48.31281" lon="-1.43522"><ele>74.61</ele></trkpt><trkpt lat="48.31281" lon="-1.43528"><ele>74.87</ele></trkpt><trkpt lat="48.3128" lon="-1.43532"><ele>77.8</ele></trkpt><trkpt lat="48.31282" lon="-1.43538"><ele>75.95</ele></trkpt><trkpt lat="48.31284" lon="-1.43545"><ele>77.49</ele></trkpt><trkpt lat="48.31288" lon="-1.43553"><ele>77.23</ele></trkpt><trkpt lat="48.31293" lon="-1.43563"><ele>77.22</ele></trkpt><trkpt lat="48.31296" lon="-1.4357"><ele>76.98</ele></trkpt><trkpt lat="48.31298" lon="-1.43575"><ele>75.93</ele></trkpt><trkpt lat="48.31299" lon="-1.4358"><ele>76.07</ele></trkpt><trkpt lat="48.31299" lon="-1.43587"><ele>76.34</ele></trkpt><trkpt lat="48.313" lon="-1.43593"><ele>76.57</ele></trkpt><trkpt lat="48.31299" lon="-1.43599"><ele>76.6</ele></trkpt><trkpt lat="48.31297" lon="-1.43605"><ele>77.61</ele></trkpt><trkpt lat="48.31297" lon="-1.43612"><ele>77.42</ele></trkpt><trkpt lat="48.31295" lon="-1.43617"><ele>77.27</ele></trkpt><trkpt lat="48.31294" lon="-1.43625"><ele>76.21</ele></trkpt><trkpt lat="48.31294" lon="-1.43631"><ele>75.69</ele></trkpt><trkpt lat="48.31293" lon="-1.43639"><ele>77.8</ele></trkpt><trkpt lat="48.31291" lon="-1.43646"><ele>77.88</ele></trkpt><trkpt lat="48.31291" lon="-1.43651"><ele>78.44</ele></trkpt><trkpt lat="48.31291" lon="-1.43656"><ele>79.01</ele></trkpt><trkpt lat="48.31293" lon="-1.43659"><ele>79.01</ele></trkpt><trkpt lat="48.31295" lon="-1.43666"><ele>78.37</ele></trkpt><trkpt lat="48.31296" lon="-1.43673"><ele>79.87</ele></trkpt><trkpt lat="48.31296" lon="-1.43677"><ele>80.44</ele></trkpt><trkpt lat="48.31296" lon="-1.43686"><ele>81.25</ele></trkpt><trkpt lat="48.31297" lon="-1.43692"><ele>81.24</ele></trkpt><trkpt lat="48.31297" lon="-1.43696"><ele>81.12</ele></trkpt><trkpt lat="48.31297" lon="-1.43703"><ele>81.66</ele></trkpt><trkpt lat="48.31297" lon="-1.4371"><ele>82.02</ele></trkpt><trkpt lat="48.31298" lon="-1.43715"><ele>79.87</ele></trkpt><trkpt lat="48.31299" lon="-1.43719"><ele>79.87</ele></trkpt><trkpt lat="48.31299" lon="-1.43723"><ele>79.66</ele></trkpt><trkpt lat="48.31298" lon="-1.43727"><ele>79.19</ele></trkpt><trkpt lat="48.31297" lon="-1.43734"><ele>80.91</ele></trkpt><trkpt lat="48.31295" lon="-1.43741"><ele>80.19</ele></trkpt><trkpt lat="48.31293" lon="-1.43751"><ele>82.1</ele></trkpt><trkpt lat="48.31293" lon="-1.43759"><ele>81.43</ele></trkpt><trkpt lat="48.31294" lon="-1.43767"><ele>80.02</ele></trkpt><trkpt lat="48.31295" lon="-1.43773"><ele>79.92</ele></trkpt><trkpt lat="48.31294" lon="-1.43775"><ele>80.05</ele></trkpt><trkpt lat="48.31293" lon="-1.43778"><ele>81.71</ele></trkpt><trkpt lat="48.31292" lon="-1.4378"><ele>81.9</ele></trkpt><trkpt lat="48.31293" lon="-1.43786"><ele>82.15</ele></trkpt><trkpt lat="48.31295" lon="-1.43792"><ele>81.1</ele></trkpt><trkpt lat="48.31298" lon="-1.438"><ele>79.4</ele></trkpt><trkpt lat="48.313" lon="-1.43811"><ele>80.65</ele></trkpt><trkpt lat="48.31302" lon="-1.43823"><ele>81.47</ele></trkpt><trkpt lat="48.31303" lon="-1.43833"><ele>80.11</ele></trkpt><trkpt lat="48.31306" lon="-1.43838"><ele>80.36</ele></trkpt><trkpt lat="48.31307" lon="-1.43846"><ele>78.52</ele></trkpt><trkpt lat="48.3131" lon="-1.43856"><ele>79.52</ele></trkpt><trkpt lat="48.31313" lon="-1.43864"><ele>78.27</ele></trkpt><trkpt lat="48.31316" lon="-1.4387"><ele>77.61</ele></trkpt><trkpt lat="48.31319" lon="-1.43873"><ele>77.61</ele></trkpt><trkpt lat="48.31321" lon="-1.43876"><ele>77.09</ele></trkpt><trkpt lat="48.31322" lon="-1.4388"><ele>77.52</ele></trkpt><trkpt lat="48.31321" lon="-1.43885"><ele>77.64</ele></trkpt><trkpt lat="48.31321" lon="-1.4389"><ele>77.72</ele></trkpt><trkpt lat="48.31321" lon="-1.43897"><ele>76.56</ele></trkpt><trkpt lat="48.31321" lon="-1.43907"><ele>75.79</ele></trkpt><trkpt lat="48.31321" lon="-1.43913"><ele>75.11</ele></trkpt><trkpt lat="48.31322" lon="-1.43925"><ele>74.44</ele></trkpt><trkpt lat="48.31321" lon="-1.43944"><ele>75.49</ele></trkpt><trkpt lat="48.31322" lon="-1.4396"><ele>77.79</ele></trkpt><trkpt lat="48.31323" lon="-1.43967"><ele>78.42</ele></trkpt><trkpt lat="48.31323" lon="-1.43977"><ele>79.61</ele></trkpt><trkpt lat="48.31324" lon="-1.43981"><ele>77.77</ele></trkpt><trkpt lat="48.31325" lon="-1.43986"><ele>78.61</ele></trkpt><trkpt lat="48.31327" lon="-1.43994"><ele>80.23</ele></trkpt><trkpt lat="48.31332" lon="-1.44009"><ele>80.34</ele></trkpt><trkpt lat="48.31337" lon="-1.44022"><ele>78.04</ele></trkpt><trkpt lat="48.3134" lon="-1.44029"><ele>79.37</ele></trkpt><trkpt lat="48.31343" lon="-1.44038"><ele>79.94</ele></trkpt><trkpt lat="48.31344" lon="-1.4404"><ele>79.94</ele></trkpt><trkpt lat="48.31346" lon="-1.44041"><ele>80.38</ele></trkpt><trkpt lat="48.3135" lon="-1.44039"><ele>81.45</ele></trkpt><trkpt lat="48.31355" lon="-1.44032"><ele>81.92</ele></trkpt><trkpt lat="48.31361" lon="-1.44024"><ele>82.64</ele></trkpt><trkpt lat="48.31364" lon="-1.4402"><ele>83.09</ele></trkpt><trkpt lat="48.31367" lon="-1.44016"><ele>83.04</ele></trkpt><trkpt lat="48.31372" lon="-1.4401"><ele>82.36</ele></trkpt><trkpt lat="48.31375" lon="-1.44006"><ele>81.85</ele></trkpt><trkpt lat="48.31378" lon="-1.44005"><ele>81.69</ele></trkpt><trkpt lat="48.3138" lon="-1.44003"><ele>81.19</ele></trkpt><trkpt lat="48.31381" lon="-1.44002"><ele>80.91</ele></trkpt><trkpt lat="48.31381" lon="-1.44007"><ele>81.47</ele></trkpt><trkpt lat="48.31381" lon="-1.44013"><ele>81.95</ele></trkpt><trkpt lat="48.31381" lon="-1.44018"><ele>82.85</ele></trkpt><trkpt lat="48.31381" lon="-1.44021"><ele>83.7</ele></trkpt><trkpt lat="48.31385" lon="-1.44025"><ele>84.13</ele></trkpt><trkpt lat="48.31389" lon="-1.44029"><ele>84.36</ele></trkpt><trkpt lat="48.31395" lon="-1.44032"><ele>83.77</ele></trkpt><trkpt lat="48.31402" lon="-1.44035"><ele>85.75</ele></trkpt><trkpt lat="48.31408" lon="-1.44038"><ele>87.19</ele></trkpt><trkpt lat="48.31411" lon="-1.4404"><ele>87.54</ele></trkpt><trkpt lat="48.31413" lon="-1.44041"><ele>87.54</ele></trkpt><trkpt lat="48.31416" lon="-1.44044"><ele>88.34</ele></trkpt><trkpt lat="48.31419" lon="-1.44048"><ele>88.7</ele></trkpt><trkpt lat="48.31422" lon="-1.44054"><ele>88.89</ele></trkpt><trkpt lat="48.31426" lon="-1.4406"><ele>89.15</ele></trkpt><trkpt lat="48.31429" lon="-1.44063"><ele>89.16</ele></trkpt><trkpt lat="48.31431" lon="-1.44065"><ele>88.13</ele></trkpt><trkpt lat="48.31433" lon="-1.44066"><ele>88.13</ele></trkpt><trkpt lat="48.31435" lon="-1.44068"><ele>89.1</ele></trkpt><trkpt lat="48.31436" lon="-1.44071"><ele>87.56</ele></trkpt><trkpt lat="48.31439" lon="-1.44074"><ele>88.92</ele></trkpt><trkpt lat="48.31441" lon="-1.44075"><ele>87.61</ele></trkpt><trkpt lat="48.31443" lon="-1.44075"><ele>87.61</ele></trkpt><trkpt lat="48.31445" lon="-1.44074"><ele>87.05</ele></trkpt><trkpt lat="48.31447" lon="-1.44074"><ele>87.05</ele></trkpt><trkpt lat="48.31448" lon="-1.44077"><ele>88.75</ele></trkpt><trkpt lat="48.3145" lon="-1.44084"><ele>89.74</ele></trkpt><trkpt lat="48.31451" lon="-1.44088"><ele>89.74</ele></trkpt><trkpt lat="48.31452" lon="-1.44091"><ele>90.41</ele></trkpt><trkpt lat="48.31451" lon="-1.44094"><ele>91.25</ele></trkpt><trkpt lat="48.3145" lon="-1.44101"><ele>92.24</ele></trkpt><trkpt lat="48.3145" lon="-1.44104"><ele>92.88</ele></trkpt><trkpt lat="48.31451" lon="-1.44106"><ele>93.07</ele></trkpt><trkpt lat="48.31453" lon="-1.44106"><ele>92.47</ele></trkpt><trkpt lat="48.31455" lon="-1.44107"><ele>92.47</ele></trkpt><trkpt lat="48.31456" lon="-1.44109"><ele>92.47</ele></trkpt><trkpt lat="48.31455" lon="-1.44112"><ele>92.66</ele></trkpt><trkpt lat="48.31455" lon="-1.44115"><ele>92.54</ele></trkpt><trkpt lat="48.31454" lon="-1.44118"><ele>92.54</ele></trkpt><trkpt lat="48.3145" lon="-1.44124"><ele>92.11</ele></trkpt><trkpt lat="48.31444" lon="-1.44127"><ele>91.79</ele></trkpt><trkpt lat="48.31436" lon="-1.44134"><ele>91.67</ele></trkpt><trkpt lat="48.31431" lon="-1.44134"><ele>92.06</ele></trkpt><trkpt lat="48.31429" lon="-1.44134"><ele>92.23</ele></trkpt><trkpt lat="48.31422" lon="-1.44139"><ele>91.87</ele></trkpt><trkpt lat="48.31417" lon="-1.44143"><ele>91.76</ele></trkpt><trkpt lat="48.3141" lon="-1.44148"><ele>91.54</ele></trkpt><trkpt lat="48.31371" lon="-1.44177"><ele>90.79</ele></trkpt><trkpt lat="48.31325" lon="-1.44206"><ele>89.72</ele></trkpt><trkpt lat="48.313" lon="-1.44215"><ele>89.92</ele></trkpt><trkpt lat="48.31299" lon="-1.44253"><ele>90.63</ele></trkpt><trkpt lat="48.31289" lon="-1.4425"><ele>90.63</ele></trkpt><trkpt lat="48.31285" lon="-1.4425"><ele>90.63</ele></trkpt><trkpt lat="48.31278" lon="-1.44249"><ele>90.71</ele></trkpt><trkpt lat="48.31273" lon="-1.44247"><ele>90.64</ele></trkpt><trkpt lat="48.31266" lon="-1.44246"><ele>90.76</ele></trkpt><trkpt lat="48.31259" lon="-1.44245"><ele>90.9</ele></trkpt><trkpt lat="48.31252" lon="-1.44244"><ele>90.92</ele></trkpt><trkpt lat="48.31246" lon="-1.44244"><ele>91.04</ele></trkpt><trkpt lat="48.31241" lon="-1.44244"><ele>91.11</ele></trkpt><trkpt lat="48.31236" lon="-1.44245"><ele>91.15</ele></trkpt><trkpt lat="48.3123" lon="-1.44246"><ele>91.2</ele></trkpt><trkpt lat="48.31226" lon="-1.44248"><ele>91.32</ele></trkpt><trkpt lat="48.31221" lon="-1.44251"><ele>91.34</ele></trkpt><trkpt lat="48.31217" lon="-1.44254"><ele>91.41</ele></trkpt><trkpt lat="48.31213" lon="-1.44257"><ele>91.51</ele></trkpt><trkpt lat="48.31208" lon="-1.44262"><ele>91.65</ele></trkpt><trkpt lat="48.31203" lon="-1.44268"><ele>91.83</ele></trkpt><trkpt lat="48.31192" lon="-1.44279"><ele>92.17</ele></trkpt><trkpt lat="48.31189" lon="-1.44283"><ele>92.28</ele></trkpt><trkpt lat="48.31185" lon="-1.44286"><ele>92.43</ele></trkpt><trkpt lat="48.31181" lon="-1.44288"><ele>92.39</ele></trkpt><trkpt lat="48.31177" lon="-1.4429"><ele>92.53</ele></trkpt><trkpt lat="48.31137" lon="-1.44308"><ele>92.66</ele></trkpt><trkpt lat="48.31134" lon="-1.44309"><ele>92.78</ele></trkpt><trkpt lat="48.31131" lon="-1.44309"><ele>92.78</ele></trkpt><trkpt lat="48.31126" lon="-1.44304"><ele>93.08</ele></trkpt><trkpt lat="48.3112" lon="-1.44305"><ele>93.06</ele></trkpt><trkpt lat="48.31112" lon="-1.44306"><ele>92.82</ele></trkpt><trkpt lat="48.31102" lon="-1.44307"><ele>92.27</ele></trkpt><trkpt lat="48.31097" lon="-1.44308"><ele>91.9</ele></trkpt><trkpt lat="48.31086" lon="-1.44309"><ele>90.66</ele></trkpt><trkpt lat="48.3108" lon="-1.4431"><ele>90.34</ele></trkpt><trkpt lat="48.31073" lon="-1.44312"><ele>89.71</ele></trkpt><trkpt lat="48.31068" lon="-1.44313"><ele>89.37</ele></trkpt><trkpt lat="48.31057" lon="-1.44314"><ele>88.49</ele></trkpt><trkpt lat="48.31048" lon="-1.44315"><ele>88.1</ele></trkpt><trkpt lat="48.3104" lon="-1.44315"><ele>87.25</ele></trkpt><trkpt lat="48.31035" lon="-1.44315"><ele>86.97</ele></trkpt><trkpt lat="48.31032" lon="-1.44316"><ele>86.93</ele></trkpt><trkpt lat="48.31028" lon="-1.44318"><ele>86.6</ele></trkpt><trkpt lat="48.31023" lon="-1.44322"><ele>86.05</ele></trkpt><trkpt lat="48.31018" lon="-1.44326"><ele>85.81</ele></trkpt><trkpt lat="48.31014" lon="-1.4433"><ele>85.62</ele></trkpt><trkpt lat="48.3101" lon="-1.44335"><ele>85.5</ele></trkpt><trkpt lat="48.31006" lon="-1.4434"><ele>85.36</ele></trkpt><trkpt lat="48.31002" lon="-1.44344"><ele>85.25</ele></trkpt><trkpt lat="48.30998" lon="-1.44349"><ele>85.06</ele></trkpt><trkpt lat="48.30996" lon="-1.44354"><ele>84.9</ele></trkpt><trkpt lat="48.30993" lon="-1.4436"><ele>84.63</ele></trkpt><trkpt lat="48.3099" lon="-1.44365"><ele>84.46</ele></trkpt><trkpt lat="48.30989" lon="-1.4437"><ele>84.37</ele></trkpt><trkpt lat="48.30987" lon="-1.44375"><ele>84.12</ele></trkpt><trkpt lat="48.30986" lon="-1.4438"><ele>83.99</ele></trkpt><trkpt lat="48.30984" lon="-1.44386"><ele>83.73</ele></trkpt><trkpt lat="48.30982" lon="-1.44402"><ele>83.34</ele></trkpt><trkpt lat="48.3098" lon="-1.44402"><ele>83.3</ele></trkpt><trkpt lat="48.30975" lon="-1.44402"><ele>83.31</ele></trkpt><trkpt lat="48.3097" lon="-1.44403"><ele>83.32</ele></trkpt><trkpt lat="48.30959" lon="-1.44407"><ele>83.24</ele></trkpt><trkpt lat="48.30952" lon="-1.4441"><ele>83.25</ele></trkpt><trkpt lat="48.30946" lon="-1.44411"><ele>83.19</ele></trkpt><trkpt lat="48.30945" lon="-1.44412"><ele>83.21</ele></trkpt><trkpt lat="48.30941" lon="-1.44418"><ele>83.11</ele></trkpt><trkpt lat="48.30937" lon="-1.44421"><ele>82.8</ele></trkpt><trkpt lat="48.30933" lon="-1.44425"><ele>82.37</ele></trkpt><trkpt lat="48.30911" lon="-1.44438"><ele>80.4</ele></trkpt><trkpt lat="48.30899" lon="-1.44447"><ele>79.5</ele></trkpt><trkpt lat="48.30858" lon="-1.4448"><ele>76.03</ele></trkpt><trkpt lat="48.3085" lon="-1.44486"><ele>75.37</ele></trkpt><trkpt lat="48.30846" lon="-1.44491"><ele>74.88</ele></trkpt><trkpt lat="48.30843" lon="-1.44495"><ele>74.51</ele></trkpt><trkpt lat="48.30841" lon="-1.445"><ele>74.05</ele></trkpt><trkpt lat="48.30839" lon="-1.44507"><ele>73.44</ele></trkpt><trkpt lat="48.30837" lon="-1.44516"><ele>72.59</ele></trkpt><trkpt lat="48.30834" lon="-1.4453"><ele>71.81</ele></trkpt><trkpt lat="48.30832" lon="-1.44542"><ele>70.93</ele></trkpt><trkpt lat="48.30814" lon="-1.4461"><ele>68.63</ele></trkpt><trkpt lat="48.30806" lon="-1.44641"><ele>68</ele></trkpt><trkpt lat="48.30802" lon="-1.44652"><ele>67.73</ele></trkpt><trkpt lat="48.30799" lon="-1.44664"><ele>67.21</ele></trkpt><trkpt lat="48.30797" lon="-1.44662"><ele>67.37</ele></trkpt><trkpt lat="48.30793" lon="-1.4466"><ele>67.25</ele></trkpt><trkpt lat="48.30789" lon="-1.44658"><ele>67.31</ele></trkpt><trkpt lat="48.30784" lon="-1.44656"><ele>67.24</ele></trkpt><trkpt lat="48.30778" lon="-1.44655"><ele>67.22</ele></trkpt><trkpt lat="48.30771" lon="-1.44655"><ele>67.18</ele></trkpt><trkpt lat="48.30766" lon="-1.44653"><ele>67.16</ele></trkpt><trkpt lat="48.30761" lon="-1.44652"><ele>67.1</ele></trkpt><trkpt lat="48.30757" lon="-1.4465"><ele>67.02</ele></trkpt><trkpt lat="48.30753" lon="-1.44648"><ele>67.02</ele></trkpt><trkpt lat="48.30751" lon="-1.44646"><ele>67.02</ele></trkpt><trkpt lat="48.30744" lon="-1.44648"><ele>66.84</ele></trkpt><trkpt lat="48.30739" lon="-1.44647"><ele>66.69</ele></trkpt><trkpt lat="48.30732" lon="-1.44646"><ele>66.72</ele></trkpt><trkpt lat="48.30725" lon="-1.44644"><ele>66.48</ele></trkpt><trkpt lat="48.30717" lon="-1.44643"><ele>66.25</ele></trkpt><trkpt lat="48.3071" lon="-1.44643"><ele>66.21</ele></trkpt><trkpt lat="48.30704" lon="-1.44643"><ele>66.15</ele></trkpt><trkpt lat="48.307" lon="-1.44644"><ele>66.16</ele></trkpt><trkpt lat="48.30696" lon="-1.44645"><ele>66.18</ele></trkpt><trkpt lat="48.30688" lon="-1.44651"><ele>66.09</ele></trkpt><trkpt lat="48.3061" lon="-1.44713"><ele>65.31</ele></trkpt><trkpt lat="48.30559" lon="-1.44754"><ele>64.77</ele></trkpt><trkpt lat="48.30528" lon="-1.44778"><ele>64.54</ele></trkpt><trkpt lat="48.30493" lon="-1.44806"><ele>64.86</ele></trkpt><trkpt lat="48.30485" lon="-1.44813"><ele>64.75</ele></trkpt><trkpt lat="48.30477" lon="-1.4482"><ele>64.35</ele></trkpt><trkpt lat="48.30469" lon="-1.44827"><ele>63.98</ele></trkpt><trkpt lat="48.30461" lon="-1.44837"><ele>63.38</ele></trkpt><trkpt lat="48.30429" lon="-1.44898"><ele>63.29</ele></trkpt><trkpt lat="48.30424" lon="-1.44904"><ele>63.43</ele></trkpt><trkpt lat="48.3042" lon="-1.44906"><ele>63.63</ele></trkpt><trkpt lat="48.30418" lon="-1.44907"><ele>63.72</ele></trkpt><trkpt lat="48.30419" lon="-1.44924"><ele>63.58</ele></trkpt><trkpt lat="48.30419" lon="-1.44928"><ele>63.51</ele></trkpt><trkpt lat="48.30418" lon="-1.44933"><ele>63.78</ele></trkpt><trkpt lat="48.30394" lon="-1.45005"><ele>63.28</ele></trkpt><trkpt lat="48.3039" lon="-1.45021"><ele>63.05</ele></trkpt><trkpt lat="48.30388" lon="-1.45036"><ele>63.08</ele></trkpt><trkpt lat="48.30386" lon="-1.4507"><ele>62.98</ele></trkpt><trkpt lat="48.30383" lon="-1.45083"><ele>63.24</ele></trkpt><trkpt lat="48.30381" lon="-1.45088"><ele>63.22</ele></trkpt><trkpt lat="48.30378" lon="-1.45092"><ele>63.49</ele></trkpt><trkpt lat="48.30372" lon="-1.45096"><ele>63.69</ele></trkpt><trkpt lat="48.30297" lon="-1.45136"><ele>65</ele></trkpt><trkpt lat="48.30292" lon="-1.45139"><ele>65</ele></trkpt><trkpt lat="48.3029" lon="-1.45145"><ele>65</ele></trkpt><trkpt lat="48.3029" lon="-1.45148"><ele>65</ele></trkpt><trkpt lat="48.30291" lon="-1.45159"><ele>65</ele></trkpt><trkpt lat="48.30293" lon="-1.45167"><ele>65</ele></trkpt><trkpt lat="48.30303" lon="-1.45195"><ele>65</ele></trkpt><trkpt lat="48.30313" lon="-1.45225"><ele>65.05</ele></trkpt><trkpt lat="48.30322" lon="-1.4526"><ele>65.97</ele></trkpt><trkpt lat="48.30332" lon="-1.45303"><ele>67.4</ele></trkpt><trkpt lat="48.30338" lon="-1.45335"><ele>68.13</ele></trkpt><trkpt lat="48.30346" lon="-1.45395"><ele>68.66</ele></trkpt><trkpt lat="48.30349" lon="-1.45424"><ele>68.95</ele></trkpt><trkpt lat="48.30348" lon="-1.45429"><ele>69.07</ele></trkpt><trkpt lat="48.30345" lon="-1.45433"><ele>69.39</ele></trkpt><trkpt lat="48.30343" lon="-1.45436"><ele>69.46</ele></trkpt><trkpt lat="48.30341" lon="-1.45439"><ele>69.46</ele></trkpt><trkpt lat="48.30333" lon="-1.45442"><ele>69.85</ele></trkpt><trkpt lat="48.30322" lon="-1.45445"><ele>71.05</ele></trkpt><trkpt lat="48.30309" lon="-1.45446"><ele>71.83</ele></trkpt><trkpt lat="48.30298" lon="-1.45448"><ele>72.24</ele></trkpt><trkpt lat="48.30286" lon="-1.45453"><ele>73.04</ele></trkpt><trkpt lat="48.30276" lon="-1.45459"><ele>73.82</ele></trkpt><trkpt lat="48.30267" lon="-1.45468"><ele>75.04</ele></trkpt><trkpt lat="48.30255" lon="-1.45482"><ele>76.13</ele></trkpt><trkpt lat="48.30243" lon="-1.45497"><ele>77.47</ele></trkpt><trkpt lat="48.30236" lon="-1.4551"><ele>78.55</ele></trkpt><trkpt lat="48.30228" lon="-1.45529"><ele>79.97</ele></trkpt><trkpt lat="48.3021" lon="-1.45586"><ele>85.74</ele></trkpt><trkpt lat="48.30201" lon="-1.45614"><ele>88.25</ele></trkpt><trkpt lat="48.30184" lon="-1.4566"><ele>92.72</ele></trkpt><trkpt lat="48.3018" lon="-1.45672"><ele>93.63</ele></trkpt><trkpt lat="48.30176" lon="-1.45677"><ele>93.74</ele></trkpt><trkpt lat="48.30188" lon="-1.45681"><ele>94</ele></trkpt><trkpt lat="48.30261" lon="-1.45721"><ele>93.35</ele></trkpt><trkpt lat="48.303" lon="-1.45749"><ele>91.39</ele></trkpt><trkpt lat="48.30325" lon="-1.4577"><ele>90.34</ele></trkpt><trkpt lat="48.30332" lon="-1.45774"><ele>90.25</ele></trkpt><trkpt lat="48.30347" lon="-1.45784"><ele>90.01</ele></trkpt><trkpt lat="48.30375" lon="-1.45815"><ele>88.95</ele></trkpt><trkpt lat="48.30397" lon="-1.45843"><ele>88.44</ele></trkpt><trkpt lat="48.30414" lon="-1.45863"><ele>88.48</ele></trkpt><trkpt lat="48.30441" lon="-1.45883"><ele>88.29</ele></trkpt><trkpt lat="48.30446" lon="-1.45888"><ele>88.18</ele></trkpt><trkpt lat="48.30446" lon="-1.45892"><ele>88.22</ele></trkpt><trkpt lat="48.30444" lon="-1.459"><ele>88.27</ele></trkpt><trkpt lat="48.30437" lon="-1.45934"><ele>87.47</ele></trkpt><trkpt lat="48.30429" lon="-1.45977"><ele>86.29</ele></trkpt><trkpt lat="48.30423" lon="-1.4605"><ele>84</ele></trkpt><trkpt lat="48.30419" lon="-1.46135"><ele>81.6</ele></trkpt><trkpt lat="48.30415" lon="-1.46189"><ele>80.71</ele></trkpt><trkpt lat="48.30414" lon="-1.46203"><ele>80.39</ele></trkpt><trkpt lat="48.30414" lon="-1.46217"><ele>80.02</ele></trkpt><trkpt lat="48.30414" lon="-1.46229"><ele>80</ele></trkpt><trkpt lat="48.30413" lon="-1.4624"><ele>79.9</ele></trkpt><trkpt lat="48.30412" lon="-1.46258"><ele>79.67</ele></trkpt><trkpt lat="48.30411" lon="-1.46274"><ele>79.25</ele></trkpt><trkpt lat="48.30411" lon="-1.46281"><ele>79.14</ele></trkpt><trkpt lat="48.30411" lon="-1.46288"><ele>79.01</ele></trkpt><trkpt lat="48.30411" lon="-1.46296"><ele>79</ele></trkpt><trkpt lat="48.30411" lon="-1.46303"><ele>78.96</ele></trkpt><trkpt lat="48.30412" lon="-1.4631"><ele>78.91</ele></trkpt><trkpt lat="48.30412" lon="-1.46317"><ele>78.9</ele></trkpt><trkpt lat="48.30413" lon="-1.46322"><ele>78.9</ele></trkpt><trkpt lat="48.30413" lon="-1.46329"><ele>78.89</ele></trkpt><trkpt lat="48.30412" lon="-1.46335"><ele>78.87</ele></trkpt><trkpt lat="48.30412" lon="-1.46341"><ele>78.84</ele></trkpt><trkpt lat="48.30412" lon="-1.46346"><ele>78.77</ele></trkpt><trkpt lat="48.30413" lon="-1.4635"><ele>78.72</ele></trkpt><trkpt lat="48.30414" lon="-1.46354"><ele>78.81</ele></trkpt><trkpt lat="48.30415" lon="-1.46358"><ele>78.75</ele></trkpt><trkpt lat="48.30427" lon="-1.46405"><ele>78.71</ele></trkpt><trkpt lat="48.30437" lon="-1.46444"><ele>78.96</ele></trkpt><trkpt lat="48.30438" lon="-1.46451"><ele>79</ele></trkpt><trkpt lat="48.30438" lon="-1.4646"><ele>79</ele></trkpt><trkpt lat="48.3043" lon="-1.46464"><ele>78.91</ele></trkpt><trkpt lat="48.30423" lon="-1.46469"><ele>78.89</ele></trkpt><trkpt lat="48.3041" lon="-1.46476"><ele>78.86</ele></trkpt><trkpt lat="48.30398" lon="-1.46482"><ele>78.84</ele></trkpt><trkpt lat="48.30392" lon="-1.46485"><ele>79</ele></trkpt><trkpt lat="48.30383" lon="-1.46491"><ele>79.17</ele></trkpt><trkpt lat="48.3038" lon="-1.46493"><ele>79.29</ele></trkpt><trkpt lat="48.30377" lon="-1.46496"><ele>79.45</ele></trkpt><trkpt lat="48.30375" lon="-1.46497"><ele>79.48</ele></trkpt><trkpt lat="48.30373" lon="-1.46499"><ele>79.48</ele></trkpt><trkpt lat="48.30369" lon="-1.46502"><ele>79.5</ele></trkpt><trkpt lat="48.30364" lon="-1.46509"><ele>79.32</ele></trkpt><trkpt lat="48.30361" lon="-1.46513"><ele>79.15</ele></trkpt><trkpt lat="48.30357" lon="-1.46519"><ele>78.97</ele></trkpt><trkpt lat="48.3035" lon="-1.4653"><ele>78.82</ele></trkpt><trkpt lat="48.30344" lon="-1.46537"><ele>78.96</ele></trkpt><trkpt lat="48.3034" lon="-1.46542"><ele>78.99</ele></trkpt><trkpt lat="48.30334" lon="-1.46549"><ele>79</ele></trkpt><trkpt lat="48.30327" lon="-1.46555"><ele>78.94</ele></trkpt><trkpt lat="48.30321" lon="-1.46562"><ele>78.91</ele></trkpt><trkpt lat="48.30318" lon="-1.46565"><ele>78.9</ele></trkpt><trkpt lat="48.30313" lon="-1.4657"><ele>78.9</ele></trkpt><trkpt lat="48.30302" lon="-1.46583"><ele>78.87</ele></trkpt><trkpt lat="48.30296" lon="-1.46589"><ele>78.87</ele></trkpt><trkpt lat="48.30284" lon="-1.46603"><ele>78.75</ele></trkpt><trkpt lat="48.30269" lon="-1.4662"><ele>78.27</ele></trkpt><trkpt lat="48.30257" lon="-1.46635"><ele>78.27</ele></trkpt><trkpt lat="48.30244" lon="-1.4665"><ele>78.15</ele></trkpt><trkpt lat="48.3023" lon="-1.46666"><ele>78.17</ele></trkpt><trkpt lat="48.30216" lon="-1.46682"><ele>77.99</ele></trkpt><trkpt lat="48.30195" lon="-1.46707"><ele>77.9</ele></trkpt><trkpt lat="48.30182" lon="-1.46721"><ele>77.23</ele></trkpt><trkpt lat="48.30173" lon="-1.46732"><ele>76.94</ele></trkpt><trkpt lat="48.30164" lon="-1.46742"><ele>76.75</ele></trkpt><trkpt lat="48.30154" lon="-1.46753"><ele>76.66</ele></trkpt><trkpt lat="48.30146" lon="-1.46762"><ele>76.64</ele></trkpt><trkpt lat="48.30137" lon="-1.46771"><ele>76.39</ele></trkpt><trkpt lat="48.30128" lon="-1.46781"><ele>76.06</ele></trkpt><trkpt lat="48.30127" lon="-1.46782"><ele>76.06</ele></trkpt><trkpt lat="48.30116" lon="-1.46794"><ele>75.49</ele></trkpt><trkpt lat="48.30105" lon="-1.46807"><ele>75.15</ele></trkpt><trkpt lat="48.30083" lon="-1.46833"><ele>74.84</ele></trkpt><trkpt lat="48.30067" lon="-1.46852"><ele>74.49</ele></trkpt><trkpt lat="48.30052" lon="-1.46869"><ele>73.79</ele></trkpt><trkpt lat="48.30043" lon="-1.46879"><ele>73.85</ele></trkpt><trkpt lat="48.30034" lon="-1.46889"><ele>73.83</ele></trkpt><trkpt lat="48.30024" lon="-1.469"><ele>73.71</ele></trkpt><trkpt lat="48.3002" lon="-1.46904"><ele>73.62</ele></trkpt><trkpt lat="48.30016" lon="-1.46909"><ele>73.51</ele></trkpt><trkpt lat="48.30017" lon="-1.46912"><ele>73.51</ele></trkpt><trkpt lat="48.30018" lon="-1.46915"><ele>73.52</ele></trkpt><trkpt lat="48.30019" lon="-1.46917"><ele>73.69</ele></trkpt><trkpt lat="48.30021" lon="-1.46923"><ele>73.72</ele></trkpt><trkpt lat="48.30023" lon="-1.46928"><ele>73.75</ele></trkpt><trkpt lat="48.30025" lon="-1.46936"><ele>73.96</ele></trkpt><trkpt lat="48.30028" lon="-1.46946"><ele>74.12</ele></trkpt><trkpt lat="48.30029" lon="-1.46956"><ele>74.19</ele></trkpt><trkpt lat="48.3003" lon="-1.46965"><ele>74.24</ele></trkpt><trkpt lat="48.3003" lon="-1.46972"><ele>74.25</ele></trkpt><trkpt lat="48.3003" lon="-1.46988"><ele>74.34</ele></trkpt><trkpt lat="48.30031" lon="-1.47001"><ele>74.25</ele></trkpt><trkpt lat="48.30031" lon="-1.47016"><ele>74.19</ele></trkpt><trkpt lat="48.30031" lon="-1.47033"><ele>74.19</ele></trkpt><trkpt lat="48.30031" lon="-1.47049"><ele>74.19</ele></trkpt><trkpt lat="48.30031" lon="-1.47068"><ele>74.18</ele></trkpt><trkpt lat="48.30031" lon="-1.47089"><ele>74.16</ele></trkpt><trkpt lat="48.30032" lon="-1.47106"><ele>74.2</ele></trkpt><trkpt lat="48.30032" lon="-1.47123"><ele>74.3</ele></trkpt><trkpt lat="48.30032" lon="-1.47136"><ele>74.3</ele></trkpt><trkpt lat="48.30033" lon="-1.4715"><ele>74.3</ele></trkpt><trkpt lat="48.30033" lon="-1.47164"><ele>74.17</ele></trkpt><trkpt lat="48.30034" lon="-1.47173"><ele>74.08</ele></trkpt><trkpt lat="48.30035" lon="-1.4718"><ele>73.98</ele></trkpt><trkpt lat="48.30037" lon="-1.47198"><ele>73.83</ele></trkpt><trkpt lat="48.30039" lon="-1.47214"><ele>73.69</ele></trkpt><trkpt lat="48.3004" lon="-1.47225"><ele>73.59</ele></trkpt><trkpt lat="48.30042" lon="-1.47241"><ele>73.42</ele></trkpt><trkpt lat="48.30044" lon="-1.47257"><ele>73.04</ele></trkpt><trkpt lat="48.30045" lon="-1.47268"><ele>72.96</ele></trkpt><trkpt lat="48.30046" lon="-1.47279"><ele>73.02</ele></trkpt><trkpt lat="48.30049" lon="-1.47306"><ele>73.14</ele></trkpt><trkpt lat="48.3005" lon="-1.4732"><ele>73.42</ele></trkpt><trkpt lat="48.30054" lon="-1.47349"><ele>74.15</ele></trkpt><trkpt lat="48.30058" lon="-1.47382"><ele>75.33</ele></trkpt><trkpt lat="48.30061" lon="-1.47412"><ele>75.87</ele></trkpt><trkpt lat="48.30063" lon="-1.47426"><ele>76.15</ele></trkpt><trkpt lat="48.30065" lon="-1.47437"><ele>76.39</ele></trkpt><trkpt lat="48.30069" lon="-1.47457"><ele>76.76</ele></trkpt><trkpt lat="48.30075" lon="-1.47487"><ele>77.01</ele></trkpt><trkpt lat="48.30081" lon="-1.47514"><ele>77.42</ele></trkpt><trkpt lat="48.30083" lon="-1.47525"><ele>77.54</ele></trkpt><trkpt lat="48.30089" lon="-1.47552"><ele>77.8</ele></trkpt><trkpt lat="48.30093" lon="-1.47569"><ele>77.94</ele></trkpt><trkpt lat="48.30094" lon="-1.47573"><ele>78</ele></trkpt><trkpt lat="48.30095" lon="-1.47576"><ele>78</ele></trkpt><trkpt lat="48.30101" lon="-1.47588"><ele>77.81</ele></trkpt><trkpt lat="48.30105" lon="-1.47598"><ele>77.43</ele></trkpt><trkpt lat="48.30107" lon="-1.47601"><ele>77.29</ele></trkpt><trkpt lat="48.30112" lon="-1.47609"><ele>76.83</ele></trkpt><trkpt lat="48.30119" lon="-1.47619"><ele>76.26</ele></trkpt><trkpt lat="48.30125" lon="-1.47629"><ele>75.57</ele></trkpt><trkpt lat="48.30132" lon="-1.47641"><ele>75.04</ele></trkpt><trkpt lat="48.30136" lon="-1.47649"><ele>74.62</ele></trkpt><trkpt lat="48.30139" lon="-1.47655"><ele>74.22</ele></trkpt><trkpt lat="48.30143" lon="-1.47661"><ele>74.07</ele></trkpt><trkpt lat="48.30147" lon="-1.47667"><ele>73.84</ele></trkpt><trkpt lat="48.30153" lon="-1.47677"><ele>73.11</ele></trkpt><trkpt lat="48.30162" lon="-1.47691"><ele>72.28</ele></trkpt><trkpt lat="48.30168" lon="-1.47701"><ele>71.75</ele></trkpt><trkpt lat="48.30173" lon="-1.4771"><ele>71.31</ele></trkpt><trkpt lat="48.3018" lon="-1.47722"><ele>70.81</ele></trkpt><trkpt lat="48.30187" lon="-1.47733"><ele>70.24</ele></trkpt><trkpt lat="48.30193" lon="-1.47744"><ele>69.92</ele></trkpt><trkpt lat="48.30197" lon="-1.47751"><ele>69.66</ele></trkpt><trkpt lat="48.30202" lon="-1.4776"><ele>69.51</ele></trkpt><trkpt lat="48.30207" lon="-1.47771"><ele>69.4</ele></trkpt><trkpt lat="48.30209" lon="-1.47776"><ele>69.39</ele></trkpt><trkpt lat="48.30212" lon="-1.47782"><ele>69.37</ele></trkpt><trkpt lat="48.30217" lon="-1.47793"><ele>69.66</ele></trkpt><trkpt lat="48.30221" lon="-1.47803"><ele>69.95</ele></trkpt><trkpt lat="48.30227" lon="-1.47816"><ele>70.31</ele></trkpt><trkpt lat="48.30238" lon="-1.47845"><ele>71.3</ele></trkpt><trkpt lat="48.3025" lon="-1.47873"><ele>72.11</ele></trkpt><trkpt lat="48.30257" lon="-1.47889"><ele>72.6</ele></trkpt><trkpt lat="48.3026" lon="-1.47897"><ele>72.85</ele></trkpt><trkpt lat="48.30263" lon="-1.47905"><ele>72.98</ele></trkpt><trkpt lat="48.30271" lon="-1.47925"><ele>73.28</ele></trkpt><trkpt lat="48.30275" lon="-1.47935"><ele>73.55</ele></trkpt><trkpt lat="48.3028" lon="-1.47945"><ele>73.78</ele></trkpt><trkpt lat="48.30283" lon="-1.4795"><ele>73.8</ele></trkpt><trkpt lat="48.30286" lon="-1.47954"><ele>73.77</ele></trkpt><trkpt lat="48.3029" lon="-1.47957"><ele>73.71</ele></trkpt><trkpt lat="48.30294" lon="-1.47959"><ele>73.78</ele></trkpt><trkpt lat="48.30299" lon="-1.4796"><ele>73.86</ele></trkpt><trkpt lat="48.30303" lon="-1.4796"><ele>73.96</ele></trkpt><trkpt lat="48.30307" lon="-1.47958"><ele>74.06</ele></trkpt><trkpt lat="48.3031" lon="-1.47957"><ele>74.06</ele></trkpt><trkpt lat="48.30314" lon="-1.47955"><ele>74.19</ele></trkpt><trkpt lat="48.30315" lon="-1.47953"><ele>74.17</ele></trkpt><trkpt lat="48.30319" lon="-1.47949"><ele>74.28</ele></trkpt><trkpt lat="48.30323" lon="-1.47944"><ele>74.38</ele></trkpt><trkpt lat="48.30326" lon="-1.47942"><ele>74.45</ele></trkpt><trkpt lat="48.30328" lon="-1.47941"><ele>74.55</ele></trkpt><trkpt lat="48.30331" lon="-1.47941"><ele>74.55</ele></trkpt><trkpt lat="48.30332" lon="-1.47941"><ele>74.55</ele></trkpt><trkpt lat="48.30333" lon="-1.47942"><ele>74.63</ele></trkpt><trkpt lat="48.30337" lon="-1.47945"><ele>74.72</ele></trkpt><trkpt lat="48.30341" lon="-1.4795"><ele>74.83</ele></trkpt><trkpt lat="48.30348" lon="-1.47956"><ele>74.99</ele></trkpt><trkpt lat="48.30355" lon="-1.47962"><ele>75.27</ele></trkpt><trkpt lat="48.3036" lon="-1.47968"><ele>75.46</ele></trkpt><trkpt lat="48.30366" lon="-1.47975"><ele>75.61</ele></trkpt><trkpt lat="48.30374" lon="-1.47983"><ele>75.88</ele></trkpt><trkpt lat="48.30383" lon="-1.47993"><ele>76.12</ele></trkpt><trkpt lat="48.30392" lon="-1.48006"><ele>76.37</ele></trkpt><trkpt lat="48.30399" lon="-1.48014"><ele>76.7</ele></trkpt><trkpt lat="48.30404" lon="-1.48023"><ele>76.87</ele></trkpt><trkpt lat="48.3041" lon="-1.48032"><ele>77.27</ele></trkpt><trkpt lat="48.30414" lon="-1.48038"><ele>77.48</ele></trkpt><trkpt lat="48.30417" lon="-1.48045"><ele>77.53</ele></trkpt><trkpt lat="48.3042" lon="-1.48055"><ele>77.71</ele></trkpt><trkpt lat="48.30422" lon="-1.48062"><ele>77.73</ele></trkpt><trkpt lat="48.30424" lon="-1.48072"><ele>77.79</ele></trkpt><trkpt lat="48.30425" lon="-1.48081"><ele>77.67</ele></trkpt><trkpt lat="48.30427" lon="-1.48095"><ele>77.3</ele></trkpt><trkpt lat="48.30429" lon="-1.48115"><ele>76.73</ele></trkpt><trkpt lat="48.3043" lon="-1.48124"><ele>76.55</ele></trkpt><trkpt lat="48.30431" lon="-1.48132"><ele>76.6</ele></trkpt><trkpt lat="48.30432" lon="-1.48147"><ele>76.45</ele></trkpt><trkpt lat="48.30433" lon="-1.48158"><ele>76.16</ele></trkpt><trkpt lat="48.30435" lon="-1.48167"><ele>75.89</ele></trkpt><trkpt lat="48.30437" lon="-1.48174"><ele>75.68</ele></trkpt><trkpt lat="48.3044" lon="-1.48182"><ele>75.67</ele></trkpt><trkpt lat="48.30443" lon="-1.48189"><ele>75.51</ele></trkpt><trkpt lat="48.30448" lon="-1.48195"><ele>75.45</ele></trkpt><trkpt lat="48.30452" lon="-1.48199"><ele>75.35</ele></trkpt><trkpt lat="48.30456" lon="-1.48201"><ele>75.23</ele></trkpt><trkpt lat="48.3047" lon="-1.48208"><ele>75.21</ele></trkpt><trkpt lat="48.30482" lon="-1.48214"><ele>75.19</ele></trkpt><trkpt lat="48.3049" lon="-1.48218"><ele>75.3</ele></trkpt><trkpt lat="48.30498" lon="-1.48223"><ele>75.43</ele></trkpt><trkpt lat="48.30507" lon="-1.48229"><ele>75.54</ele></trkpt><trkpt lat="48.30514" lon="-1.48236"><ele>75.42</ele></trkpt><trkpt lat="48.30524" lon="-1.48245"><ele>75.48</ele></trkpt><trkpt lat="48.30536" lon="-1.48256"><ele>75.81</ele></trkpt><trkpt lat="48.30547" lon="-1.48266"><ele>76.12</ele></trkpt><trkpt lat="48.30561" lon="-1.48278"><ele>76.32</ele></trkpt><trkpt lat="48.30574" lon="-1.4829"><ele>76.51</ele></trkpt><trkpt lat="48.30584" lon="-1.48299"><ele>76.79</ele></trkpt><trkpt lat="48.30591" lon="-1.48305"><ele>77.17</ele></trkpt><trkpt lat="48.30593" lon="-1.48308"><ele>77.18</ele></trkpt><trkpt lat="48.30597" lon="-1.48316"><ele>77.38</ele></trkpt><trkpt lat="48.306" lon="-1.48321"><ele>77.58</ele></trkpt><trkpt lat="48.30604" lon="-1.48329"><ele>77.79</ele></trkpt><trkpt lat="48.30609" lon="-1.48342"><ele>78.01</ele></trkpt><trkpt lat="48.30615" lon="-1.48355"><ele>78.23</ele></trkpt><trkpt lat="48.30624" lon="-1.48374"><ele>78.61</ele></trkpt><trkpt lat="48.3063" lon="-1.4839"><ele>78.89</ele></trkpt><trkpt lat="48.30633" lon="-1.48399"><ele>79.03</ele></trkpt><trkpt lat="48.30634" lon="-1.48406"><ele>78.99</ele></trkpt><trkpt lat="48.30634" lon="-1.48411"><ele>78.97</ele></trkpt><trkpt lat="48.30639" lon="-1.48412"><ele>79.1</ele></trkpt><trkpt lat="48.30643" lon="-1.48411"><ele>79.21</ele></trkpt><trkpt lat="48.30652" lon="-1.48409"><ele>79.37</ele></trkpt><trkpt lat="48.30663" lon="-1.48406"><ele>79.9</ele></trkpt><trkpt lat="48.30671" lon="-1.48404"><ele>80.06</ele></trkpt><trkpt lat="48.30678" lon="-1.48402"><ele>80.59</ele></trkpt><trkpt lat="48.30686" lon="-1.48398"><ele>81.19</ele></trkpt><trkpt lat="48.30696" lon="-1.48394"><ele>81.67</ele></trkpt><trkpt lat="48.30702" lon="-1.48391"><ele>82.14</ele></trkpt><trkpt lat="48.30721" lon="-1.48382"><ele>82.93</ele></trkpt><trkpt lat="48.30739" lon="-1.48373"><ele>83.62</ele></trkpt><trkpt lat="48.30745" lon="-1.48371"><ele>83.94</ele></trkpt><trkpt lat="48.30756" lon="-1.48365"><ele>84.1</ele></trkpt><trkpt lat="48.30765" lon="-1.48359"><ele>84.25</ele></trkpt><trkpt lat="48.30781" lon="-1.4835"><ele>84.23</ele></trkpt><trkpt lat="48.30794" lon="-1.48342"><ele>83.96</ele></trkpt><trkpt lat="48.30801" lon="-1.48338"><ele>83.7</ele></trkpt><trkpt lat="48.30809" lon="-1.48331"><ele>83.48</ele></trkpt><trkpt lat="48.30812" lon="-1.48329"><ele>83.48</ele></trkpt><trkpt lat="48.30821" lon="-1.48321"><ele>83.35</ele></trkpt><trkpt lat="48.3083" lon="-1.48313"><ele>83.19</ele></trkpt><trkpt lat="48.30838" lon="-1.48305"><ele>82.95</ele></trkpt><trkpt lat="48.30845" lon="-1.483"><ele>82.75</ele></trkpt><trkpt lat="48.30848" lon="-1.48297"><ele>82.61</ele></trkpt><trkpt lat="48.30854" lon="-1.48292"><ele>82.46</ele></trkpt><trkpt lat="48.30863" lon="-1.48286"><ele>82.17</ele></trkpt><trkpt lat="48.30872" lon="-1.48279"><ele>81.89</ele></trkpt><trkpt lat="48.30879" lon="-1.48273"><ele>81.54</ele></trkpt><trkpt lat="48.30888" lon="-1.48267"><ele>81.43</ele></trkpt><trkpt lat="48.30889" lon="-1.48267"><ele>81.43</ele></trkpt><trkpt lat="48.30899" lon="-1.48259"><ele>80.95</ele></trkpt><trkpt lat="48.30909" lon="-1.48252"><ele>80.69</ele></trkpt><trkpt lat="48.30918" lon="-1.48246"><ele>80.57</ele></trkpt><trkpt lat="48.30927" lon="-1.4824"><ele>80.41</ele></trkpt><trkpt lat="48.30955" lon="-1.48221"><ele>79.87</ele></trkpt><trkpt lat="48.30969" lon="-1.48211"><ele>79.77</ele></trkpt><trkpt lat="48.30974" lon="-1.48208"><ele>79.7</ele></trkpt><trkpt lat="48.30984" lon="-1.48202"><ele>79.86</ele></trkpt><trkpt lat="48.30995" lon="-1.48196"><ele>80.19</ele></trkpt><trkpt lat="48.31" lon="-1.48193"><ele>80.36</ele></trkpt><trkpt lat="48.31004" lon="-1.48191"><ele>80.52</ele></trkpt><trkpt lat="48.31008" lon="-1.48189"><ele>80.67</ele></trkpt><trkpt lat="48.31015" lon="-1.48187"><ele>81.08</ele></trkpt><trkpt lat="48.31026" lon="-1.48184"><ele>81.46</ele></trkpt><trkpt lat="48.31046" lon="-1.48179"><ele>82.36</ele></trkpt><trkpt lat="48.31054" lon="-1.48177"><ele>83.04</ele></trkpt><trkpt lat="48.31059" lon="-1.48176"><ele>83.21</ele></trkpt><trkpt lat="48.31074" lon="-1.48175"><ele>83.79</ele></trkpt><trkpt lat="48.31084" lon="-1.48175"><ele>84.44</ele></trkpt><trkpt lat="48.31093" lon="-1.48174"><ele>84.94</ele></trkpt><trkpt lat="48.31104" lon="-1.48173"><ele>85.6</ele></trkpt><trkpt lat="48.31109" lon="-1.48172"><ele>85.71</ele></trkpt><trkpt lat="48.31117" lon="-1.4817"><ele>86.03</ele></trkpt><trkpt lat="48.31125" lon="-1.48168"><ele>86.51</ele></trkpt><trkpt lat="48.31138" lon="-1.48162"><ele>86.85</ele></trkpt><trkpt lat="48.31152" lon="-1.48156"><ele>87.66</ele></trkpt><trkpt lat="48.31168" lon="-1.4815"><ele>88.19</ele></trkpt><trkpt lat="48.31248" lon="-1.48112"><ele>90.84</ele></trkpt><trkpt lat="48.31264" lon="-1.48102"><ele>90.65</ele></trkpt><trkpt lat="48.31468" lon="-1.47984"><ele>90.07</ele></trkpt><trkpt lat="48.3147" lon="-1.47981"><ele>89.9</ele></trkpt><trkpt lat="48.31473" lon="-1.47979"><ele>89.97</ele></trkpt><trkpt lat="48.31481" lon="-1.47974"><ele>90.49</ele></trkpt><trkpt lat="48.31504" lon="-1.47963"><ele>91.07</ele></trkpt><trkpt lat="48.31521" lon="-1.47954"><ele>90.92</ele></trkpt><trkpt lat="48.31538" lon="-1.47947"><ele>90.58</ele></trkpt><trkpt lat="48.31545" lon="-1.47943"><ele>90.48</ele></trkpt><trkpt lat="48.31552" lon="-1.47939"><ele>90.45</ele></trkpt><trkpt lat="48.31562" lon="-1.47933"><ele>90.46</ele></trkpt><trkpt lat="48.31569" lon="-1.47929"><ele>90.45</ele></trkpt><trkpt lat="48.31576" lon="-1.47925"><ele>90.43</ele></trkpt><trkpt lat="48.31587" lon="-1.47918"><ele>90.47</ele></trkpt><trkpt lat="48.31591" lon="-1.47916"><ele>90.47</ele></trkpt><trkpt lat="48.31596" lon="-1.47913"><ele>90.47</ele></trkpt><trkpt lat="48.31601" lon="-1.47911"><ele>90.42</ele></trkpt><trkpt lat="48.31606" lon="-1.47909"><ele>90.35</ele></trkpt><trkpt lat="48.31614" lon="-1.47907"><ele>90.19</ele></trkpt><trkpt lat="48.31625" lon="-1.47903"><ele>89.94</ele></trkpt><trkpt lat="48.31624" lon="-1.47889"><ele>90.41</ele></trkpt><trkpt lat="48.31622" lon="-1.47869"><ele>90.88</ele></trkpt><trkpt lat="48.3162" lon="-1.47848"><ele>91.19</ele></trkpt><trkpt lat="48.31617" lon="-1.47819"><ele>91.79</ele></trkpt><trkpt lat="48.31615" lon="-1.47791"><ele>92.38</ele></trkpt><trkpt lat="48.31612" lon="-1.4776"><ele>92.84</ele></trkpt><trkpt lat="48.3161" lon="-1.4773"><ele>93.28</ele></trkpt><trkpt lat="48.31608" lon="-1.4771"><ele>93.5</ele></trkpt><trkpt lat="48.31605" lon="-1.47675"><ele>93.79</ele></trkpt><trkpt lat="48.31604" lon="-1.47665"><ele>93.91</ele></trkpt><trkpt lat="48.31603" lon="-1.47657"><ele>93.9</ele></trkpt><trkpt lat="48.31601" lon="-1.47639"><ele>93.94</ele></trkpt><trkpt lat="48.31597" lon="-1.476"><ele>93.84</ele></trkpt><trkpt lat="48.31596" lon="-1.47584"><ele>93.8</ele></trkpt><trkpt lat="48.31594" lon="-1.47562"><ele>93.66</ele></trkpt><trkpt lat="48.31592" lon="-1.4754"><ele>93.49</ele></trkpt><trkpt lat="48.3159" lon="-1.47514"><ele>93.29</ele></trkpt><trkpt lat="48.31587" lon="-1.47487"><ele>93.15</ele></trkpt><trkpt lat="48.31584" lon="-1.47458"><ele>93.13</ele></trkpt><trkpt lat="48.31581" lon="-1.4743"><ele>93.01</ele></trkpt><trkpt lat="48.31579" lon="-1.47403"><ele>92.92</ele></trkpt><trkpt lat="48.31575" lon="-1.4737"><ele>92.45</ele></trkpt><trkpt lat="48.31571" lon="-1.47343"><ele>92.14</ele></trkpt><trkpt lat="48.31568" lon="-1.47316"><ele>91.72</ele></trkpt><trkpt lat="48.31565" lon="-1.47291"><ele>91.42</ele></trkpt><trkpt lat="48.31562" lon="-1.47266"><ele>90.98</ele></trkpt><trkpt lat="48.31562" lon="-1.4726"><ele>90.92</ele></trkpt><trkpt lat="48.31559" lon="-1.47245"><ele>90.66</ele></trkpt><trkpt lat="48.31556" lon="-1.47223"><ele>90.45</ele></trkpt><trkpt lat="48.31553" lon="-1.47197"><ele>90.13</ele></trkpt><trkpt lat="48.31547" lon="-1.47147"><ele>89.36</ele></trkpt><trkpt lat="48.31543" lon="-1.47109"><ele>88.98</ele></trkpt><trkpt lat="48.31539" lon="-1.47076"><ele>88.73</ele></trkpt><trkpt lat="48.31537" lon="-1.47068"><ele>88.57</ele></trkpt><trkpt lat="48.31535" lon="-1.47064"><ele>88.55</ele></trkpt><trkpt lat="48.31529" lon="-1.47053"><ele>88.39</ele></trkpt><trkpt lat="48.31524" lon="-1.47054"><ele>88.31</ele></trkpt><trkpt lat="48.31524" lon="-1.47052"><ele>88.27</ele></trkpt><trkpt lat="48.31523" lon="-1.47041"><ele>88.22</ele></trkpt><trkpt lat="48.31521" lon="-1.47031"><ele>88.02</ele></trkpt><trkpt lat="48.31515" lon="-1.47009"><ele>87.88</ele></trkpt><trkpt lat="48.3151" lon="-1.46989"><ele>87.67</ele></trkpt><trkpt lat="48.31503" lon="-1.46968"><ele>87.46</ele></trkpt><trkpt lat="48.31497" lon="-1.46948"><ele>87.39</ele></trkpt><trkpt lat="48.31492" lon="-1.4693"><ele>87.23</ele></trkpt><trkpt lat="48.31487" lon="-1.46912"><ele>87.01</ele></trkpt><trkpt lat="48.31485" lon="-1.46904"><ele>87.06</ele></trkpt><trkpt lat="48.31485" lon="-1.46902"><ele>87</ele></trkpt><trkpt lat="48.31482" lon="-1.46892"><ele>86.82</ele></trkpt><trkpt lat="48.3148" lon="-1.46882"><ele>86.86</ele></trkpt><trkpt lat="48.31479" lon="-1.46872"><ele>86.82</ele></trkpt><trkpt lat="48.31477" lon="-1.46858"><ele>86.85</ele></trkpt><trkpt lat="48.31476" lon="-1.46849"><ele>86.92</ele></trkpt><trkpt lat="48.31474" lon="-1.46832"><ele>86.96</ele></trkpt><trkpt lat="48.31472" lon="-1.46815"><ele>87.13</ele></trkpt><trkpt lat="48.3147" lon="-1.46798"><ele>87.3</ele></trkpt><trkpt lat="48.31467" lon="-1.46776"><ele>87.43</ele></trkpt><trkpt lat="48.31465" lon="-1.46754"><ele>87.51</ele></trkpt><trkpt lat="48.31462" lon="-1.46725"><ele>87.84</ele></trkpt><trkpt lat="48.31459" lon="-1.46696"><ele>88.13</ele></trkpt><trkpt lat="48.31456" lon="-1.46674"><ele>88.29</ele></trkpt><trkpt lat="48.31451" lon="-1.46629"><ele>88.56</ele></trkpt><trkpt lat="48.31447" lon="-1.46592"><ele>88.75</ele></trkpt><trkpt lat="48.31443" lon="-1.46555"><ele>88.91</ele></trkpt><trkpt lat="48.3144" lon="-1.46529"><ele>89</ele></trkpt><trkpt lat="48.31439" lon="-1.46514"><ele>88.98</ele></trkpt><trkpt lat="48.31437" lon="-1.465"><ele>89.15</ele></trkpt><trkpt lat="48.31437" lon="-1.46491"><ele>89.18</ele></trkpt><trkpt lat="48.31437" lon="-1.46482"><ele>89.16</ele></trkpt><trkpt lat="48.31438" lon="-1.46469"><ele>89.21</ele></trkpt><trkpt lat="48.31439" lon="-1.46454"><ele>89.31</ele></trkpt><trkpt lat="48.3144" lon="-1.46435"><ele>89.26</ele></trkpt><trkpt lat="48.31441" lon="-1.46424"><ele>89.27</ele></trkpt><trkpt lat="48.31443" lon="-1.46403"><ele>89.27</ele></trkpt><trkpt lat="48.31445" lon="-1.46389"><ele>89.04</ele></trkpt><trkpt lat="48.31446" lon="-1.46375"><ele>88.87</ele></trkpt><trkpt lat="48.31448" lon="-1.46361"><ele>88.75</ele></trkpt><trkpt lat="48.31449" lon="-1.46348"><ele>88.48</ele></trkpt><trkpt lat="48.3145" lon="-1.46339"><ele>88.24</ele></trkpt><trkpt lat="48.31451" lon="-1.46331"><ele>87.96</ele></trkpt><trkpt lat="48.31452" lon="-1.46321"><ele>87.71</ele></trkpt><trkpt lat="48.31453" lon="-1.46307"><ele>87.26</ele></trkpt><trkpt lat="48.31455" lon="-1.46292"><ele>86.44</ele></trkpt><trkpt lat="48.31455" lon="-1.46285"><ele>86.12</ele></trkpt><trkpt lat="48.31456" lon="-1.46274"><ele>85.85</ele></trkpt><trkpt lat="48.31457" lon="-1.46262"><ele>85.32</ele></trkpt><trkpt lat="48.31457" lon="-1.46251"><ele>84.83</ele></trkpt><trkpt lat="48.31457" lon="-1.46242"><ele>84.54</ele></trkpt><trkpt lat="48.31457" lon="-1.46233"><ele>84.29</ele></trkpt><trkpt lat="48.31457" lon="-1.46221"><ele>83.95</ele></trkpt><trkpt lat="48.31456" lon="-1.4621"><ele>83.75</ele></trkpt><trkpt lat="48.31456" lon="-1.46197"><ele>83.3</ele></trkpt><trkpt lat="48.31455" lon="-1.46179"><ele>82.68</ele></trkpt><trkpt lat="48.31453" lon="-1.4616"><ele>82.14</ele></trkpt><trkpt lat="48.31452" lon="-1.46137"><ele>81.87</ele></trkpt><trkpt lat="48.31451" lon="-1.46119"><ele>81.36</ele></trkpt><trkpt lat="48.3145" lon="-1.461"><ele>80.95</ele></trkpt><trkpt lat="48.3145" lon="-1.46087"><ele>80.72</ele></trkpt><trkpt lat="48.3145" lon="-1.46068"><ele>80.46</ele></trkpt><trkpt lat="48.31449" lon="-1.46055"><ele>80.27</ele></trkpt><trkpt lat="48.3145" lon="-1.4605"><ele>80.21</ele></trkpt><trkpt lat="48.3145" lon="-1.46046"><ele>80.16</ele></trkpt><trkpt lat="48.3145" lon="-1.46028"><ele>79.96</ele></trkpt><trkpt lat="48.31451" lon="-1.46009"><ele>79.87</ele></trkpt><trkpt lat="48.31452" lon="-1.45998"><ele>79.78</ele></trkpt><trkpt lat="48.31452" lon="-1.45991"><ele>79.82</ele></trkpt><trkpt lat="48.31453" lon="-1.45974"><ele>79.79</ele></trkpt><trkpt lat="48.31453" lon="-1.45957"><ele>79.78</ele></trkpt><trkpt lat="48.31455" lon="-1.4589"><ele>79.94</ele></trkpt><trkpt lat="48.31457" lon="-1.45822"><ele>80.7</ele></trkpt><trkpt lat="48.31458" lon="-1.45795"><ele>81.07</ele></trkpt><trkpt lat="48.31472" lon="-1.45793"><ele>81.18</ele></trkpt><trkpt lat="48.31478" lon="-1.45791"><ele>81.03</ele></trkpt><trkpt lat="48.31483" lon="-1.4579"><ele>81.04</ele></trkpt><trkpt lat="48.31489" lon="-1.4579"><ele>81.06</ele></trkpt><trkpt lat="48.31496" lon="-1.45789"><ele>81.04</ele></trkpt><trkpt lat="48.31502" lon="-1.45788"><ele>81.01</ele></trkpt><trkpt lat="48.31509" lon="-1.45788"><ele>80.96</ele></trkpt><trkpt lat="48.31515" lon="-1.45788"><ele>80.96</ele></trkpt><trkpt lat="48.31523" lon="-1.45787"><ele>80.99</ele></trkpt><trkpt lat="48.31529" lon="-1.45787"><ele>80.97</ele></trkpt><trkpt lat="48.31535" lon="-1.45786"><ele>80.96</ele></trkpt><trkpt lat="48.31539" lon="-1.45784"><ele>81.02</ele></trkpt><trkpt lat="48.31543" lon="-1.45782"><ele>80.96</ele></trkpt><trkpt lat="48.31545" lon="-1.45778"><ele>80.99</ele></trkpt><trkpt lat="48.31547" lon="-1.45774"><ele>81.14</ele></trkpt><trkpt lat="48.31548" lon="-1.45771"><ele>81.14</ele></trkpt><trkpt lat="48.31548" lon="-1.45762"><ele>81.18</ele></trkpt><trkpt lat="48.31548" lon="-1.45735"><ele>81.73</ele></trkpt><trkpt lat="48.31548" lon="-1.45729"><ele>81.8</ele></trkpt><trkpt lat="48.31548" lon="-1.45722"><ele>81.94</ele></trkpt><trkpt lat="48.31548" lon="-1.45717"><ele>82.07</ele></trkpt><trkpt lat="48.31547" lon="-1.45712"><ele>82.25</ele></trkpt><trkpt lat="48.31546" lon="-1.45706"><ele>82.87</ele></trkpt><trkpt lat="48.31545" lon="-1.457"><ele>83.01</ele></trkpt><trkpt lat="48.31544" lon="-1.45695"><ele>83.2</ele></trkpt><trkpt lat="48.31543" lon="-1.45688"><ele>83.66</ele></trkpt><trkpt lat="48.31542" lon="-1.45676"><ele>83.75</ele></trkpt><trkpt lat="48.31542" lon="-1.4567"><ele>83.81</ele></trkpt><trkpt lat="48.31541" lon="-1.45662"><ele>83.95</ele></trkpt><trkpt lat="48.31541" lon="-1.45655"><ele>84.07</ele></trkpt><trkpt lat="48.31541" lon="-1.45647"><ele>84.27</ele></trkpt><trkpt lat="48.31541" lon="-1.45641"><ele>84.47</ele></trkpt><trkpt lat="48.31541" lon="-1.45634"><ele>84.53</ele></trkpt><trkpt lat="48.31542" lon="-1.45627"><ele>84.63</ele></trkpt><trkpt lat="48.31542" lon="-1.4562"><ele>85.02</ele></trkpt><trkpt lat="48.31543" lon="-1.45613"><ele>84.98</ele></trkpt><trkpt lat="48.31542" lon="-1.45607"><ele>85.22</ele></trkpt><trkpt lat="48.31544" lon="-1.45598"><ele>85.31</ele></trkpt><trkpt lat="48.31547" lon="-1.4557"><ele>86.17</ele></trkpt><trkpt lat="48.3155" lon="-1.45543"><ele>86.57</ele></trkpt><trkpt lat="48.31551" lon="-1.45522"><ele>86.99</ele></trkpt><trkpt lat="48.31551" lon="-1.45512"><ele>87.02</ele></trkpt><trkpt lat="48.31548" lon="-1.45508"><ele>87.08</ele></trkpt><trkpt lat="48.31542" lon="-1.45504"><ele>87.79</ele></trkpt><trkpt lat="48.31529" lon="-1.45501"><ele>87.73</ele></trkpt><trkpt lat="48.31522" lon="-1.455"><ele>88</ele></trkpt><trkpt lat="48.31521" lon="-1.45499"><ele>88</ele></trkpt><trkpt lat="48.31519" lon="-1.45496"><ele>88</ele></trkpt><trkpt lat="48.31513" lon="-1.45491"><ele>88.3</ele></trkpt><trkpt lat="48.31514" lon="-1.45487"><ele>88.39</ele></trkpt><trkpt lat="48.31515" lon="-1.45483"><ele>88.5</ele></trkpt><trkpt lat="48.31515" lon="-1.45477"><ele>88.62</ele></trkpt><trkpt lat="48.31516" lon="-1.45471"><ele>88.68</ele></trkpt><trkpt lat="48.31516" lon="-1.45464"><ele>88.91</ele></trkpt><trkpt lat="48.31516" lon="-1.45457"><ele>89.16</ele></trkpt><trkpt lat="48.31516" lon="-1.45448"><ele>89.42</ele></trkpt><trkpt lat="48.31515" lon="-1.45441"><ele>89.55</ele></trkpt><trkpt lat="48.31515" lon="-1.45433"><ele>89.77</ele></trkpt><trkpt lat="48.31513" lon="-1.45423"><ele>90.05</ele></trkpt><trkpt lat="48.31512" lon="-1.45413"><ele>90.41</ele></trkpt><trkpt lat="48.31511" lon="-1.45402"><ele>90.5</ele></trkpt><trkpt lat="48.31509" lon="-1.4539"><ele>90.64</ele></trkpt><trkpt lat="48.31507" lon="-1.45374"><ele>90.55</ele></trkpt><trkpt lat="48.31504" lon="-1.45357"><ele>90.32</ele></trkpt><trkpt lat="48.31491" lon="-1.45296"><ele>89.59</ele></trkpt><trkpt lat="48.31488" lon="-1.4528"><ele>89.41</ele></trkpt><trkpt lat="48.31486" lon="-1.45271"><ele>89.32</ele></trkpt><trkpt lat="48.31486" lon="-1.45268"><ele>89.28</ele></trkpt><trkpt lat="48.31485" lon="-1.45262"><ele>89.23</ele></trkpt><trkpt lat="48.31484" lon="-1.45253"><ele>89.14</ele></trkpt><trkpt lat="48.31483" lon="-1.45245"><ele>89.16</ele></trkpt><trkpt lat="48.31483" lon="-1.45236"><ele>89.08</ele></trkpt><trkpt lat="48.31483" lon="-1.45227"><ele>89.11</ele></trkpt><trkpt lat="48.31482" lon="-1.45218"><ele>88.97</ele></trkpt><trkpt lat="48.31482" lon="-1.45208"><ele>88.9</ele></trkpt><trkpt lat="48.31482" lon="-1.452"><ele>88.88</ele></trkpt><trkpt lat="48.31481" lon="-1.45192"><ele>88.85</ele></trkpt><trkpt lat="48.3148" lon="-1.45186"><ele>88.83</ele></trkpt><trkpt lat="48.31479" lon="-1.45179"><ele>88.81</ele></trkpt><trkpt lat="48.31478" lon="-1.45173"><ele>88.94</ele></trkpt><trkpt lat="48.31477" lon="-1.45168"><ele>88.85</ele></trkpt><trkpt lat="48.31476" lon="-1.45163"><ele>88.74</ele></trkpt><trkpt lat="48.31474" lon="-1.45158"><ele>88.68</ele></trkpt><trkpt lat="48.31471" lon="-1.45153"><ele>88.77</ele></trkpt><trkpt lat="48.31478" lon="-1.45144"><ele>88.49</ele></trkpt><trkpt lat="48.31486" lon="-1.45131"><ele>88.01</ele></trkpt><trkpt lat="48.3151" lon="-1.45098"><ele>86.35</ele></trkpt><trkpt lat="48.3152" lon="-1.45084"><ele>85.54</ele></trkpt><trkpt lat="48.31529" lon="-1.4507"><ele>84.53</ele></trkpt><trkpt lat="48.31538" lon="-1.45055"><ele>83.51</ele></trkpt><trkpt lat="48.31553" lon="-1.45035"><ele>81.63</ele></trkpt><trkpt lat="48.31603" lon="-1.44966"><ele>76.32</ele></trkpt><trkpt lat="48.31613" lon="-1.44953"><ele>75.64</ele></trkpt><trkpt lat="48.31619" lon="-1.44946"><ele>75.36</ele></trkpt><trkpt lat="48.31623" lon="-1.44941"><ele>75.07</ele></trkpt><trkpt lat="48.31627" lon="-1.44937"><ele>74.7</ele></trkpt><trkpt lat="48.31631" lon="-1.44933"><ele>74.34</ele></trkpt><trkpt lat="48.31635" lon="-1.4493"><ele>74.01</ele></trkpt><trkpt lat="48.31639" lon="-1.44928"><ele>73.64</ele></trkpt><trkpt lat="48.31643" lon="-1.44927"><ele>73.33</ele></trkpt><trkpt lat="48.31649" lon="-1.44926"><ele>73.1</ele></trkpt><trkpt lat="48.31653" lon="-1.44925"><ele>72.81</ele></trkpt><trkpt lat="48.31658" lon="-1.44924"><ele>72.59</ele></trkpt><trkpt lat="48.31663" lon="-1.44923"><ele>72.21</ele></trkpt><trkpt lat="48.31667" lon="-1.44923"><ele>71.98</ele></trkpt><trkpt lat="48.31671" lon="-1.44922"><ele>71.98</ele></trkpt><trkpt lat="48.31674" lon="-1.44921"><ele>71.75</ele></trkpt><trkpt lat="48.31677" lon="-1.4492"><ele>71.52</ele></trkpt><trkpt lat="48.3168" lon="-1.44918"><ele>71.36</ele></trkpt><trkpt lat="48.31682" lon="-1.44914"><ele>71.28</ele></trkpt><trkpt lat="48.31683" lon="-1.44913"><ele>71.28</ele></trkpt><trkpt lat="48.31684" lon="-1.44911"><ele>71.27</ele></trkpt><trkpt lat="48.31686" lon="-1.44907"><ele>70.72</ele></trkpt><trkpt lat="48.31687" lon="-1.44901"><ele>70.57</ele></trkpt><trkpt lat="48.31688" lon="-1.44895"><ele>70.31</ele></trkpt><trkpt lat="48.31688" lon="-1.44888"><ele>70.15</ele></trkpt><trkpt lat="48.31688" lon="-1.44882"><ele>69.84</ele></trkpt><trkpt lat="48.31689" lon="-1.44858"><ele>68.59</ele></trkpt><trkpt lat="48.31689" lon="-1.44848"><ele>68.17</ele></trkpt><trkpt lat="48.31689" lon="-1.44839"><ele>67.36</ele></trkpt><trkpt lat="48.31682" lon="-1.44837"><ele>67.65</ele></trkpt><trkpt lat="48.31677" lon="-1.44837"><ele>68.02</ele></trkpt><trkpt lat="48.31675" lon="-1.44835"><ele>68.59</ele></trkpt><trkpt lat="48.31672" lon="-1.44833"><ele>67.62</ele></trkpt><trkpt lat="48.3167" lon="-1.4483"><ele>67.53</ele></trkpt><trkpt lat="48.31668" lon="-1.44826"><ele>67.41</ele></trkpt><trkpt lat="48.31667" lon="-1.44822"><ele>67.42</ele></trkpt><trkpt lat="48.31666" lon="-1.44815"><ele>67.53</ele></trkpt><trkpt lat="48.31665" lon="-1.44807"><ele>66.86</ele></trkpt><trkpt lat="48.31664" lon="-1.448"><ele>66.32</ele></trkpt><trkpt lat="48.31664" lon="-1.44792"><ele>66.06</ele></trkpt><trkpt lat="48.31663" lon="-1.44784"><ele>65.79</ele></trkpt><trkpt lat="48.31662" lon="-1.44761"><ele>64.51</ele></trkpt><trkpt lat="48.31662" lon="-1.44755"><ele>64.23</ele></trkpt><trkpt lat="48.31662" lon="-1.4475"><ele>64.04</ele></trkpt><trkpt lat="48.31663" lon="-1.44746"><ele>63.84</ele></trkpt><trkpt lat="48.31665" lon="-1.4474"><ele>63.19</ele></trkpt><trkpt lat="48.3168" lon="-1.44702"><ele>61.88</ele></trkpt><trkpt lat="48.31682" lon="-1.44696"><ele>62.16</ele></trkpt><trkpt lat="48.31684" lon="-1.44691"><ele>62.42</ele></trkpt><trkpt lat="48.31685" lon="-1.44686"><ele>62.21</ele></trkpt><trkpt lat="48.31686" lon="-1.44681"><ele>62.47</ele></trkpt><trkpt lat="48.31686" lon="-1.44675"><ele>62.9</ele></trkpt><trkpt lat="48.31686" lon="-1.44669"><ele>63.1</ele></trkpt><trkpt lat="48.31686" lon="-1.44661"><ele>63.37</ele></trkpt><trkpt lat="48.31685" lon="-1.44653"><ele>63.35</ele></trkpt><trkpt lat="48.31684" lon="-1.44648"><ele>64.15</ele></trkpt><trkpt lat="48.31684" lon="-1.44641"><ele>64.12</ele></trkpt><trkpt lat="48.31683" lon="-1.44633"><ele>64.16</ele></trkpt><trkpt lat="48.31681" lon="-1.44626"><ele>64.25</ele></trkpt><trkpt lat="48.3168" lon="-1.44619"><ele>64.42</ele></trkpt><trkpt lat="48.31677" lon="-1.44608"><ele>64.94</ele></trkpt><trkpt lat="48.31675" lon="-1.44598"><ele>66.06</ele></trkpt><trkpt lat="48.31674" lon="-1.44591"><ele>65.71</ele></trkpt><trkpt lat="48.31672" lon="-1.44584"><ele>65.65</ele></trkpt><trkpt lat="48.31667" lon="-1.4457"><ele>66.46</ele></trkpt><trkpt lat="48.31664" lon="-1.44561"><ele>67.18</ele></trkpt><trkpt lat="48.31662" lon="-1.44554"><ele>68.09</ele></trkpt><trkpt lat="48.3166" lon="-1.44548"><ele>67.69</ele></trkpt><trkpt lat="48.31659" lon="-1.4454"><ele>67.45</ele></trkpt><trkpt lat="48.31657" lon="-1.44533"><ele>68.11</ele></trkpt><trkpt lat="48.31656" lon="-1.44526"><ele>68.05</ele></trkpt><trkpt lat="48.31655" lon="-1.44519"><ele>68.11</ele></trkpt><trkpt lat="48.31654" lon="-1.4451"><ele>69</ele></trkpt><trkpt lat="48.31653" lon="-1.44502"><ele>69.15</ele></trkpt><trkpt lat="48.31652" lon="-1.44493"><ele>69.23</ele></trkpt><trkpt lat="48.31651" lon="-1.44484"><ele>69.52</ele></trkpt><trkpt lat="48.31651" lon="-1.44479"><ele>69.69</ele></trkpt><trkpt lat="48.31648" lon="-1.44455"><ele>70.87</ele></trkpt><trkpt lat="48.31636" lon="-1.44423"><ele>72.52</ele></trkpt><trkpt lat="48.31639" lon="-1.44417"><ele>72.56</ele></trkpt><trkpt lat="48.31643" lon="-1.44398"><ele>74.12</ele></trkpt><trkpt lat="48.31642" lon="-1.44397"><ele>74.84</ele></trkpt><trkpt lat="48.31638" lon="-1.44396"><ele>75.76</ele></trkpt><trkpt lat="48.31633" lon="-1.44395"><ele>76.64</ele></trkpt><trkpt lat="48.31627" lon="-1.44393"><ele>77.99</ele></trkpt><trkpt lat="48.31622" lon="-1.44391"><ele>78.62</ele></trkpt><trkpt lat="48.31618" lon="-1.44386"><ele>79.12</ele></trkpt><trkpt lat="48.31615" lon="-1.4438"><ele>80.11</ele></trkpt><trkpt lat="48.31611" lon="-1.44374"><ele>80.53</ele></trkpt><trkpt lat="48.31606" lon="-1.44364"><ele>81.32</ele></trkpt><trkpt lat="48.31603" lon="-1.44358"><ele>82.46</ele></trkpt><trkpt lat="48.31602" lon="-1.44349"><ele>82.95</ele></trkpt><trkpt lat="48.316" lon="-1.44341"><ele>83.6</ele></trkpt><trkpt lat="48.31596" lon="-1.44328"><ele>83.68</ele></trkpt><trkpt lat="48.31595" lon="-1.44314"><ele>83.86</ele></trkpt><trkpt lat="48.31595" lon="-1.44305"><ele>83.85</ele></trkpt><trkpt lat="48.31594" lon="-1.44297"><ele>83.79</ele></trkpt><trkpt lat="48.31594" lon="-1.44287"><ele>83.62</ele></trkpt><trkpt lat="48.31592" lon="-1.44279"><ele>83.41</ele></trkpt><trkpt lat="48.3159" lon="-1.44269"><ele>82.54</ele></trkpt><trkpt lat="48.3159" lon="-1.44264"><ele>80.84</ele></trkpt><trkpt lat="48.3159" lon="-1.44256"><ele>80.13</ele></trkpt><trkpt lat="48.31588" lon="-1.4425"><ele>82.05</ele></trkpt><trkpt lat="48.31587" lon="-1.44244"><ele>82.07</ele></trkpt><trkpt lat="48.31587" lon="-1.44239"><ele>82.29</ele></trkpt><trkpt lat="48.31588" lon="-1.44233"><ele>82.93</ele></trkpt><trkpt lat="48.3159" lon="-1.44229"><ele>81.59</ele></trkpt><trkpt lat="48.3159" lon="-1.44226"><ele>81.59</ele></trkpt><trkpt lat="48.3159" lon="-1.4422"><ele>81.98</ele></trkpt><trkpt lat="48.31589" lon="-1.44217"><ele>82.91</ele></trkpt><trkpt lat="48.31589" lon="-1.44215"><ele>82.91</ele></trkpt><trkpt lat="48.31588" lon="-1.44212"><ele>82.18</ele></trkpt><trkpt lat="48.31587" lon="-1.44208"><ele>81.24</ele></trkpt><trkpt lat="48.31583" lon="-1.44204"><ele>81.87</ele></trkpt><trkpt lat="48.31581" lon="-1.442"><ele>83.03</ele></trkpt><trkpt lat="48.31576" lon="-1.44193"><ele>81.68</ele></trkpt><trkpt lat="48.31572" lon="-1.44188"><ele>81.51</ele></trkpt><trkpt lat="48.3157" lon="-1.44187"><ele>81.51</ele></trkpt><trkpt lat="48.31567" lon="-1.44186"><ele>82.02</ele></trkpt><trkpt lat="48.31564" lon="-1.44185"><ele>82.02</ele></trkpt><trkpt lat="48.31561" lon="-1.44184"><ele>83.93</ele></trkpt><trkpt lat="48.31559" lon="-1.44182"><ele>85</ele></trkpt><trkpt lat="48.31557" lon="-1.44174"><ele>83.15</ele></trkpt><trkpt lat="48.31555" lon="-1.44168"><ele>84.26</ele></trkpt><trkpt lat="48.31552" lon="-1.44164"><ele>83.8</ele></trkpt><trkpt lat="48.31551" lon="-1.4416"><ele>85.77</ele></trkpt><trkpt lat="48.3155" lon="-1.4416"><ele>85.77</ele></trkpt><trkpt lat="48.31547" lon="-1.4416"><ele>85.77</ele></trkpt><trkpt lat="48.31545" lon="-1.44161"><ele>87.19</ele></trkpt><trkpt lat="48.31541" lon="-1.44162"><ele>88.15</ele></trkpt><trkpt lat="48.31539" lon="-1.4416"><ele>87.96</ele></trkpt><trkpt lat="48.31537" lon="-1.44156"><ele>88.19</ele></trkpt><trkpt lat="48.31532" lon="-1.44149"><ele>88.42</ele></trkpt><trkpt lat="48.31526" lon="-1.44141"><ele>88.45</ele></trkpt><trkpt lat="48.31517" lon="-1.44134"><ele>89.09</ele></trkpt><trkpt lat="48.31513" lon="-1.4413"><ele>89.42</ele></trkpt><trkpt lat="48.31506" lon="-1.44122"><ele>90.34</ele></trkpt><trkpt lat="48.31499" lon="-1.44115"><ele>91.48</ele></trkpt><trkpt lat="48.31495" lon="-1.44113"><ele>91.55</ele></trkpt><trkpt lat="48.3149" lon="-1.44114"><ele>91.69</ele></trkpt><trkpt lat="48.31481" lon="-1.44113"><ele>91.84</ele></trkpt><trkpt lat="48.31471" lon="-1.44112"><ele>92.04</ele></trkpt><trkpt lat="48.31467" lon="-1.4411"><ele>92.02</ele></trkpt><trkpt lat="48.31348" lon="-1.44045"><ele>80.8</ele></trkpt><trkpt lat="48.31346" lon="-1.44041"><ele>80.38</ele></trkpt><trkpt lat="48.31344" lon="-1.4404"><ele>79.94</ele></trkpt><trkpt lat="48.31343" lon="-1.44038"><ele>79.94</ele></trkpt><trkpt lat="48.3134" lon="-1.44029"><ele>79.37</ele></trkpt><trkpt lat="48.31337" lon="-1.44022"><ele>78.04</ele></trkpt><trkpt lat="48.31332" lon="-1.44009"><ele>80.34</ele></trkpt><trkpt lat="48.31327" lon="-1.43994"><ele>80.23</ele></trkpt><trkpt lat="48.31325" lon="-1.43986"><ele>78.61</ele></trkpt><trkpt lat="48.31324" lon="-1.43981"><ele>77.77</ele></trkpt><trkpt lat="48.31323" lon="-1.43977"><ele>79.61</ele></trkpt><trkpt lat="48.31323" lon="-1.43967"><ele>78.42</ele></trkpt><trkpt lat="48.31322" lon="-1.4396"><ele>77.79</ele></trkpt><trkpt lat="48.31321" lon="-1.43944"><ele>75.49</ele></trkpt><trkpt lat="48.31322" lon="-1.43925"><ele>74.44</ele></trkpt><trkpt lat="48.31321" lon="-1.43913"><ele>75.11</ele></trkpt><trkpt lat="48.31321" lon="-1.43907"><ele>75.79</ele></trkpt><trkpt lat="48.31321" lon="-1.43897"><ele>76.56</ele></trkpt><trkpt lat="48.31321" lon="-1.4389"><ele>77.72</ele></trkpt><trkpt lat="48.31321" lon="-1.43885"><ele>77.64</ele></trkpt><trkpt lat="48.31322" lon="-1.4388"><ele>77.52</ele></trkpt><trkpt lat="48.31321" lon="-1.43876"><ele>77.09</ele></trkpt><trkpt lat="48.31319" lon="-1.43873"><ele>77.61</ele></trkpt><trkpt lat="48.31316" lon="-1.4387"><ele>77.61</ele></trkpt><trkpt lat="48.31313" lon="-1.43864"><ele>78.27</ele></trkpt><trkpt lat="48.3131" lon="-1.43856"><ele>79.52</ele></trkpt><trkpt lat="48.31307" lon="-1.43846"><ele>78.52</ele></trkpt><trkpt lat="48.31306" lon="-1.43838"><ele>80.36</ele></trkpt><trkpt lat="48.31303" lon="-1.43833"><ele>80.11</ele></trkpt><trkpt lat="48.31302" lon="-1.43823"><ele>81.47</ele></trkpt><trkpt lat="48.313" lon="-1.43811"><ele>80.65</ele></trkpt><trkpt lat="48.31298" lon="-1.438"><ele>79.4</ele></trkpt><trkpt lat="48.31295" lon="-1.43792"><ele>81.1</ele></trkpt><trkpt lat="48.31293" lon="-1.43786"><ele>82.15</ele></trkpt><trkpt lat="48.31292" lon="-1.4378"><ele>81.9</ele></trkpt><trkpt lat="48.31293" lon="-1.43778"><ele>81.71</ele></trkpt><trkpt lat="48.31294" lon="-1.43775"><ele>80.05</ele></trkpt><trkpt lat="48.31295" lon="-1.43773"><ele>79.92</ele></trkpt><trkpt lat="48.31294" lon="-1.43767"><ele>80.02</ele></trkpt><trkpt lat="48.31293" lon="-1.43759"><ele>81.43</ele></trkpt><trkpt lat="48.31293" lon="-1.43751"><ele>82.1</ele></trkpt><trkpt lat="48.31295" lon="-1.43741"><ele>80.19</ele></trkpt><trkpt lat="48.31297" lon="-1.43734"><ele>80.91</ele></trkpt><trkpt lat="48.31298" lon="-1.43727"><ele>79.19</ele></trkpt><trkpt lat="48.31299" lon="-1.43723"><ele>79.66</ele></trkpt><trkpt lat="48.31299" lon="-1.43719"><ele>79.87</ele></trkpt><trkpt lat="48.31298" lon="-1.43715"><ele>79.87</ele></trkpt><trkpt lat="48.31297" lon="-1.4371"><ele>82.02</ele></trkpt><trkpt lat="48.31297" lon="-1.43703"><ele>81.66</ele></trkpt><trkpt lat="48.31297" lon="-1.43696"><ele>81.12</ele></trkpt><trkpt lat="48.31297" lon="-1.43692"><ele>81.24</ele></trkpt><trkpt lat="48.31296" lon="-1.43686"><ele>81.25</ele></trkpt><trkpt lat="48.31296" lon="-1.43677"><ele>80.44</ele></trkpt><trkpt lat="48.31296" lon="-1.43673"><ele>79.87</ele></trkpt><trkpt lat="48.31295" lon="-1.43666"><ele>78.37</ele></trkpt><trkpt lat="48.31293" lon="-1.43659"><ele>79.01</ele></trkpt><trkpt lat="48.31291" lon="-1.43656"><ele>79.01</ele></trkpt><trkpt lat="48.31291" lon="-1.43651"><ele>78.44</ele></trkpt><trkpt lat="48.31291" lon="-1.43646"><ele>77.88</ele></trkpt><trkpt lat="48.31293" lon="-1.43639"><ele>77.8</ele></trkpt><trkpt lat="48.31294" lon="-1.43631"><ele>75.69</ele></trkpt><trkpt lat="48.31294" lon="-1.43625"><ele>76.21</ele></trkpt><trkpt lat="48.31295" lon="-1.43617"><ele>77.27</ele></trkpt><trkpt lat="48.31297" lon="-1.43612"><ele>77.42</ele></trkpt><trkpt lat="48.31297" lon="-1.43605"><ele>77.61</ele></trkpt><trkpt lat="48.31299" lon="-1.43599"><ele>76.6</ele></trkpt><trkpt lat="48.313" lon="-1.43593"><ele>76.57</ele></trkpt><trkpt lat="48.31299" lon="-1.43587"><ele>76.34</ele></trkpt><trkpt lat="48.31299" lon="-1.4358"><ele>76.07</ele></trkpt><trkpt lat="48.31298" lon="-1.43575"><ele>75.93</ele></trkpt><trkpt lat="48.31296" lon="-1.4357"><ele>76.98</ele></trkpt><trkpt lat="48.31293" lon="-1.43563"><ele>77.22</ele></trkpt><trkpt lat="48.31288" lon="-1.43553"><ele>77.23</ele></trkpt><trkpt lat="48.31284" lon="-1.43545"><ele>77.49</ele></trkpt><trkpt lat="48.31282" lon="-1.43538"><ele>75.95</ele></trkpt><trkpt lat="48.3128" lon="-1.43532"><ele>77.8</ele></trkpt><trkpt lat="48.31281" lon="-1.43528"><ele>74.87</ele></trkpt><trkpt lat="48.31281" lon="-1.43522"><ele>74.61</ele></trkpt><trkpt lat="48.31282" lon="-1.43518"><ele>74.5</ele></trkpt><trkpt lat="48.31282" lon="-1.43511"><ele>75.01</ele></trkpt><trkpt lat="48.31282" lon="-1.43504"><ele>75.61</ele></trkpt><trkpt lat="48.31285" lon="-1.43492"><ele>73.75</ele></trkpt><trkpt lat="48.31286" lon="-1.43485"><ele>74.15</ele></trkpt><trkpt lat="48.31287" lon="-1.43472"><ele>74.67</ele></trkpt><trkpt lat="48.31288" lon="-1.43461"><ele>74.72</ele></trkpt><trkpt lat="48.31289" lon="-1.43456"><ele>74.66</ele></trkpt><trkpt lat="48.31289" lon="-1.43449"><ele>74.79</ele></trkpt><trkpt lat="48.31289" lon="-1.43447"><ele>74.94</ele></trkpt><trkpt lat="48.31288" lon="-1.43444"><ele>74.99</ele></trkpt><trkpt lat="48.31288" lon="-1.43442"><ele>74.99</ele></trkpt><trkpt lat="48.31289" lon="-1.43438"><ele>75.06</ele></trkpt><trkpt lat="48.3129" lon="-1.43434"><ele>73.63</ele></trkpt><trkpt lat="48.31292" lon="-1.43429"><ele>73.73</ele></trkpt><trkpt lat="48.31293" lon="-1.43423"><ele>73.92</ele></trkpt><trkpt lat="48.31294" lon="-1.43414"><ele>71.79</ele></trkpt><trkpt lat="48.31295" lon="-1.43405"><ele>71.65</ele></trkpt><trkpt lat="48.31297" lon="-1.43396"><ele>71.67</ele></trkpt><trkpt lat="48.31297" lon="-1.4339"><ele>71.67</ele></trkpt><trkpt lat="48.31299" lon="-1.43382"><ele>69.58</ele></trkpt><trkpt lat="48.31301" lon="-1.43374"><ele>69.83</ele></trkpt><trkpt lat="48.31303" lon="-1.43366"><ele>68.12</ele></trkpt><trkpt lat="48.31305" lon="-1.4336"><ele>68.34</ele></trkpt><trkpt lat="48.31307" lon="-1.43353"><ele>66.43</ele></trkpt><trkpt lat="48.31308" lon="-1.43348"><ele>66.7</ele></trkpt><trkpt lat="48.31309" lon="-1.43343"><ele>66.98</ele></trkpt><trkpt lat="48.3131" lon="-1.43339"><ele>67.14</ele></trkpt><trkpt lat="48.31312" lon="-1.43334"><ele>65.21</ele></trkpt><trkpt lat="48.31313" lon="-1.43326"><ele>65.53</ele></trkpt><trkpt lat="48.31313" lon="-1.4332"><ele>65.68</ele></trkpt><trkpt lat="48.31315" lon="-1.43315"><ele>65.58</ele></trkpt><trkpt lat="48.31316" lon="-1.43311"><ele>63.49</ele></trkpt><trkpt lat="48.31317" lon="-1.43306"><ele>63.36</ele></trkpt><trkpt lat="48.31317" lon="-1.43302"><ele>63.17</ele></trkpt><trkpt lat="48.31318" lon="-1.43299"><ele>63.17</ele></trkpt><trkpt lat="48.31398" lon="-1.43245"><ele>44.42</ele></trkpt><trkpt lat="48.31398" lon="-1.43237"><ele>44.25</ele></trkpt><trkpt lat="48.31398" lon="-1.43231"><ele>44.08</ele></trkpt><trkpt lat="48.31397" lon="-1.43225"><ele>43.73</ele></trkpt><trkpt lat="48.31396" lon="-1.4322"><ele>44</ele></trkpt><trkpt lat="48.31394" lon="-1.43215"><ele>43.6</ele></trkpt><trkpt lat="48.31392" lon="-1.43209"><ele>44.04</ele></trkpt><trkpt lat="48.3139" lon="-1.43205"><ele>43.36</ele></trkpt><trkpt lat="48.31388" lon="-1.432"><ele>43</ele></trkpt><trkpt lat="48.31385" lon="-1.43196"><ele>42.98</ele></trkpt><trkpt lat="48.31382" lon="-1.43191"><ele>42.58</ele></trkpt><trkpt lat="48.31372" lon="-1.43178"><ele>42.15</ele></trkpt><trkpt lat="48.31368" lon="-1.43174"><ele>42.09</ele></trkpt><trkpt lat="48.31365" lon="-1.43171"><ele>42.37</ele></trkpt><trkpt lat="48.31362" lon="-1.43168"><ele>42.19</ele></trkpt><trkpt lat="48.31359" lon="-1.43165"><ele>41.94</ele></trkpt><trkpt lat="48.31354" lon="-1.43163"><ele>42.12</ele></trkpt><trkpt lat="48.3135" lon="-1.4316"><ele>42.13</ele></trkpt><trkpt lat="48.31344" lon="-1.43157"><ele>42.28</ele></trkpt><trkpt lat="48.31338" lon="-1.43153"><ele>42.46</ele></trkpt><trkpt lat="48.31332" lon="-1.4315"><ele>42.7</ele></trkpt><trkpt lat="48.31327" lon="-1.43147"><ele>42.33</ele></trkpt><trkpt lat="48.31321" lon="-1.43145"><ele>42.5</ele></trkpt><trkpt lat="48.31316" lon="-1.43143"><ele>42.25</ele></trkpt><trkpt lat="48.31311" lon="-1.43143"><ele>42.26</ele></trkpt><trkpt lat="48.31306" lon="-1.43143"><ele>42.36</ele></trkpt><trkpt lat="48.31301" lon="-1.43144"><ele>42.44</ele></trkpt><trkpt lat="48.31297" lon="-1.43144"><ele>42.57</ele></trkpt><trkpt lat="48.31293" lon="-1.43144"><ele>42.67</ele></trkpt><trkpt lat="48.31292" lon="-1.43144"><ele>42.67</ele></trkpt><trkpt lat="48.3129" lon="-1.43144"><ele>42.67</ele></trkpt><trkpt lat="48.31287" lon="-1.43143"><ele>42.79</ele></trkpt><trkpt lat="48.31278" lon="-1.43141"><ele>43.02</ele></trkpt><trkpt lat="48.31273" lon="-1.43141"><ele>43.1</ele></trkpt><trkpt lat="48.31268" lon="-1.43141"><ele>43.17</ele></trkpt><trkpt lat="48.31264" lon="-1.4314"><ele>43.26</ele></trkpt><trkpt lat="48.3126" lon="-1.43139"><ele>43.18</ele></trkpt><trkpt lat="48.31255" lon="-1.43138"><ele>43.33</ele></trkpt><trkpt lat="48.31243" lon="-1.43133"><ele>43.59</ele></trkpt><trkpt lat="48.31207" lon="-1.43116"><ele>45.18</ele></trkpt><trkpt lat="48.31203" lon="-1.43113"><ele>45.32</ele></trkpt><trkpt lat="48.31199" lon="-1.4311"><ele>45.34</ele></trkpt><trkpt lat="48.31193" lon="-1.43117"><ele>45.32</ele></trkpt><trkpt lat="48.31189" lon="-1.43147"><ele>47.18</ele></trkpt><trkpt lat="48.31166" lon="-1.43185"><ele>54.13</ele></trkpt><trkpt lat="48.31144" lon="-1.43209"><ele>54.23</ele></trkpt><trkpt lat="48.31144" lon="-1.43208"><ele>52.47</ele></trkpt><trkpt lat="48.31113" lon="-1.43222"><ele>50.03</ele></trkpt><trkpt lat="48.31082" lon="-1.43227"><ele>51.67</ele></trkpt><trkpt lat="48.31038" lon="-1.43229"><ele>54.34</ele></trkpt><trkpt lat="48.31004" lon="-1.4323"><ele>54.83</ele></trkpt><trkpt lat="48.3097" lon="-1.43243"><ele>57.07</ele></trkpt><trkpt lat="48.3092" lon="-1.43278"><ele>58.92</ele></trkpt><trkpt lat="48.30915" lon="-1.4328"><ele>58.33</ele></trkpt><trkpt lat="48.3091" lon="-1.43281"><ele>57.73</ele></trkpt><trkpt lat="48.30905" lon="-1.43282"><ele>57.18</ele></trkpt><trkpt lat="48.309" lon="-1.43283"><ele>56.62</ele></trkpt><trkpt lat="48.30896" lon="-1.43284"><ele>56.1</ele></trkpt><trkpt lat="48.30889" lon="-1.43285"><ele>55.11</ele></trkpt><trkpt lat="48.30884" lon="-1.43287"><ele>54.82</ele></trkpt><trkpt lat="48.30871" lon="-1.43289"><ele>53.89</ele></trkpt><trkpt lat="48.30869" lon="-1.43279"><ele>53.88</ele></trkpt><trkpt lat="48.30866" lon="-1.4328"><ele>53.75</ele></trkpt><trkpt lat="48.3086" lon="-1.43281"><ele>53.47</ele></trkpt><trkpt lat="48.30853" lon="-1.43282"><ele>53.55</ele></trkpt><trkpt lat="48.30848" lon="-1.43282"><ele>53.54</ele></trkpt><trkpt lat="48.30842" lon="-1.43283"><ele>53.61</ele></trkpt><trkpt lat="48.30835" lon="-1.43282"><ele>53.65</ele></trkpt><trkpt lat="48.30821" lon="-1.43281"><ele>53.75</ele></trkpt><trkpt lat="48.30803" lon="-1.4328"><ele>54.1</ele></trkpt><trkpt lat="48.30724" lon="-1.43273"><ele>55.49</ele></trkpt><trkpt lat="48.30725" lon="-1.43282"><ele>55.81</ele></trkpt><trkpt lat="48.30725" lon="-1.43288"><ele>56.05</ele></trkpt><trkpt lat="48.30725" lon="-1.43293"><ele>56.27</ele></trkpt><trkpt lat="48.30725" lon="-1.43299"><ele>56.66</ele></trkpt><trkpt lat="48.30725" lon="-1.43307"><ele>56.83</ele></trkpt></trkseg></trk></gpx>
