<?xml version="1.0" encoding="UTF-8"?>
<gpx version="1.1" creator="UtagawaVTT - https://www.utagawavtt.com" xmlns="http://www.topografix.com/GPX/1/1" xmlns:xsi="http://www.w3.org/2001/XMLSchema-instance">
  <metadata>
    <time>2025-01-23T16:22:28.688Z</time>
    <bounds minlat="48.227487000" minlon="-1.489299000" maxlat="48.278592000" maxlon="-1.432217000"/>
  </metadata>
  <trk>
    <name>Gosné - Circuit N° 23 - 45746 - UtagawaVTT.com</name>
    <trkseg>
      <trkpt lat="48.247845000" lon="-1.458015000">
        <ele>93.801</ele>
        <time>2020-06-01T07:29:08Z</time>
      </trkpt>
      <trkpt lat="48.247797000" lon="-1.457762000">
        <ele>93.306</ele>
        <time>2020-06-01T07:29:08Z</time>
      </trkpt>
      <trkpt lat="48.247730000" lon="-1.457598000">
        <ele>92.909</ele>
        <time>2020-06-01T07:29:08Z</time>
      </trkpt>
      <trkpt lat="48.247569000" lon="-1.457539000">
        <ele>92.474</ele>
        <time>2020-06-01T07:29:08Z</time>
      </trkpt>
      <trkpt lat="48.247154000" lon="-1.457210000">
        <ele>91.115</ele>
        <time>2020-06-01T07:29:08Z</time>
      </trkpt>
      <trkpt lat="48.246835000" lon="-1.457184000">
        <ele>91.690</ele>
        <time>2020-06-01T07:29:08Z</time>
      </trkpt>
      <trkpt lat="48.246764000" lon="-1.457160000">
        <ele>91.815</ele>
        <time>2020-06-01T07:29:08Z</time>
      </trkpt>
      <trkpt lat="48.246697000" lon="-1.457113000">
        <ele>91.963</ele>
        <time>2020-06-01T07:29:08Z</time>
      </trkpt>
      <trkpt lat="48.246642000" lon="-1.456994000">
        <ele>92.276</ele>
        <time>2020-06-01T07:29:08Z</time>
      </trkpt>
      <trkpt lat="48.246608000" lon="-1.456684000">
        <ele>92.450</ele>
        <time>2020-06-01T07:29:08Z</time>
      </trkpt>
      <trkpt lat="48.246520000" lon="-1.456403000">
        <ele>92.761</ele>
        <time>2020-06-01T07:29:08Z</time>
      </trkpt>
      <trkpt lat="48.246479000" lon="-1.456338000">
        <ele>92.915</ele>
        <time>2020-06-01T07:29:08Z</time>
      </trkpt>
      <trkpt lat="48.246383000" lon="-1.456259000">
        <ele>93.368</ele>
        <time>2020-06-01T07:29:08Z</time>
      </trkpt>
      <trkpt lat="48.246294000" lon="-1.456280000">
        <ele>93.819</ele>
        <time>2020-06-01T07:29:08Z</time>
      </trkpt>
      <trkpt lat="48.246283000" lon="-1.456192000">
        <ele>93.893</ele>
        <time>2020-06-01T07:29:08Z</time>
      </trkpt>
      <trkpt lat="48.246252000" lon="-1.456090000">
        <ele>94.074</ele>
        <time>2020-06-01T07:29:08Z</time>
      </trkpt>
      <trkpt lat="48.246239000" lon="-1.455963000">
        <ele>94.148</ele>
        <time>2020-06-01T07:29:08Z</time>
      </trkpt>
      <trkpt lat="48.246204000" lon="-1.455825000">
        <ele>94.322</ele>
        <time>2020-06-01T07:29:08Z</time>
      </trkpt>
      <trkpt lat="48.246204000" lon="-1.455548000">
        <ele>94.350</ele>
        <time>2020-06-01T07:29:08Z</time>
      </trkpt>
      <trkpt lat="48.246180000" lon="-1.455142000">
        <ele>94.510</ele>
        <time>2020-06-01T07:29:08Z</time>
      </trkpt>
      <trkpt lat="48.246168000" lon="-1.454264000">
        <ele>93.799</ele>
        <time>2020-06-01T07:29:08Z</time>
      </trkpt>
      <trkpt lat="48.246125000" lon="-1.453734000">
        <ele>93.432</ele>
        <time>2020-06-01T07:29:08Z</time>
      </trkpt>
      <trkpt lat="48.245599000" lon="-1.453938000">
        <ele>97.247</ele>
        <time>2020-06-01T07:29:08Z</time>
      </trkpt>
      <trkpt lat="48.244976000" lon="-1.454108000">
        <ele>102.013</ele>
        <time>2020-06-01T07:29:08Z</time>
      </trkpt>
      <trkpt lat="48.243377000" lon="-1.453717000">
        <ele>110.275</ele>
        <time>2020-06-01T07:29:08Z</time>
      </trkpt>
      <trkpt lat="48.242991000" lon="-1.454601000">
        <ele>110.540</ele>
        <time>2020-06-01T07:29:08Z</time>
      </trkpt>
      <trkpt lat="48.242755000" lon="-1.454801000">
        <ele>109.349</ele>
        <time>2020-06-01T07:29:08Z</time>
      </trkpt>
      <trkpt lat="48.242807000" lon="-1.454935000">
        <ele>109.193</ele>
        <time>2020-06-01T07:29:08Z</time>
      </trkpt>
      <trkpt lat="48.242692000" lon="-1.455172000">
        <ele>107.538</ele>
        <time>2020-06-01T07:29:08Z</time>
      </trkpt>
      <trkpt lat="48.242615000" lon="-1.455293000">
        <ele>106.707</ele>
        <time>2020-06-01T07:29:08Z</time>
      </trkpt>
      <trkpt lat="48.242379000" lon="-1.455748000">
        <ele>102.568</ele>
        <time>2020-06-01T07:29:08Z</time>
      </trkpt>
      <trkpt lat="48.242283000" lon="-1.455888000">
        <ele>100.815</ele>
        <time>2020-06-01T07:29:08Z</time>
      </trkpt>
      <trkpt lat="48.242142000" lon="-1.456255000">
        <ele>96.772</ele>
        <time>2020-06-01T07:29:08Z</time>
      </trkpt>
      <trkpt lat="48.242092000" lon="-1.456325000">
        <ele>95.874</ele>
        <time>2020-06-01T07:29:08Z</time>
      </trkpt>
      <trkpt lat="48.241960000" lon="-1.456768000">
        <ele>91.733</ele>
        <time>2020-06-01T07:29:08Z</time>
      </trkpt>
      <trkpt lat="48.241967000" lon="-1.456933000">
        <ele>90.493</ele>
        <time>2020-06-01T07:29:08Z</time>
      </trkpt>
      <trkpt lat="48.242163000" lon="-1.457184000">
        <ele>90.660</ele>
        <time>2020-06-01T07:29:08Z</time>
      </trkpt>
      <trkpt lat="48.242195000" lon="-1.457296000">
        <ele>90.144</ele>
        <time>2020-06-01T07:29:08Z</time>
      </trkpt>
      <trkpt lat="48.242188000" lon="-1.457265000">
        <ele>90.289</ele>
        <time>2020-06-01T07:29:08Z</time>
      </trkpt>
      <trkpt lat="48.242120000" lon="-1.457310000">
        <ele>89.084</ele>
        <time>2020-06-01T07:29:08Z</time>
      </trkpt>
      <trkpt lat="48.242041000" lon="-1.457412000">
        <ele>87.277</ele>
        <time>2020-06-01T07:29:08Z</time>
      </trkpt>
      <trkpt lat="48.241890000" lon="-1.457789000">
        <ele>83.273</ele>
        <time>2020-06-01T07:29:08Z</time>
      </trkpt>
      <trkpt lat="48.241764000" lon="-1.458055000">
        <ele>80.869</ele>
        <time>2020-06-01T07:29:08Z</time>
      </trkpt>
      <trkpt lat="48.241707000" lon="-1.458091000">
        <ele>80.280</ele>
        <time>2020-06-01T07:29:08Z</time>
      </trkpt>
      <trkpt lat="48.241518000" lon="-1.457906000">
        <ele>80.028</ele>
        <time>2020-06-01T07:29:08Z</time>
      </trkpt>
      <trkpt lat="48.241250000" lon="-1.457480000">
        <ele>79.780</ele>
        <time>2020-06-01T07:29:08Z</time>
      </trkpt>
      <trkpt lat="48.240962000" lon="-1.456947000">
        <ele>80.842</ele>
        <time>2020-06-01T07:29:08Z</time>
      </trkpt>
      <trkpt lat="48.240741000" lon="-1.456448000">
        <ele>81.486</ele>
        <time>2020-06-01T07:29:08Z</time>
      </trkpt>
      <trkpt lat="48.239614000" lon="-1.453518000">
        <ele>86.451</ele>
        <time>2020-06-01T07:29:08Z</time>
      </trkpt>
      <trkpt lat="48.239444000" lon="-1.452922000">
        <ele>86.680</ele>
        <time>2020-06-01T07:29:08Z</time>
      </trkpt>
      <trkpt lat="48.238947000" lon="-1.450500000">
        <ele>84.795</ele>
        <time>2020-06-01T07:29:08Z</time>
      </trkpt>
      <trkpt lat="48.238759000" lon="-1.449740000">
        <ele>84.766</ele>
        <time>2020-06-01T07:29:08Z</time>
      </trkpt>
      <trkpt lat="48.238379000" lon="-1.448461000">
        <ele>82.803</ele>
        <time>2020-06-01T07:29:08Z</time>
      </trkpt>
      <trkpt lat="48.238313000" lon="-1.448419000">
        <ele>82.423</ele>
        <time>2020-06-01T07:29:08Z</time>
      </trkpt>
      <trkpt lat="48.237289000" lon="-1.449182000">
        <ele>74.680</ele>
        <time>2020-06-01T07:29:08Z</time>
      </trkpt>
      <trkpt lat="48.236956000" lon="-1.449373000">
        <ele>72.670</ele>
        <time>2020-06-01T07:29:08Z</time>
      </trkpt>
      <trkpt lat="48.236800000" lon="-1.449491000">
        <ele>72.000</ele>
        <time>2020-06-01T07:29:08Z</time>
      </trkpt>
      <trkpt lat="48.236280000" lon="-1.449712000">
        <ele>70.360</ele>
        <time>2020-06-01T07:29:08Z</time>
      </trkpt>
      <trkpt lat="48.236140000" lon="-1.449797000">
        <ele>70.055</ele>
        <time>2020-06-01T07:29:08Z</time>
      </trkpt>
      <trkpt lat="48.235972000" lon="-1.449961000">
        <ele>69.690</ele>
        <time>2020-06-01T07:29:08Z</time>
      </trkpt>
      <trkpt lat="48.235816000" lon="-1.450158000">
        <ele>69.360</ele>
        <time>2020-06-01T07:29:08Z</time>
      </trkpt>
      <trkpt lat="48.235653000" lon="-1.450459000">
        <ele>68.776</ele>
        <time>2020-06-01T07:29:08Z</time>
      </trkpt>
      <trkpt lat="48.235601000" lon="-1.450595000">
        <ele>68.502</ele>
        <time>2020-06-01T07:29:08Z</time>
      </trkpt>
      <trkpt lat="48.235476000" lon="-1.450842000">
        <ele>68.110</ele>
        <time>2020-06-01T07:29:08Z</time>
      </trkpt>
      <trkpt lat="48.235008000" lon="-1.451160000">
        <ele>67.410</ele>
        <time>2020-06-01T07:29:08Z</time>
      </trkpt>
      <trkpt lat="48.234581000" lon="-1.451396000">
        <ele>66.779</ele>
        <time>2020-06-01T07:29:08Z</time>
      </trkpt>
      <trkpt lat="48.234552000" lon="-1.451274000">
        <ele>66.788</ele>
        <time>2020-06-01T07:29:08Z</time>
      </trkpt>
      <trkpt lat="48.234085000" lon="-1.451587000">
        <ele>65.967</ele>
        <time>2020-06-01T07:29:08Z</time>
      </trkpt>
      <trkpt lat="48.233751000" lon="-1.451678000">
        <ele>65.653</ele>
        <time>2020-06-01T07:29:08Z</time>
      </trkpt>
      <trkpt lat="48.233568000" lon="-1.451787000">
        <ele>65.269</ele>
        <time>2020-06-01T07:29:08Z</time>
      </trkpt>
      <trkpt lat="48.233488000" lon="-1.451872000">
        <ele>65.132</ele>
        <time>2020-06-01T07:29:08Z</time>
      </trkpt>
      <trkpt lat="48.233332000" lon="-1.452216000">
        <ele>64.890</ele>
        <time>2020-06-01T07:29:08Z</time>
      </trkpt>
      <trkpt lat="48.233234000" lon="-1.452547000">
        <ele>64.316</ele>
        <time>2020-06-01T07:29:08Z</time>
      </trkpt>
      <trkpt lat="48.233140000" lon="-1.452771000">
        <ele>64.033</ele>
        <time>2020-06-01T07:29:08Z</time>
      </trkpt>
      <trkpt lat="48.232972000" lon="-1.452963000">
        <ele>64.000</ele>
        <time>2020-06-01T07:29:08Z</time>
      </trkpt>
      <trkpt lat="48.231771000" lon="-1.453618000">
        <ele>65.000</ele>
        <time>2020-06-01T07:29:08Z</time>
      </trkpt>
      <trkpt lat="48.231236000" lon="-1.453999000">
        <ele>65.015</ele>
        <time>2020-06-01T07:29:08Z</time>
      </trkpt>
      <trkpt lat="48.231119000" lon="-1.454100000">
        <ele>65.000</ele>
        <time>2020-06-01T07:29:08Z</time>
      </trkpt>
      <trkpt lat="48.231043000" lon="-1.454225000">
        <ele>65.000</ele>
        <time>2020-06-01T07:29:08Z</time>
      </trkpt>
      <trkpt lat="48.230531000" lon="-1.454623000">
        <ele>65.026</ele>
        <time>2020-06-01T07:29:08Z</time>
      </trkpt>
      <trkpt lat="48.230366000" lon="-1.454695000">
        <ele>65.000</ele>
        <time>2020-06-01T07:29:08Z</time>
      </trkpt>
      <trkpt lat="48.230264000" lon="-1.454846000">
        <ele>65.000</ele>
        <time>2020-06-01T07:29:08Z</time>
      </trkpt>
      <trkpt lat="48.230211000" lon="-1.455135000">
        <ele>65.000</ele>
        <time>2020-06-01T07:29:08Z</time>
      </trkpt>
      <trkpt lat="48.230177000" lon="-1.455477000">
        <ele>65.000</ele>
        <time>2020-06-01T07:29:08Z</time>
      </trkpt>
      <trkpt lat="48.229927000" lon="-1.455848000">
        <ele>65.000</ele>
        <time>2020-06-01T07:29:08Z</time>
      </trkpt>
      <trkpt lat="48.229851000" lon="-1.456091000">
        <ele>65.107</ele>
        <time>2020-06-01T07:29:08Z</time>
      </trkpt>
      <trkpt lat="48.229856000" lon="-1.456106000">
        <ele>65.113</ele>
        <time>2020-06-01T07:29:08Z</time>
      </trkpt>
      <trkpt lat="48.229635000" lon="-1.456364000">
        <ele>65.609</ele>
        <time>2020-06-01T07:29:08Z</time>
      </trkpt>
      <trkpt lat="48.229326000" lon="-1.456622000">
        <ele>66.666</ele>
        <time>2020-06-01T07:29:08Z</time>
      </trkpt>
      <trkpt lat="48.229180000" lon="-1.456777000">
        <ele>67.227</ele>
        <time>2020-06-01T07:29:08Z</time>
      </trkpt>
      <trkpt lat="48.228918000" lon="-1.457152000">
        <ele>68.367</ele>
        <time>2020-06-01T07:29:08Z</time>
      </trkpt>
      <trkpt lat="48.228909000" lon="-1.457446000">
        <ele>68.986</ele>
        <time>2020-06-01T07:29:08Z</time>
      </trkpt>
      <trkpt lat="48.229062000" lon="-1.457938000">
        <ele>70.053</ele>
        <time>2020-06-01T07:29:08Z</time>
      </trkpt>
      <trkpt lat="48.229176000" lon="-1.458495000">
        <ele>70.662</ele>
        <time>2020-06-01T07:29:08Z</time>
      </trkpt>
      <trkpt lat="48.229296000" lon="-1.459229000">
        <ele>70.475</ele>
        <time>2020-06-01T07:29:08Z</time>
      </trkpt>
      <trkpt lat="48.229285000" lon="-1.459957000">
        <ele>71.464</ele>
        <time>2020-06-01T07:29:08Z</time>
      </trkpt>
      <trkpt lat="48.229220000" lon="-1.460801000">
        <ele>72.286</ele>
        <time>2020-06-01T07:29:08Z</time>
      </trkpt>
      <trkpt lat="48.229161000" lon="-1.461208000">
        <ele>72.896</ele>
        <time>2020-06-01T07:29:08Z</time>
      </trkpt>
      <trkpt lat="48.229168000" lon="-1.461823000">
        <ele>73.465</ele>
        <time>2020-06-01T07:29:08Z</time>
      </trkpt>
      <trkpt lat="48.229247000" lon="-1.462280000">
        <ele>73.844</ele>
        <time>2020-06-01T07:29:08Z</time>
      </trkpt>
      <trkpt lat="48.229259000" lon="-1.462516000">
        <ele>74.147</ele>
        <time>2020-06-01T07:29:08Z</time>
      </trkpt>
      <trkpt lat="48.229246000" lon="-1.463251000">
        <ele>74.300</ele>
        <time>2020-06-01T07:29:08Z</time>
      </trkpt>
      <trkpt lat="48.229199000" lon="-1.463827000">
        <ele>74.360</ele>
        <time>2020-06-01T07:29:08Z</time>
      </trkpt>
      <trkpt lat="48.229015000" lon="-1.465172000">
        <ele>74.350</ele>
        <time>2020-06-01T07:29:08Z</time>
      </trkpt>
      <trkpt lat="48.229039000" lon="-1.465778000">
        <ele>74.150</ele>
        <time>2020-06-01T07:29:08Z</time>
      </trkpt>
      <trkpt lat="48.229085000" lon="-1.466361000">
        <ele>73.870</ele>
        <time>2020-06-01T07:29:08Z</time>
      </trkpt>
      <trkpt lat="48.229065000" lon="-1.466729000">
        <ele>73.956</ele>
        <time>2020-06-01T07:29:08Z</time>
      </trkpt>
      <trkpt lat="48.229014000" lon="-1.467296000">
        <ele>74.501</ele>
        <time>2020-06-01T07:29:08Z</time>
      </trkpt>
      <trkpt lat="48.229037000" lon="-1.467489000">
        <ele>74.927</ele>
        <time>2020-06-01T07:29:08Z</time>
      </trkpt>
      <trkpt lat="48.229047000" lon="-1.467504000">
        <ele>74.945</ele>
        <time>2020-06-01T07:29:08Z</time>
      </trkpt>
      <trkpt lat="48.229053000" lon="-1.467492000">
        <ele>74.897</ele>
        <time>2020-06-01T07:29:08Z</time>
      </trkpt>
      <trkpt lat="48.228534000" lon="-1.467721000">
        <ele>77.591</ele>
        <time>2020-06-01T07:29:08Z</time>
      </trkpt>
      <trkpt lat="48.227761000" lon="-1.468013000">
        <ele>84.683</ele>
        <time>2020-06-01T07:29:08Z</time>
      </trkpt>
      <trkpt lat="48.227487000" lon="-1.468092000">
        <ele>87.933</ele>
        <time>2020-06-01T07:29:08Z</time>
      </trkpt>
      <trkpt lat="48.227508000" lon="-1.468118000">
        <ele>87.777</ele>
        <time>2020-06-01T07:29:08Z</time>
      </trkpt>
      <trkpt lat="48.227639000" lon="-1.468794000">
        <ele>89.014</ele>
        <time>2020-06-01T07:29:08Z</time>
      </trkpt>
      <trkpt lat="48.227936000" lon="-1.469601000">
        <ele>90.213</ele>
        <time>2020-06-01T07:29:08Z</time>
      </trkpt>
      <trkpt lat="48.228081000" lon="-1.469903000">
        <ele>89.810</ele>
        <time>2020-06-01T07:29:08Z</time>
      </trkpt>
      <trkpt lat="48.228241000" lon="-1.470279000">
        <ele>89.036</ele>
        <time>2020-06-01T07:29:08Z</time>
      </trkpt>
      <trkpt lat="48.228648000" lon="-1.471032000">
        <ele>88.280</ele>
        <time>2020-06-01T07:29:08Z</time>
      </trkpt>
      <trkpt lat="48.228726000" lon="-1.471260000">
        <ele>88.490</ele>
        <time>2020-06-01T07:29:08Z</time>
      </trkpt>
      <trkpt lat="48.228792000" lon="-1.471522000">
        <ele>88.914</ele>
        <time>2020-06-01T07:29:08Z</time>
      </trkpt>
      <trkpt lat="48.228799000" lon="-1.471723000">
        <ele>89.449</ele>
        <time>2020-06-01T07:29:08Z</time>
      </trkpt>
      <trkpt lat="48.228848000" lon="-1.471744000">
        <ele>89.281</ele>
        <time>2020-06-01T07:29:08Z</time>
      </trkpt>
      <trkpt lat="48.228885000" lon="-1.471802000">
        <ele>89.275</ele>
        <time>2020-06-01T07:29:08Z</time>
      </trkpt>
      <trkpt lat="48.228897000" lon="-1.471927000">
        <ele>89.574</ele>
        <time>2020-06-01T07:29:08Z</time>
      </trkpt>
      <trkpt lat="48.228836000" lon="-1.472401000">
        <ele>91.495</ele>
        <time>2020-06-01T07:29:08Z</time>
      </trkpt>
      <trkpt lat="48.228819000" lon="-1.472853000">
        <ele>92.885</ele>
        <time>2020-06-01T07:29:08Z</time>
      </trkpt>
      <trkpt lat="48.228840000" lon="-1.473126000">
        <ele>93.092</ele>
        <time>2020-06-01T07:29:08Z</time>
      </trkpt>
      <trkpt lat="48.228855000" lon="-1.473152000">
        <ele>93.024</ele>
        <time>2020-06-01T07:29:08Z</time>
      </trkpt>
      <trkpt lat="48.228932000" lon="-1.473145000">
        <ele>92.496</ele>
        <time>2020-06-01T07:29:08Z</time>
      </trkpt>
      <trkpt lat="48.229397000" lon="-1.472876000">
        <ele>89.001</ele>
        <time>2020-06-01T07:29:08Z</time>
      </trkpt>
      <trkpt lat="48.229529000" lon="-1.472757000">
        <ele>87.956</ele>
        <time>2020-06-01T07:29:08Z</time>
      </trkpt>
      <trkpt lat="48.229600000" lon="-1.472626000">
        <ele>87.319</ele>
        <time>2020-06-01T07:29:08Z</time>
      </trkpt>
      <trkpt lat="48.229776000" lon="-1.472532000">
        <ele>86.005</ele>
        <time>2020-06-01T07:29:08Z</time>
      </trkpt>
      <trkpt lat="48.229966000" lon="-1.472481000">
        <ele>84.649</ele>
        <time>2020-06-01T07:29:08Z</time>
      </trkpt>
      <trkpt lat="48.230089000" lon="-1.472322000">
        <ele>83.619</ele>
        <time>2020-06-01T07:29:08Z</time>
      </trkpt>
      <trkpt lat="48.230195000" lon="-1.472252000">
        <ele>82.814</ele>
        <time>2020-06-01T07:29:08Z</time>
      </trkpt>
      <trkpt lat="48.230269000" lon="-1.472265000">
        <ele>82.316</ele>
        <time>2020-06-01T07:29:08Z</time>
      </trkpt>
      <trkpt lat="48.230319000" lon="-1.472311000">
        <ele>82.049</ele>
        <time>2020-06-01T07:29:08Z</time>
      </trkpt>
      <trkpt lat="48.230337000" lon="-1.472305000">
        <ele>81.918</ele>
        <time>2020-06-01T07:29:08Z</time>
      </trkpt>
      <trkpt lat="48.230496000" lon="-1.472082000">
        <ele>80.549</ele>
        <time>2020-06-01T07:29:08Z</time>
      </trkpt>
      <trkpt lat="48.230548000" lon="-1.472158000">
        <ele>80.296</ele>
        <time>2020-06-01T07:29:08Z</time>
      </trkpt>
      <trkpt lat="48.230628000" lon="-1.472225000">
        <ele>79.809</ele>
        <time>2020-06-01T07:29:08Z</time>
      </trkpt>
      <trkpt lat="48.230707000" lon="-1.472371000">
        <ele>79.304</ele>
        <time>2020-06-01T07:29:08Z</time>
      </trkpt>
      <trkpt lat="48.230792000" lon="-1.472587000">
        <ele>78.686</ele>
        <time>2020-06-01T07:29:08Z</time>
      </trkpt>
      <trkpt lat="48.230820000" lon="-1.473346000">
        <ele>78.980</ele>
        <time>2020-06-01T07:29:08Z</time>
      </trkpt>
      <trkpt lat="48.230880000" lon="-1.473613000">
        <ele>78.835</ele>
        <time>2020-06-01T07:29:08Z</time>
      </trkpt>
      <trkpt lat="48.231002000" lon="-1.473819000">
        <ele>78.111</ele>
        <time>2020-06-01T07:29:08Z</time>
      </trkpt>
      <trkpt lat="48.231156000" lon="-1.474128000">
        <ele>77.585</ele>
        <time>2020-06-01T07:29:08Z</time>
      </trkpt>
      <trkpt lat="48.231274000" lon="-1.474270000">
        <ele>77.059</ele>
        <time>2020-06-01T07:29:08Z</time>
      </trkpt>
      <trkpt lat="48.231314000" lon="-1.474293000">
        <ele>76.744</ele>
        <time>2020-06-01T07:29:08Z</time>
      </trkpt>
      <trkpt lat="48.231342000" lon="-1.474333000">
        <ele>76.569</ele>
        <time>2020-06-01T07:29:08Z</time>
      </trkpt>
      <trkpt lat="48.231424000" lon="-1.474573000">
        <ele>76.421</ele>
        <time>2020-06-01T07:29:08Z</time>
      </trkpt>
      <trkpt lat="48.231428000" lon="-1.474716000">
        <ele>76.732</ele>
        <time>2020-06-01T07:29:08Z</time>
      </trkpt>
      <trkpt lat="48.231544000" lon="-1.474825000">
        <ele>76.385</ele>
        <time>2020-06-01T07:29:08Z</time>
      </trkpt>
      <trkpt lat="48.231561000" lon="-1.474895000">
        <ele>76.534</ele>
        <time>2020-06-01T07:29:08Z</time>
      </trkpt>
      <trkpt lat="48.231487000" lon="-1.475323000">
        <ele>78.367</ele>
        <time>2020-06-01T07:29:08Z</time>
      </trkpt>
      <trkpt lat="48.231445000" lon="-1.475457000">
        <ele>79.103</ele>
        <time>2020-06-01T07:29:08Z</time>
      </trkpt>
      <trkpt lat="48.231337000" lon="-1.475701000">
        <ele>80.659</ele>
        <time>2020-06-01T07:29:08Z</time>
      </trkpt>
      <trkpt lat="48.231032000" lon="-1.475900000">
        <ele>82.849</ele>
        <time>2020-06-01T07:29:08Z</time>
      </trkpt>
      <trkpt lat="48.230977000" lon="-1.476046000">
        <ele>83.514</ele>
        <time>2020-06-01T07:29:08Z</time>
      </trkpt>
      <trkpt lat="48.230937000" lon="-1.476351000">
        <ele>85.192</ele>
        <time>2020-06-01T07:29:08Z</time>
      </trkpt>
      <trkpt lat="48.230869000" lon="-1.476677000">
        <ele>88.011</ele>
        <time>2020-06-01T07:29:08Z</time>
      </trkpt>
      <trkpt lat="48.230853000" lon="-1.477074000">
        <ele>90.996</ele>
        <time>2020-06-01T07:29:08Z</time>
      </trkpt>
      <trkpt lat="48.230879000" lon="-1.477212000">
        <ele>91.849</ele>
        <time>2020-06-01T07:29:08Z</time>
      </trkpt>
      <trkpt lat="48.230749000" lon="-1.477703000">
        <ele>95.491</ele>
        <time>2020-06-01T07:29:08Z</time>
      </trkpt>
      <trkpt lat="48.230697000" lon="-1.477771000">
        <ele>95.962</ele>
        <time>2020-06-01T07:29:08Z</time>
      </trkpt>
      <trkpt lat="48.230483000" lon="-1.477883000">
        <ele>96.772</ele>
        <time>2020-06-01T07:29:08Z</time>
      </trkpt>
      <trkpt lat="48.230395000" lon="-1.478164000">
        <ele>98.427</ele>
        <time>2020-06-01T07:29:08Z</time>
      </trkpt>
      <trkpt lat="48.230352000" lon="-1.478358000">
        <ele>99.263</ele>
        <time>2020-06-01T07:29:08Z</time>
      </trkpt>
      <trkpt lat="48.230219000" lon="-1.478665000">
        <ele>100.393</ele>
        <time>2020-06-01T07:29:08Z</time>
      </trkpt>
      <trkpt lat="48.230195000" lon="-1.478835000">
        <ele>100.902</ele>
        <time>2020-06-01T07:29:08Z</time>
      </trkpt>
      <trkpt lat="48.230102000" lon="-1.479178000">
        <ele>101.470</ele>
        <time>2020-06-01T07:29:08Z</time>
      </trkpt>
      <trkpt lat="48.230041000" lon="-1.479330000">
        <ele>101.702</ele>
        <time>2020-06-01T07:29:08Z</time>
      </trkpt>
      <trkpt lat="48.229867000" lon="-1.479674000">
        <ele>102.170</ele>
        <time>2020-06-01T07:29:08Z</time>
      </trkpt>
      <trkpt lat="48.229757000" lon="-1.479928000">
        <ele>102.599</ele>
        <time>2020-06-01T07:29:08Z</time>
      </trkpt>
      <trkpt lat="48.229748000" lon="-1.479993000">
        <ele>102.704</ele>
        <time>2020-06-01T07:29:08Z</time>
      </trkpt>
      <trkpt lat="48.229794000" lon="-1.480103000">
        <ele>102.763</ele>
        <time>2020-06-01T07:29:08Z</time>
      </trkpt>
      <trkpt lat="48.230571000" lon="-1.480786000">
        <ele>102.000</ele>
        <time>2020-06-01T07:29:08Z</time>
      </trkpt>
      <trkpt lat="48.231710000" lon="-1.481709000">
        <ele>102.054</ele>
        <time>2020-06-01T07:29:08Z</time>
      </trkpt>
      <trkpt lat="48.231986000" lon="-1.481899000">
        <ele>102.306</ele>
        <time>2020-06-01T07:29:08Z</time>
      </trkpt>
      <trkpt lat="48.232131000" lon="-1.481927000">
        <ele>102.332</ele>
        <time>2020-06-01T07:29:08Z</time>
      </trkpt>
      <trkpt lat="48.232394000" lon="-1.482192000">
        <ele>102.660</ele>
        <time>2020-06-01T07:29:08Z</time>
      </trkpt>
      <trkpt lat="48.232841000" lon="-1.482561000">
        <ele>103.313</ele>
        <time>2020-06-01T07:29:08Z</time>
      </trkpt>
      <trkpt lat="48.233134000" lon="-1.482857000">
        <ele>103.457</ele>
        <time>2020-06-01T07:29:08Z</time>
      </trkpt>
      <trkpt lat="48.234010000" lon="-1.483600000">
        <ele>103.933</ele>
        <time>2020-06-01T07:29:08Z</time>
      </trkpt>
      <trkpt lat="48.234172000" lon="-1.483714000">
        <ele>104.051</ele>
        <time>2020-06-01T07:29:08Z</time>
      </trkpt>
      <trkpt lat="48.234933000" lon="-1.484022000">
        <ele>101.733</ele>
        <time>2020-06-01T07:29:08Z</time>
      </trkpt>
      <trkpt lat="48.235683000" lon="-1.484366000">
        <ele>98.561</ele>
        <time>2020-06-01T07:29:08Z</time>
      </trkpt>
      <trkpt lat="48.235771000" lon="-1.484388000">
        <ele>98.022</ele>
        <time>2020-06-01T07:29:08Z</time>
      </trkpt>
      <trkpt lat="48.235789000" lon="-1.484375000">
        <ele>97.860</ele>
        <time>2020-06-01T07:29:08Z</time>
      </trkpt>
      <trkpt lat="48.235841000" lon="-1.484243000">
        <ele>97.141</ele>
        <time>2020-06-01T07:29:08Z</time>
      </trkpt>
      <trkpt lat="48.235906000" lon="-1.483802000">
        <ele>94.887</ele>
        <time>2020-06-01T07:29:08Z</time>
      </trkpt>
      <trkpt lat="48.235816000" lon="-1.483320000">
        <ele>92.770</ele>
        <time>2020-06-01T07:29:08Z</time>
      </trkpt>
      <trkpt lat="48.235803000" lon="-1.483181000">
        <ele>91.866</ele>
        <time>2020-06-01T07:29:08Z</time>
      </trkpt>
      <trkpt lat="48.235842000" lon="-1.482881000">
        <ele>89.424</ele>
        <time>2020-06-01T07:29:08Z</time>
      </trkpt>
      <trkpt lat="48.235852000" lon="-1.482674000">
        <ele>87.866</ele>
        <time>2020-06-01T07:29:08Z</time>
      </trkpt>
      <trkpt lat="48.235891000" lon="-1.482381000">
        <ele>86.214</ele>
        <time>2020-06-01T07:29:08Z</time>
      </trkpt>
      <trkpt lat="48.235963000" lon="-1.482189000">
        <ele>84.942</ele>
        <time>2020-06-01T07:29:08Z</time>
      </trkpt>
      <trkpt lat="48.236058000" lon="-1.481829000">
        <ele>82.802</ele>
        <time>2020-06-01T07:29:08Z</time>
      </trkpt>
      <trkpt lat="48.236081000" lon="-1.481576000">
        <ele>81.663</ele>
        <time>2020-06-01T07:29:08Z</time>
      </trkpt>
      <trkpt lat="48.236125000" lon="-1.481396000">
        <ele>80.723</ele>
        <time>2020-06-01T07:29:08Z</time>
      </trkpt>
      <trkpt lat="48.236211000" lon="-1.481253000">
        <ele>79.899</ele>
        <time>2020-06-01T07:29:08Z</time>
      </trkpt>
      <trkpt lat="48.236414000" lon="-1.481042000">
        <ele>78.331</ele>
        <time>2020-06-01T07:29:08Z</time>
      </trkpt>
      <trkpt lat="48.236421000" lon="-1.480896000">
        <ele>77.903</ele>
        <time>2020-06-01T07:29:08Z</time>
      </trkpt>
      <trkpt lat="48.236439000" lon="-1.480850000">
        <ele>77.672</ele>
        <time>2020-06-01T07:29:08Z</time>
      </trkpt>
      <trkpt lat="48.236463000" lon="-1.480832000">
        <ele>77.476</ele>
        <time>2020-06-01T07:29:08Z</time>
      </trkpt>
      <trkpt lat="48.236344000" lon="-1.480630000">
        <ele>77.743</ele>
        <time>2020-06-01T07:29:08Z</time>
      </trkpt>
      <trkpt lat="48.236301000" lon="-1.480430000">
        <ele>77.489</ele>
        <time>2020-06-01T07:29:08Z</time>
      </trkpt>
      <trkpt lat="48.236280000" lon="-1.480219000">
        <ele>77.046</ele>
        <time>2020-06-01T07:29:08Z</time>
      </trkpt>
      <trkpt lat="48.236177000" lon="-1.479825000">
        <ele>76.573</ele>
        <time>2020-06-01T07:29:08Z</time>
      </trkpt>
      <trkpt lat="48.235908000" lon="-1.479007000">
        <ele>75.169</ele>
        <time>2020-06-01T07:29:08Z</time>
      </trkpt>
      <trkpt lat="48.235905000" lon="-1.478809000">
        <ele>74.795</ele>
        <time>2020-06-01T07:29:08Z</time>
      </trkpt>
      <trkpt lat="48.236033000" lon="-1.478475000">
        <ele>73.858</ele>
        <time>2020-06-01T07:29:08Z</time>
      </trkpt>
      <trkpt lat="48.236160000" lon="-1.478237000">
        <ele>73.361</ele>
        <time>2020-06-01T07:29:08Z</time>
      </trkpt>
      <trkpt lat="48.236238000" lon="-1.477976000">
        <ele>73.017</ele>
        <time>2020-06-01T07:29:08Z</time>
      </trkpt>
      <trkpt lat="48.236250000" lon="-1.477846000">
        <ele>72.829</ele>
        <time>2020-06-01T07:29:08Z</time>
      </trkpt>
      <trkpt lat="48.236464000" lon="-1.477196000">
        <ele>71.842</ele>
        <time>2020-06-01T07:29:08Z</time>
      </trkpt>
      <trkpt lat="48.236557000" lon="-1.477111000">
        <ele>71.706</ele>
        <time>2020-06-01T07:29:08Z</time>
      </trkpt>
      <trkpt lat="48.236604000" lon="-1.477126000">
        <ele>71.723</ele>
        <time>2020-06-01T07:29:08Z</time>
      </trkpt>
      <trkpt lat="48.237176000" lon="-1.476764000">
        <ele>70.834</ele>
        <time>2020-06-01T07:29:08Z</time>
      </trkpt>
      <trkpt lat="48.237607000" lon="-1.476519000">
        <ele>69.320</ele>
        <time>2020-06-01T07:29:08Z</time>
      </trkpt>
      <trkpt lat="48.237904000" lon="-1.476325000">
        <ele>68.167</ele>
        <time>2020-06-01T07:29:08Z</time>
      </trkpt>
      <trkpt lat="48.238085000" lon="-1.476139000">
        <ele>67.709</ele>
        <time>2020-06-01T07:29:08Z</time>
      </trkpt>
      <trkpt lat="48.238154000" lon="-1.476006000">
        <ele>67.483</ele>
        <time>2020-06-01T07:29:08Z</time>
      </trkpt>
      <trkpt lat="48.238376000" lon="-1.475193000">
        <ele>66.155</ele>
        <time>2020-06-01T07:29:08Z</time>
      </trkpt>
      <trkpt lat="48.238439000" lon="-1.475048000">
        <ele>66.025</ele>
        <time>2020-06-01T07:29:08Z</time>
      </trkpt>
      <trkpt lat="48.238614000" lon="-1.474843000">
        <ele>65.650</ele>
        <time>2020-06-01T07:29:08Z</time>
      </trkpt>
      <trkpt lat="48.239504000" lon="-1.473973000">
        <ele>63.465</ele>
        <time>2020-06-01T07:29:08Z</time>
      </trkpt>
      <trkpt lat="48.239868000" lon="-1.473725000">
        <ele>62.250</ele>
        <time>2020-06-01T07:29:08Z</time>
      </trkpt>
      <trkpt lat="48.240434000" lon="-1.473420000">
        <ele>60.710</ele>
        <time>2020-06-01T07:29:08Z</time>
      </trkpt>
      <trkpt lat="48.240476000" lon="-1.473423000">
        <ele>60.615</ele>
        <time>2020-06-01T07:29:08Z</time>
      </trkpt>
      <trkpt lat="48.240737000" lon="-1.473800000">
        <ele>60.010</ele>
        <time>2020-06-01T07:29:08Z</time>
      </trkpt>
      <trkpt lat="48.240834000" lon="-1.474175000">
        <ele>60.000</ele>
        <time>2020-06-01T07:29:08Z</time>
      </trkpt>
      <trkpt lat="48.240928000" lon="-1.475149000">
        <ele>60.000</ele>
        <time>2020-06-01T07:29:08Z</time>
      </trkpt>
      <trkpt lat="48.240940000" lon="-1.475407000">
        <ele>60.000</ele>
        <time>2020-06-01T07:29:08Z</time>
      </trkpt>
      <trkpt lat="48.241039000" lon="-1.475736000">
        <ele>59.855</ele>
        <time>2020-06-01T07:29:08Z</time>
      </trkpt>
      <trkpt lat="48.241132000" lon="-1.475862000">
        <ele>59.627</ele>
        <time>2020-06-01T07:29:08Z</time>
      </trkpt>
      <trkpt lat="48.241192000" lon="-1.475890000">
        <ele>59.457</ele>
        <time>2020-06-01T07:29:08Z</time>
      </trkpt>
      <trkpt lat="48.241254000" lon="-1.475894000">
        <ele>59.318</ele>
        <time>2020-06-01T07:29:08Z</time>
      </trkpt>
      <trkpt lat="48.241495000" lon="-1.475744000">
        <ele>59.041</ele>
        <time>2020-06-01T07:29:08Z</time>
      </trkpt>
      <trkpt lat="48.242168000" lon="-1.475229000">
        <ele>61.727</ele>
        <time>2020-06-01T07:29:08Z</time>
      </trkpt>
      <trkpt lat="48.242438000" lon="-1.474971000">
        <ele>63.775</ele>
        <time>2020-06-01T07:29:08Z</time>
      </trkpt>
      <trkpt lat="48.242900000" lon="-1.474351000">
        <ele>66.973</ele>
        <time>2020-06-01T07:29:08Z</time>
      </trkpt>
      <trkpt lat="48.243083000" lon="-1.474155000">
        <ele>68.143</ele>
        <time>2020-06-01T07:29:08Z</time>
      </trkpt>
      <trkpt lat="48.243219000" lon="-1.474063000">
        <ele>68.842</ele>
        <time>2020-06-01T07:29:08Z</time>
      </trkpt>
      <trkpt lat="48.243407000" lon="-1.474009000">
        <ele>69.548</ele>
        <time>2020-06-01T07:29:08Z</time>
      </trkpt>
      <trkpt lat="48.243522000" lon="-1.474062000">
        <ele>69.961</ele>
        <time>2020-06-01T07:29:08Z</time>
      </trkpt>
      <trkpt lat="48.243589000" lon="-1.474134000">
        <ele>70.171</ele>
        <time>2020-06-01T07:29:08Z</time>
      </trkpt>
      <trkpt lat="48.243840000" lon="-1.474878000">
        <ele>69.733</ele>
        <time>2020-06-01T07:29:08Z</time>
      </trkpt>
      <trkpt lat="48.243922000" lon="-1.475057000">
        <ele>69.585</ele>
        <time>2020-06-01T07:29:08Z</time>
      </trkpt>
      <trkpt lat="48.244054000" lon="-1.475284000">
        <ele>69.560</ele>
        <time>2020-06-01T07:29:08Z</time>
      </trkpt>
      <trkpt lat="48.244339000" lon="-1.475723000">
        <ele>69.673</ele>
        <time>2020-06-01T07:29:08Z</time>
      </trkpt>
      <trkpt lat="48.244595000" lon="-1.476211000">
        <ele>69.465</ele>
        <time>2020-06-01T07:29:08Z</time>
      </trkpt>
      <trkpt lat="48.244901000" lon="-1.476602000">
        <ele>69.295</ele>
        <time>2020-06-01T07:29:08Z</time>
      </trkpt>
      <trkpt lat="48.245040000" lon="-1.476733000">
        <ele>69.072</ele>
        <time>2020-06-01T07:29:08Z</time>
      </trkpt>
      <trkpt lat="48.245235000" lon="-1.476856000">
        <ele>68.953</ele>
        <time>2020-06-01T07:29:08Z</time>
      </trkpt>
      <trkpt lat="48.245452000" lon="-1.476955000">
        <ele>68.794</ele>
        <time>2020-06-01T07:29:08Z</time>
      </trkpt>
      <trkpt lat="48.245606000" lon="-1.477116000">
        <ele>68.100</ele>
        <time>2020-06-01T07:29:08Z</time>
      </trkpt>
      <trkpt lat="48.245967000" lon="-1.477737000">
        <ele>66.039</ele>
        <time>2020-06-01T07:29:08Z</time>
      </trkpt>
      <trkpt lat="48.245995000" lon="-1.477757000">
        <ele>66.018</ele>
        <time>2020-06-01T07:29:08Z</time>
      </trkpt>
      <trkpt lat="48.246037000" lon="-1.477739000">
        <ele>66.226</ele>
        <time>2020-06-01T07:29:08Z</time>
      </trkpt>
      <trkpt lat="48.246121000" lon="-1.477610000">
        <ele>67.116</ele>
        <time>2020-06-01T07:29:08Z</time>
      </trkpt>
      <trkpt lat="48.246185000" lon="-1.477416000">
        <ele>68.309</ele>
        <time>2020-06-01T07:29:08Z</time>
      </trkpt>
      <trkpt lat="48.246200000" lon="-1.477306000">
        <ele>68.942</ele>
        <time>2020-06-01T07:29:08Z</time>
      </trkpt>
      <trkpt lat="48.246231000" lon="-1.477237000">
        <ele>69.495</ele>
        <time>2020-06-01T07:29:08Z</time>
      </trkpt>
      <trkpt lat="48.246223000" lon="-1.477228000">
        <ele>69.505</ele>
        <time>2020-06-01T07:29:08Z</time>
      </trkpt>
      <trkpt lat="48.246252000" lon="-1.477109000">
        <ele>70.335</ele>
        <time>2020-06-01T07:29:08Z</time>
      </trkpt>
      <trkpt lat="48.246356000" lon="-1.476811000">
        <ele>72.567</ele>
        <time>2020-06-01T07:29:08Z</time>
      </trkpt>
      <trkpt lat="48.246368000" lon="-1.476691000">
        <ele>73.325</ele>
        <time>2020-06-01T07:29:08Z</time>
      </trkpt>
      <trkpt lat="48.246274000" lon="-1.476479000">
        <ele>74.373</ele>
        <time>2020-06-01T07:29:08Z</time>
      </trkpt>
      <trkpt lat="48.246259000" lon="-1.476402000">
        <ele>74.859</ele>
        <time>2020-06-01T07:29:08Z</time>
      </trkpt>
      <trkpt lat="48.246170000" lon="-1.476215000">
        <ele>75.776</ele>
        <time>2020-06-01T07:29:08Z</time>
      </trkpt>
      <trkpt lat="48.246145000" lon="-1.476041000">
        <ele>76.914</ele>
        <time>2020-06-01T07:29:08Z</time>
      </trkpt>
      <trkpt lat="48.246167000" lon="-1.475925000">
        <ele>77.775</ele>
        <time>2020-06-01T07:29:08Z</time>
      </trkpt>
      <trkpt lat="48.246245000" lon="-1.475718000">
        <ele>79.357</ele>
        <time>2020-06-01T07:29:08Z</time>
      </trkpt>
      <trkpt lat="48.246239000" lon="-1.475540000">
        <ele>80.363</ele>
        <time>2020-06-01T07:29:08Z</time>
      </trkpt>
      <trkpt lat="48.246260000" lon="-1.475407000">
        <ele>81.230</ele>
        <time>2020-06-01T07:29:08Z</time>
      </trkpt>
      <trkpt lat="48.246429000" lon="-1.475170000">
        <ele>83.254</ele>
        <time>2020-06-01T07:29:08Z</time>
      </trkpt>
      <trkpt lat="48.246575000" lon="-1.474801000">
        <ele>85.514</ele>
        <time>2020-06-01T07:29:08Z</time>
      </trkpt>
      <trkpt lat="48.246585000" lon="-1.474682000">
        <ele>86.079</ele>
        <time>2020-06-01T07:29:08Z</time>
      </trkpt>
      <trkpt lat="48.246579000" lon="-1.474517000">
        <ele>86.955</ele>
        <time>2020-06-01T07:29:08Z</time>
      </trkpt>
      <trkpt lat="48.246630000" lon="-1.474398000">
        <ele>87.954</ele>
        <time>2020-06-01T07:29:08Z</time>
      </trkpt>
      <trkpt lat="48.246712000" lon="-1.474036000">
        <ele>90.386</ele>
        <time>2020-06-01T07:29:08Z</time>
      </trkpt>
      <trkpt lat="48.246770000" lon="-1.473896000">
        <ele>91.202</ele>
        <time>2020-06-01T07:29:08Z</time>
      </trkpt>
      <trkpt lat="48.246755000" lon="-1.473833000">
        <ele>91.343</ele>
        <time>2020-06-01T07:29:08Z</time>
      </trkpt>
      <trkpt lat="48.246813000" lon="-1.473369000">
        <ele>93.266</ele>
        <time>2020-06-01T07:29:08Z</time>
      </trkpt>
      <trkpt lat="48.246808000" lon="-1.473092000">
        <ele>94.004</ele>
        <time>2020-06-01T07:29:08Z</time>
      </trkpt>
      <trkpt lat="48.246748000" lon="-1.472429000">
        <ele>95.503</ele>
        <time>2020-06-01T07:29:08Z</time>
      </trkpt>
      <trkpt lat="48.246783000" lon="-1.471244000">
        <ele>101.793</ele>
        <time>2020-06-01T07:29:08Z</time>
      </trkpt>
      <trkpt lat="48.246875000" lon="-1.470452000">
        <ele>105.527</ele>
        <time>2020-06-01T07:29:08Z</time>
      </trkpt>
      <trkpt lat="48.246918000" lon="-1.470316000">
        <ele>106.194</ele>
        <time>2020-06-01T07:29:08Z</time>
      </trkpt>
      <trkpt lat="48.247112000" lon="-1.470060000">
        <ele>107.667</ele>
        <time>2020-06-01T07:29:08Z</time>
      </trkpt>
      <trkpt lat="48.247561000" lon="-1.469530000">
        <ele>109.185</ele>
        <time>2020-06-01T07:29:08Z</time>
      </trkpt>
      <trkpt lat="48.247679000" lon="-1.469418000">
        <ele>109.089</ele>
        <time>2020-06-01T07:29:08Z</time>
      </trkpt>
      <trkpt lat="48.247751000" lon="-1.469458000">
        <ele>109.141</ele>
        <time>2020-06-01T07:29:08Z</time>
      </trkpt>
      <trkpt lat="48.248006000" lon="-1.470273000">
        <ele>109.963</ele>
        <time>2020-06-01T07:29:08Z</time>
      </trkpt>
      <trkpt lat="48.248229000" lon="-1.470842000">
        <ele>109.978</ele>
        <time>2020-06-01T07:29:08Z</time>
      </trkpt>
      <trkpt lat="48.248517000" lon="-1.471432000">
        <ele>110.883</ele>
        <time>2020-06-01T07:29:08Z</time>
      </trkpt>
      <trkpt lat="48.249108000" lon="-1.472470000">
        <ele>110.765</ele>
        <time>2020-06-01T07:29:08Z</time>
      </trkpt>
      <trkpt lat="48.250427000" lon="-1.474640000">
        <ele>110.000</ele>
        <time>2020-06-01T07:29:08Z</time>
      </trkpt>
      <trkpt lat="48.250524000" lon="-1.474678000">
        <ele>110.000</ele>
        <time>2020-06-01T07:29:08Z</time>
      </trkpt>
      <trkpt lat="48.250566000" lon="-1.474625000">
        <ele>110.000</ele>
        <time>2020-06-01T07:29:08Z</time>
      </trkpt>
      <trkpt lat="48.250585000" lon="-1.474640000">
        <ele>110.000</ele>
        <time>2020-06-01T07:29:08Z</time>
      </trkpt>
      <trkpt lat="48.250665000" lon="-1.474543000">
        <ele>109.837</ele>
        <time>2020-06-01T07:29:08Z</time>
      </trkpt>
      <trkpt lat="48.250732000" lon="-1.474504000">
        <ele>109.585</ele>
        <time>2020-06-01T07:29:08Z</time>
      </trkpt>
      <trkpt lat="48.250742000" lon="-1.474468000">
        <ele>109.537</ele>
        <time>2020-06-01T07:29:08Z</time>
      </trkpt>
      <trkpt lat="48.250970000" lon="-1.474086000">
        <ele>107.920</ele>
        <time>2020-06-01T07:29:08Z</time>
      </trkpt>
      <trkpt lat="48.251038000" lon="-1.474001000">
        <ele>107.328</ele>
        <time>2020-06-01T07:29:08Z</time>
      </trkpt>
      <trkpt lat="48.251158000" lon="-1.473915000">
        <ele>106.325</ele>
        <time>2020-06-01T07:29:08Z</time>
      </trkpt>
      <trkpt lat="48.251385000" lon="-1.473816000">
        <ele>104.482</ele>
        <time>2020-06-01T07:29:08Z</time>
      </trkpt>
      <trkpt lat="48.251670000" lon="-1.473533000">
        <ele>101.986</ele>
        <time>2020-06-01T07:29:08Z</time>
      </trkpt>
      <trkpt lat="48.251767000" lon="-1.473462000">
        <ele>101.240</ele>
        <time>2020-06-01T07:29:08Z</time>
      </trkpt>
      <trkpt lat="48.251954000" lon="-1.473363000">
        <ele>99.843</ele>
        <time>2020-06-01T07:29:08Z</time>
      </trkpt>
      <trkpt lat="48.252007000" lon="-1.473311000">
        <ele>99.415</ele>
        <time>2020-06-01T07:29:08Z</time>
      </trkpt>
      <trkpt lat="48.252073000" lon="-1.473294000">
        <ele>98.859</ele>
        <time>2020-06-01T07:29:08Z</time>
      </trkpt>
      <trkpt lat="48.252126000" lon="-1.473254000">
        <ele>98.360</ele>
        <time>2020-06-01T07:29:08Z</time>
      </trkpt>
      <trkpt lat="48.252215000" lon="-1.473129000">
        <ele>97.375</ele>
        <time>2020-06-01T07:29:08Z</time>
      </trkpt>
      <trkpt lat="48.252473000" lon="-1.472962000">
        <ele>94.648</ele>
        <time>2020-06-01T07:29:08Z</time>
      </trkpt>
      <trkpt lat="48.252659000" lon="-1.472780000">
        <ele>92.683</ele>
        <time>2020-06-01T07:29:08Z</time>
      </trkpt>
      <trkpt lat="48.252810000" lon="-1.472594000">
        <ele>90.780</ele>
        <time>2020-06-01T07:29:08Z</time>
      </trkpt>
      <trkpt lat="48.253014000" lon="-1.472141000">
        <ele>88.056</ele>
        <time>2020-06-01T07:29:08Z</time>
      </trkpt>
      <trkpt lat="48.253259000" lon="-1.471822000">
        <ele>85.413</ele>
        <time>2020-06-01T07:29:08Z</time>
      </trkpt>
      <trkpt lat="48.253382000" lon="-1.471696000">
        <ele>83.962</ele>
        <time>2020-06-01T07:29:08Z</time>
      </trkpt>
      <trkpt lat="48.253531000" lon="-1.471582000">
        <ele>82.404</ele>
        <time>2020-06-01T07:29:08Z</time>
      </trkpt>
      <trkpt lat="48.253603000" lon="-1.471560000">
        <ele>81.754</ele>
        <time>2020-06-01T07:29:08Z</time>
      </trkpt>
      <trkpt lat="48.253697000" lon="-1.471567000">
        <ele>80.991</ele>
        <time>2020-06-01T07:29:08Z</time>
      </trkpt>
      <trkpt lat="48.253834000" lon="-1.471638000">
        <ele>79.962</ele>
        <time>2020-06-01T07:29:08Z</time>
      </trkpt>
      <trkpt lat="48.253912000" lon="-1.471657000">
        <ele>79.503</ele>
        <time>2020-06-01T07:29:08Z</time>
      </trkpt>
      <trkpt lat="48.254099000" lon="-1.471618000">
        <ele>78.447</ele>
        <time>2020-06-01T07:29:08Z</time>
      </trkpt>
      <trkpt lat="48.254315000" lon="-1.471450000">
        <ele>76.806</ele>
        <time>2020-06-01T07:29:08Z</time>
      </trkpt>
      <trkpt lat="48.254455000" lon="-1.471393000">
        <ele>75.695</ele>
        <time>2020-06-01T07:29:08Z</time>
      </trkpt>
      <trkpt lat="48.254545000" lon="-1.471400000">
        <ele>75.097</ele>
        <time>2020-06-01T07:29:08Z</time>
      </trkpt>
      <trkpt lat="48.254600000" lon="-1.471362000">
        <ele>74.613</ele>
        <time>2020-06-01T07:29:08Z</time>
      </trkpt>
      <trkpt lat="48.254613000" lon="-1.471368000">
        <ele>74.537</ele>
        <time>2020-06-01T07:29:08Z</time>
      </trkpt>
      <trkpt lat="48.254827000" lon="-1.471984000">
        <ele>74.488</ele>
        <time>2020-06-01T07:29:08Z</time>
      </trkpt>
      <trkpt lat="48.254898000" lon="-1.472241000">
        <ele>74.311</ele>
        <time>2020-06-01T07:29:08Z</time>
      </trkpt>
      <trkpt lat="48.254920000" lon="-1.472444000">
        <ele>74.503</ele>
        <time>2020-06-01T07:29:08Z</time>
      </trkpt>
      <trkpt lat="48.254915000" lon="-1.472492000">
        <ele>74.635</ele>
        <time>2020-06-01T07:29:08Z</time>
      </trkpt>
      <trkpt lat="48.254912000" lon="-1.472467000">
        <ele>74.616</ele>
        <time>2020-06-01T07:29:08Z</time>
      </trkpt>
      <trkpt lat="48.254950000" lon="-1.472568000">
        <ele>74.531</ele>
        <time>2020-06-01T07:29:08Z</time>
      </trkpt>
      <trkpt lat="48.254940000" lon="-1.472554000">
        <ele>74.578</ele>
        <time>2020-06-01T07:29:08Z</time>
      </trkpt>
      <trkpt lat="48.254930000" lon="-1.472568000">
        <ele>74.670</ele>
        <time>2020-06-01T07:29:08Z</time>
      </trkpt>
      <trkpt lat="48.254946000" lon="-1.472582000">
        <ele>74.591</ele>
        <time>2020-06-01T07:29:08Z</time>
      </trkpt>
      <trkpt lat="48.255030000" lon="-1.472564000">
        <ele>73.978</ele>
        <time>2020-06-01T07:29:08Z</time>
      </trkpt>
      <trkpt lat="48.255382000" lon="-1.472425000">
        <ele>71.393</ele>
        <time>2020-06-01T07:29:08Z</time>
      </trkpt>
      <trkpt lat="48.255847000" lon="-1.472187000">
        <ele>71.659</ele>
        <time>2020-06-01T07:29:08Z</time>
      </trkpt>
      <trkpt lat="48.256026000" lon="-1.472135000">
        <ele>73.454</ele>
        <time>2020-06-01T07:29:08Z</time>
      </trkpt>
      <trkpt lat="48.256081000" lon="-1.472139000">
        <ele>73.948</ele>
        <time>2020-06-01T07:29:08Z</time>
      </trkpt>
      <trkpt lat="48.256169000" lon="-1.472190000">
        <ele>74.580</ele>
        <time>2020-06-01T07:29:08Z</time>
      </trkpt>
      <trkpt lat="48.256246000" lon="-1.472371000">
        <ele>74.566</ele>
        <time>2020-06-01T07:29:08Z</time>
      </trkpt>
      <trkpt lat="48.256275000" lon="-1.472736000">
        <ele>73.485</ele>
        <time>2020-06-01T07:29:08Z</time>
      </trkpt>
      <trkpt lat="48.256278000" lon="-1.473054000">
        <ele>72.972</ele>
        <time>2020-06-01T07:29:08Z</time>
      </trkpt>
      <trkpt lat="48.256260000" lon="-1.473041000">
        <ele>72.780</ele>
        <time>2020-06-01T07:29:08Z</time>
      </trkpt>
      <trkpt lat="48.256306000" lon="-1.473188000">
        <ele>73.053</ele>
        <time>2020-06-01T07:29:08Z</time>
      </trkpt>
      <trkpt lat="48.256515000" lon="-1.474090000">
        <ele>72.375</ele>
        <time>2020-06-01T07:29:08Z</time>
      </trkpt>
      <trkpt lat="48.256595000" lon="-1.474640000">
        <ele>72.276</ele>
        <time>2020-06-01T07:29:08Z</time>
      </trkpt>
      <trkpt lat="48.256635000" lon="-1.474832000">
        <ele>72.162</ele>
        <time>2020-06-01T07:29:08Z</time>
      </trkpt>
      <trkpt lat="48.256680000" lon="-1.474951000">
        <ele>72.314</ele>
        <time>2020-06-01T07:29:08Z</time>
      </trkpt>
      <trkpt lat="48.256876000" lon="-1.475257000">
        <ele>73.638</ele>
        <time>2020-06-01T07:29:08Z</time>
      </trkpt>
      <trkpt lat="48.257142000" lon="-1.475553000">
        <ele>76.287</ele>
        <time>2020-06-01T07:29:08Z</time>
      </trkpt>
      <trkpt lat="48.257320000" lon="-1.475825000">
        <ele>78.167</ele>
        <time>2020-06-01T07:29:08Z</time>
      </trkpt>
      <trkpt lat="48.257424000" lon="-1.476202000">
        <ele>77.464</ele>
        <time>2020-06-01T07:29:08Z</time>
      </trkpt>
      <trkpt lat="48.257558000" lon="-1.476568000">
        <ele>76.781</ele>
        <time>2020-06-01T07:29:08Z</time>
      </trkpt>
      <trkpt lat="48.257706000" lon="-1.477110000">
        <ele>76.285</ele>
        <time>2020-06-01T07:29:08Z</time>
      </trkpt>
      <trkpt lat="48.257785000" lon="-1.477473000">
        <ele>75.021</ele>
        <time>2020-06-01T07:29:08Z</time>
      </trkpt>
      <trkpt lat="48.257869000" lon="-1.477661000">
        <ele>73.636</ele>
        <time>2020-06-01T07:29:08Z</time>
      </trkpt>
      <trkpt lat="48.258075000" lon="-1.477659000">
        <ele>73.111</ele>
        <time>2020-06-01T07:29:08Z</time>
      </trkpt>
      <trkpt lat="48.258285000" lon="-1.477601000">
        <ele>72.897</ele>
        <time>2020-06-01T07:29:08Z</time>
      </trkpt>
      <trkpt lat="48.258494000" lon="-1.477444000">
        <ele>72.673</ele>
        <time>2020-06-01T07:29:08Z</time>
      </trkpt>
      <trkpt lat="48.258725000" lon="-1.477300000">
        <ele>73.230</ele>
        <time>2020-06-01T07:29:08Z</time>
      </trkpt>
      <trkpt lat="48.258900000" lon="-1.477332000">
        <ele>73.555</ele>
        <time>2020-06-01T07:29:08Z</time>
      </trkpt>
      <trkpt lat="48.259286000" lon="-1.477548000">
        <ele>76.304</ele>
        <time>2020-06-01T07:29:08Z</time>
      </trkpt>
      <trkpt lat="48.259342000" lon="-1.477555000">
        <ele>76.919</ele>
        <time>2020-06-01T07:29:08Z</time>
      </trkpt>
      <trkpt lat="48.259465000" lon="-1.477513000">
        <ele>78.178</ele>
        <time>2020-06-01T07:29:08Z</time>
      </trkpt>
      <trkpt lat="48.259504000" lon="-1.477484000">
        <ele>78.543</ele>
        <time>2020-06-01T07:29:08Z</time>
      </trkpt>
      <trkpt lat="48.259570000" lon="-1.477468000">
        <ele>79.155</ele>
        <time>2020-06-01T07:29:08Z</time>
      </trkpt>
      <trkpt lat="48.259836000" lon="-1.477212000">
        <ele>81.463</ele>
        <time>2020-06-01T07:29:08Z</time>
      </trkpt>
      <trkpt lat="48.260001000" lon="-1.477134000">
        <ele>83.096</ele>
        <time>2020-06-01T07:29:08Z</time>
      </trkpt>
      <trkpt lat="48.260558000" lon="-1.477260000">
        <ele>87.162</ele>
        <time>2020-06-01T07:29:08Z</time>
      </trkpt>
      <trkpt lat="48.260766000" lon="-1.477275000">
        <ele>88.556</ele>
        <time>2020-06-01T07:29:08Z</time>
      </trkpt>
      <trkpt lat="48.260865000" lon="-1.477256000">
        <ele>89.177</ele>
        <time>2020-06-01T07:29:08Z</time>
      </trkpt>
      <trkpt lat="48.261064000" lon="-1.477163000">
        <ele>90.323</ele>
        <time>2020-06-01T07:29:08Z</time>
      </trkpt>
      <trkpt lat="48.261300000" lon="-1.476952000">
        <ele>91.515</ele>
        <time>2020-06-01T07:29:08Z</time>
      </trkpt>
      <trkpt lat="48.261364000" lon="-1.476853000">
        <ele>91.791</ele>
        <time>2020-06-01T07:29:08Z</time>
      </trkpt>
      <trkpt lat="48.261699000" lon="-1.476493000">
        <ele>93.398</ele>
        <time>2020-06-01T07:29:08Z</time>
      </trkpt>
      <trkpt lat="48.261696000" lon="-1.476453000">
        <ele>93.264</ele>
        <time>2020-06-01T07:29:08Z</time>
      </trkpt>
      <trkpt lat="48.261698000" lon="-1.476464000">
        <ele>93.307</ele>
        <time>2020-06-01T07:29:08Z</time>
      </trkpt>
      <trkpt lat="48.261948000" lon="-1.476290000">
        <ele>94.558</ele>
        <time>2020-06-01T07:29:08Z</time>
      </trkpt>
      <trkpt lat="48.262292000" lon="-1.476087000">
        <ele>95.909</ele>
        <time>2020-06-01T07:29:08Z</time>
      </trkpt>
      <trkpt lat="48.262533000" lon="-1.475912000">
        <ele>96.387</ele>
        <time>2020-06-01T07:29:08Z</time>
      </trkpt>
      <trkpt lat="48.262795000" lon="-1.475667000">
        <ele>96.957</ele>
        <time>2020-06-01T07:29:08Z</time>
      </trkpt>
      <trkpt lat="48.262863000" lon="-1.475623000">
        <ele>97.124</ele>
        <time>2020-06-01T07:29:08Z</time>
      </trkpt>
      <trkpt lat="48.262894000" lon="-1.475626000">
        <ele>97.242</ele>
        <time>2020-06-01T07:29:08Z</time>
      </trkpt>
      <trkpt lat="48.262912000" lon="-1.475648000">
        <ele>97.351</ele>
        <time>2020-06-01T07:29:08Z</time>
      </trkpt>
      <trkpt lat="48.262938000" lon="-1.475759000">
        <ele>97.696</ele>
        <time>2020-06-01T07:29:08Z</time>
      </trkpt>
      <trkpt lat="48.263239000" lon="-1.478372000">
        <ele>100.685</ele>
        <time>2020-06-01T07:29:08Z</time>
      </trkpt>
      <trkpt lat="48.263253000" lon="-1.478617000">
        <ele>100.640</ele>
        <time>2020-06-01T07:29:08Z</time>
      </trkpt>
      <trkpt lat="48.263298000" lon="-1.478853000">
        <ele>100.520</ele>
        <time>2020-06-01T07:29:08Z</time>
      </trkpt>
      <trkpt lat="48.263568000" lon="-1.480681000">
        <ele>100.370</ele>
        <time>2020-06-01T07:29:08Z</time>
      </trkpt>
      <trkpt lat="48.263665000" lon="-1.481455000">
        <ele>99.560</ele>
        <time>2020-06-01T07:29:08Z</time>
      </trkpt>
      <trkpt lat="48.263703000" lon="-1.481986000">
        <ele>99.190</ele>
        <time>2020-06-01T07:29:08Z</time>
      </trkpt>
      <trkpt lat="48.263700000" lon="-1.482738000">
        <ele>99.657</ele>
        <time>2020-06-01T07:29:08Z</time>
      </trkpt>
      <trkpt lat="48.263620000" lon="-1.483401000">
        <ele>99.414</ele>
        <time>2020-06-01T07:29:08Z</time>
      </trkpt>
      <trkpt lat="48.263547000" lon="-1.483827000">
        <ele>99.315</ele>
        <time>2020-06-01T07:29:08Z</time>
      </trkpt>
      <trkpt lat="48.263554000" lon="-1.483888000">
        <ele>99.243</ele>
        <time>2020-06-01T07:29:08Z</time>
      </trkpt>
      <trkpt lat="48.263623000" lon="-1.483915000">
        <ele>98.939</ele>
        <time>2020-06-01T07:29:08Z</time>
      </trkpt>
      <trkpt lat="48.263866000" lon="-1.483817000">
        <ele>98.064</ele>
        <time>2020-06-01T07:29:08Z</time>
      </trkpt>
      <trkpt lat="48.264064000" lon="-1.483716000">
        <ele>97.158</ele>
        <time>2020-06-01T07:29:08Z</time>
      </trkpt>
      <trkpt lat="48.264675000" lon="-1.483455000">
        <ele>92.520</ele>
        <time>2020-06-01T07:29:08Z</time>
      </trkpt>
      <trkpt lat="48.264849000" lon="-1.483364000">
        <ele>90.822</ele>
        <time>2020-06-01T07:29:08Z</time>
      </trkpt>
      <trkpt lat="48.265467000" lon="-1.483112000">
        <ele>84.487</ele>
        <time>2020-06-01T07:29:08Z</time>
      </trkpt>
      <trkpt lat="48.265635000" lon="-1.483084000">
        <ele>82.697</ele>
        <time>2020-06-01T07:29:08Z</time>
      </trkpt>
      <trkpt lat="48.265990000" lon="-1.483108000">
        <ele>79.628</ele>
        <time>2020-06-01T07:29:08Z</time>
      </trkpt>
      <trkpt lat="48.266268000" lon="-1.483152000">
        <ele>77.628</ele>
        <time>2020-06-01T07:29:08Z</time>
      </trkpt>
      <trkpt lat="48.266505000" lon="-1.483287000">
        <ele>75.907</ele>
        <time>2020-06-01T07:29:08Z</time>
      </trkpt>
      <trkpt lat="48.266550000" lon="-1.483331000">
        <ele>75.601</ele>
        <time>2020-06-01T07:29:08Z</time>
      </trkpt>
      <trkpt lat="48.266718000" lon="-1.483582000">
        <ele>75.021</ele>
        <time>2020-06-01T07:29:08Z</time>
      </trkpt>
      <trkpt lat="48.266934000" lon="-1.484005000">
        <ele>75.608</ele>
        <time>2020-06-01T07:29:08Z</time>
      </trkpt>
      <trkpt lat="48.267105000" lon="-1.484217000">
        <ele>76.600</ele>
        <time>2020-06-01T07:29:08Z</time>
      </trkpt>
      <trkpt lat="48.267459000" lon="-1.484592000">
        <ele>78.280</ele>
        <time>2020-06-01T07:29:08Z</time>
      </trkpt>
      <trkpt lat="48.268125000" lon="-1.485216000">
        <ele>81.995</ele>
        <time>2020-06-01T07:29:08Z</time>
      </trkpt>
      <trkpt lat="48.268336000" lon="-1.485369000">
        <ele>83.280</ele>
        <time>2020-06-01T07:29:08Z</time>
      </trkpt>
      <trkpt lat="48.268423000" lon="-1.485460000">
        <ele>83.680</ele>
        <time>2020-06-01T07:29:08Z</time>
      </trkpt>
      <trkpt lat="48.268575000" lon="-1.485669000">
        <ele>84.390</ele>
        <time>2020-06-01T07:29:08Z</time>
      </trkpt>
      <trkpt lat="48.268608000" lon="-1.485674000">
        <ele>84.540</ele>
        <time>2020-06-01T07:29:08Z</time>
      </trkpt>
      <trkpt lat="48.268630000" lon="-1.485646000">
        <ele>84.630</ele>
        <time>2020-06-01T07:29:08Z</time>
      </trkpt>
      <trkpt lat="48.268719000" lon="-1.485350000">
        <ele>84.980</ele>
        <time>2020-06-01T07:29:08Z</time>
      </trkpt>
      <trkpt lat="48.268794000" lon="-1.484880000">
        <ele>85.250</ele>
        <time>2020-06-01T07:29:08Z</time>
      </trkpt>
      <trkpt lat="48.268936000" lon="-1.484440000">
        <ele>85.820</ele>
        <time>2020-06-01T07:29:08Z</time>
      </trkpt>
      <trkpt lat="48.269150000" lon="-1.483608000">
        <ele>86.506</ele>
        <time>2020-06-01T07:29:08Z</time>
      </trkpt>
      <trkpt lat="48.269284000" lon="-1.483308000">
        <ele>87.263</ele>
        <time>2020-06-01T07:29:08Z</time>
      </trkpt>
      <trkpt lat="48.269422000" lon="-1.483065000">
        <ele>88.185</ele>
        <time>2020-06-01T07:29:08Z</time>
      </trkpt>
      <trkpt lat="48.269717000" lon="-1.482912000">
        <ele>90.338</ele>
        <time>2020-06-01T07:29:08Z</time>
      </trkpt>
      <trkpt lat="48.269940000" lon="-1.482839000">
        <ele>91.451</ele>
        <time>2020-06-01T07:29:08Z</time>
      </trkpt>
      <trkpt lat="48.270214000" lon="-1.482711000">
        <ele>92.870</ele>
        <time>2020-06-01T07:29:08Z</time>
      </trkpt>
      <trkpt lat="48.270365000" lon="-1.482620000">
        <ele>93.671</ele>
        <time>2020-06-01T07:29:08Z</time>
      </trkpt>
      <trkpt lat="48.270393000" lon="-1.482638000">
        <ele>93.777</ele>
        <time>2020-06-01T07:29:08Z</time>
      </trkpt>
      <trkpt lat="48.270515000" lon="-1.482910000">
        <ele>93.967</ele>
        <time>2020-06-01T07:29:08Z</time>
      </trkpt>
      <trkpt lat="48.270638000" lon="-1.483392000">
        <ele>93.810</ele>
        <time>2020-06-01T07:29:08Z</time>
      </trkpt>
      <trkpt lat="48.270834000" lon="-1.484457000">
        <ele>93.348</ele>
        <time>2020-06-01T07:29:08Z</time>
      </trkpt>
      <trkpt lat="48.270960000" lon="-1.484889000">
        <ele>93.350</ele>
        <time>2020-06-01T07:29:08Z</time>
      </trkpt>
      <trkpt lat="48.271541000" lon="-1.486275000">
        <ele>92.980</ele>
        <time>2020-06-01T07:29:08Z</time>
      </trkpt>
      <trkpt lat="48.271672000" lon="-1.486664000">
        <ele>93.244</ele>
        <time>2020-06-01T07:29:08Z</time>
      </trkpt>
      <trkpt lat="48.271858000" lon="-1.487311000">
        <ele>93.220</ele>
        <time>2020-06-01T07:29:08Z</time>
      </trkpt>
      <trkpt lat="48.271974000" lon="-1.487566000">
        <ele>93.770</ele>
        <time>2020-06-01T07:29:08Z</time>
      </trkpt>
      <trkpt lat="48.272274000" lon="-1.488489000">
        <ele>95.000</ele>
        <time>2020-06-01T07:29:08Z</time>
      </trkpt>
      <trkpt lat="48.272353000" lon="-1.488765000">
        <ele>94.912</ele>
        <time>2020-06-01T07:29:08Z</time>
      </trkpt>
      <trkpt lat="48.272484000" lon="-1.488908000">
        <ele>94.874</ele>
        <time>2020-06-01T07:29:08Z</time>
      </trkpt>
      <trkpt lat="48.272717000" lon="-1.489085000">
        <ele>94.937</ele>
        <time>2020-06-01T07:29:08Z</time>
      </trkpt>
      <trkpt lat="48.272955000" lon="-1.489193000">
        <ele>94.794</ele>
        <time>2020-06-01T07:29:08Z</time>
      </trkpt>
      <trkpt lat="48.273383000" lon="-1.489216000">
        <ele>94.250</ele>
        <time>2020-06-01T07:29:08Z</time>
      </trkpt>
      <trkpt lat="48.273567000" lon="-1.489269000">
        <ele>93.955</ele>
        <time>2020-06-01T07:29:08Z</time>
      </trkpt>
      <trkpt lat="48.273611000" lon="-1.489299000">
        <ele>93.855</ele>
        <time>2020-06-01T07:29:08Z</time>
      </trkpt>
      <trkpt lat="48.273787000" lon="-1.489243000">
        <ele>93.465</ele>
        <time>2020-06-01T07:29:08Z</time>
      </trkpt>
      <trkpt lat="48.273985000" lon="-1.489086000">
        <ele>93.040</ele>
        <time>2020-06-01T07:29:08Z</time>
      </trkpt>
      <trkpt lat="48.274037000" lon="-1.489025000">
        <ele>92.925</ele>
        <time>2020-06-01T07:29:08Z</time>
      </trkpt>
      <trkpt lat="48.274124000" lon="-1.488980000">
        <ele>92.735</ele>
        <time>2020-06-01T07:29:08Z</time>
      </trkpt>
      <trkpt lat="48.274373000" lon="-1.488920000">
        <ele>92.190</ele>
        <time>2020-06-01T07:29:08Z</time>
      </trkpt>
      <trkpt lat="48.274413000" lon="-1.488859000">
        <ele>92.105</ele>
        <time>2020-06-01T07:29:08Z</time>
      </trkpt>
      <trkpt lat="48.274490000" lon="-1.488627000">
        <ele>91.950</ele>
        <time>2020-06-01T07:29:08Z</time>
      </trkpt>
      <trkpt lat="48.274464000" lon="-1.488430000">
        <ele>92.020</ele>
        <time>2020-06-01T07:29:08Z</time>
      </trkpt>
      <trkpt lat="48.274372000" lon="-1.488019000">
        <ele>92.452</ele>
        <time>2020-06-01T07:29:08Z</time>
      </trkpt>
      <trkpt lat="48.274364000" lon="-1.487579000">
        <ele>93.154</ele>
        <time>2020-06-01T07:29:08Z</time>
      </trkpt>
      <trkpt lat="48.274375000" lon="-1.487131000">
        <ele>93.829</ele>
        <time>2020-06-01T07:29:08Z</time>
      </trkpt>
      <trkpt lat="48.274359000" lon="-1.486733000">
        <ele>94.478</ele>
        <time>2020-06-01T07:29:08Z</time>
      </trkpt>
      <trkpt lat="48.274361000" lon="-1.486467000">
        <ele>94.887</ele>
        <time>2020-06-01T07:29:08Z</time>
      </trkpt>
      <trkpt lat="48.274477000" lon="-1.486198000">
        <ele>95.064</ele>
        <time>2020-06-01T07:29:08Z</time>
      </trkpt>
      <trkpt lat="48.274799000" lon="-1.485895000">
        <ele>94.853</ele>
        <time>2020-06-01T07:29:08Z</time>
      </trkpt>
      <trkpt lat="48.275025000" lon="-1.485579000">
        <ele>94.829</ele>
        <time>2020-06-01T07:29:08Z</time>
      </trkpt>
      <trkpt lat="48.275154000" lon="-1.485306000">
        <ele>94.232</ele>
        <time>2020-06-01T07:29:08Z</time>
      </trkpt>
      <trkpt lat="48.275195000" lon="-1.484991000">
        <ele>94.211</ele>
        <time>2020-06-01T07:29:08Z</time>
      </trkpt>
      <trkpt lat="48.275188000" lon="-1.484842000">
        <ele>94.339</ele>
        <time>2020-06-01T07:29:08Z</time>
      </trkpt>
      <trkpt lat="48.274962000" lon="-1.483717000">
        <ele>96.255</ele>
        <time>2020-06-01T07:29:08Z</time>
      </trkpt>
      <trkpt lat="48.274957000" lon="-1.483416000">
        <ele>96.290</ele>
        <time>2020-06-01T07:29:08Z</time>
      </trkpt>
      <trkpt lat="48.275032000" lon="-1.482906000">
        <ele>96.160</ele>
        <time>2020-06-01T07:29:08Z</time>
      </trkpt>
      <trkpt lat="48.275080000" lon="-1.482273000">
        <ele>94.579</ele>
        <time>2020-06-01T07:29:08Z</time>
      </trkpt>
      <trkpt lat="48.275096000" lon="-1.482258000">
        <ele>94.480</ele>
        <time>2020-06-01T07:29:08Z</time>
      </trkpt>
      <trkpt lat="48.275085000" lon="-1.482270000">
        <ele>94.552</ele>
        <time>2020-06-01T07:29:08Z</time>
      </trkpt>
      <trkpt lat="48.275041000" lon="-1.481791000">
        <ele>93.934</ele>
        <time>2020-06-01T07:29:08Z</time>
      </trkpt>
      <trkpt lat="48.275003000" lon="-1.480758000">
        <ele>93.127</ele>
        <time>2020-06-01T07:29:08Z</time>
      </trkpt>
      <trkpt lat="48.274748000" lon="-1.479551000">
        <ele>94.036</ele>
        <time>2020-06-01T07:29:08Z</time>
      </trkpt>
      <trkpt lat="48.274669000" lon="-1.479069000">
        <ele>94.622</ele>
        <time>2020-06-01T07:29:08Z</time>
      </trkpt>
      <trkpt lat="48.274534000" lon="-1.478498000">
        <ele>95.139</ele>
        <time>2020-06-01T07:29:08Z</time>
      </trkpt>
      <trkpt lat="48.274497000" lon="-1.478113000">
        <ele>95.275</ele>
        <time>2020-06-01T07:29:08Z</time>
      </trkpt>
      <trkpt lat="48.274583000" lon="-1.477668000">
        <ele>96.037</ele>
        <time>2020-06-01T07:29:08Z</time>
      </trkpt>
      <trkpt lat="48.274721000" lon="-1.477217000">
        <ele>96.996</ele>
        <time>2020-06-01T07:29:08Z</time>
      </trkpt>
      <trkpt lat="48.274715000" lon="-1.476836000">
        <ele>97.520</ele>
        <time>2020-06-01T07:29:08Z</time>
      </trkpt>
      <trkpt lat="48.274882000" lon="-1.475413000">
        <ele>98.022</ele>
        <time>2020-06-01T07:29:08Z</time>
      </trkpt>
      <trkpt lat="48.274944000" lon="-1.474589000">
        <ele>98.082</ele>
        <time>2020-06-01T07:29:08Z</time>
      </trkpt>
      <trkpt lat="48.275368000" lon="-1.473580000">
        <ele>98.440</ele>
        <time>2020-06-01T07:29:08Z</time>
      </trkpt>
      <trkpt lat="48.275492000" lon="-1.473342000">
        <ele>97.240</ele>
        <time>2020-06-01T07:29:08Z</time>
      </trkpt>
      <trkpt lat="48.275593000" lon="-1.473211000">
        <ele>95.987</ele>
        <time>2020-06-01T07:29:08Z</time>
      </trkpt>
      <trkpt lat="48.275679000" lon="-1.473165000">
        <ele>94.853</ele>
        <time>2020-06-01T07:29:08Z</time>
      </trkpt>
      <trkpt lat="48.275788000" lon="-1.473145000">
        <ele>93.375</ele>
        <time>2020-06-01T07:29:08Z</time>
      </trkpt>
      <trkpt lat="48.275842000" lon="-1.473152000">
        <ele>92.717</ele>
        <time>2020-06-01T07:29:08Z</time>
      </trkpt>
      <trkpt lat="48.275983000" lon="-1.473233000">
        <ele>91.578</ele>
        <time>2020-06-01T07:29:08Z</time>
      </trkpt>
      <trkpt lat="48.276182000" lon="-1.473526000">
        <ele>90.913</ele>
        <time>2020-06-01T07:29:08Z</time>
      </trkpt>
      <trkpt lat="48.276341000" lon="-1.474050000">
        <ele>91.734</ele>
        <time>2020-06-01T07:29:08Z</time>
      </trkpt>
      <trkpt lat="48.276446000" lon="-1.474460000">
        <ele>91.724</ele>
        <time>2020-06-01T07:29:08Z</time>
      </trkpt>
      <trkpt lat="48.276505000" lon="-1.474747000">
        <ele>91.480</ele>
        <time>2020-06-01T07:29:08Z</time>
      </trkpt>
      <trkpt lat="48.276527000" lon="-1.474791000">
        <ele>91.091</ele>
        <time>2020-06-01T07:29:08Z</time>
      </trkpt>
      <trkpt lat="48.276669000" lon="-1.474904000">
        <ele>88.104</ele>
        <time>2020-06-01T07:29:08Z</time>
      </trkpt>
      <trkpt lat="48.276989000" lon="-1.474934000">
        <ele>83.354</ele>
        <time>2020-06-01T07:29:08Z</time>
      </trkpt>
      <trkpt lat="48.276911000" lon="-1.474680000">
        <ele>84.304</ele>
        <time>2020-06-01T07:29:08Z</time>
      </trkpt>
      <trkpt lat="48.276805000" lon="-1.474011000">
        <ele>84.628</ele>
        <time>2020-06-01T07:29:08Z</time>
      </trkpt>
      <trkpt lat="48.276722000" lon="-1.473205000">
        <ele>82.743</ele>
        <time>2020-06-01T07:29:08Z</time>
      </trkpt>
      <trkpt lat="48.276482000" lon="-1.472082000">
        <ele>81.755</ele>
        <time>2020-06-01T07:29:08Z</time>
      </trkpt>
      <trkpt lat="48.276296000" lon="-1.471343000">
        <ele>81.256</ele>
        <time>2020-06-01T07:29:08Z</time>
      </trkpt>
      <trkpt lat="48.275962000" lon="-1.470150000">
        <ele>79.300</ele>
        <time>2020-06-01T07:29:08Z</time>
      </trkpt>
      <trkpt lat="48.275595000" lon="-1.469455000">
        <ele>80.884</ele>
        <time>2020-06-01T07:29:08Z</time>
      </trkpt>
      <trkpt lat="48.275670000" lon="-1.468239000">
        <ele>79.590</ele>
        <time>2020-06-01T07:29:08Z</time>
      </trkpt>
      <trkpt lat="48.275611000" lon="-1.467450000">
        <ele>79.133</ele>
        <time>2020-06-01T07:29:08Z</time>
      </trkpt>
      <trkpt lat="48.275318000" lon="-1.466277000">
        <ele>79.895</ele>
        <time>2020-06-01T07:29:08Z</time>
      </trkpt>
      <trkpt lat="48.275182000" lon="-1.465473000">
        <ele>80.284</ele>
        <time>2020-06-01T07:29:08Z</time>
      </trkpt>
      <trkpt lat="48.275174000" lon="-1.464479000">
        <ele>79.510</ele>
        <time>2020-06-01T07:29:08Z</time>
      </trkpt>
      <trkpt lat="48.275288000" lon="-1.463437000">
        <ele>79.734</ele>
        <time>2020-06-01T07:29:08Z</time>
      </trkpt>
      <trkpt lat="48.275572000" lon="-1.462585000">
        <ele>80.328</ele>
        <time>2020-06-01T07:29:08Z</time>
      </trkpt>
      <trkpt lat="48.275721000" lon="-1.461459000">
        <ele>82.149</ele>
        <time>2020-06-01T07:29:08Z</time>
      </trkpt>
      <trkpt lat="48.275671000" lon="-1.460216000">
        <ele>83.480</ele>
        <time>2020-06-01T07:29:08Z</time>
      </trkpt>
      <trkpt lat="48.275585000" lon="-1.458875000">
        <ele>83.980</ele>
        <time>2020-06-01T07:29:08Z</time>
      </trkpt>
      <trkpt lat="48.275614000" lon="-1.457514000">
        <ele>85.466</ele>
        <time>2020-06-01T07:29:08Z</time>
      </trkpt>
      <trkpt lat="48.276037000" lon="-1.458006000">
        <ele>82.066</ele>
        <time>2020-06-01T07:29:08Z</time>
      </trkpt>
      <trkpt lat="48.276766000" lon="-1.458236000">
        <ele>77.817</ele>
        <time>2020-06-01T07:29:08Z</time>
      </trkpt>
      <trkpt lat="48.277483000" lon="-1.458635000">
        <ele>76.764</ele>
        <time>2020-06-01T07:29:08Z</time>
      </trkpt>
      <trkpt lat="48.277983000" lon="-1.458782000">
        <ele>78.190</ele>
        <time>2020-06-01T07:29:08Z</time>
      </trkpt>
      <trkpt lat="48.278592000" lon="-1.458717000">
        <ele>83.136</ele>
        <time>2020-06-01T07:29:08Z</time>
      </trkpt>
      <trkpt lat="48.278299000" lon="-1.458224000">
        <ele>85.337</ele>
        <time>2020-06-01T07:29:08Z</time>
      </trkpt>
      <trkpt lat="48.278254000" lon="-1.456741000">
        <ele>88.203</ele>
        <time>2020-06-01T07:29:08Z</time>
      </trkpt>
      <trkpt lat="48.278585000" lon="-1.454566000">
        <ele>93.951</ele>
        <time>2020-06-01T07:29:08Z</time>
      </trkpt>
      <trkpt lat="48.277295000" lon="-1.455015000">
        <ele>82.595</ele>
        <time>2020-06-01T07:29:08Z</time>
      </trkpt>
      <trkpt lat="48.277105000" lon="-1.454485000">
        <ele>81.350</ele>
        <time>2020-06-01T07:29:08Z</time>
      </trkpt>
      <trkpt lat="48.277252000" lon="-1.454010000">
        <ele>82.374</ele>
        <time>2020-06-01T07:29:08Z</time>
      </trkpt>
      <trkpt lat="48.277232000" lon="-1.453729000">
        <ele>83.681</ele>
        <time>2020-06-01T07:29:08Z</time>
      </trkpt>
      <trkpt lat="48.277301000" lon="-1.453506000">
        <ele>85.554</ele>
        <time>2020-06-01T07:29:08Z</time>
      </trkpt>
      <trkpt lat="48.277167000" lon="-1.453171000">
        <ele>86.632</ele>
        <time>2020-06-01T07:29:08Z</time>
      </trkpt>
      <trkpt lat="48.276896000" lon="-1.451094000">
        <ele>90.859</ele>
        <time>2020-06-01T07:29:08Z</time>
      </trkpt>
      <trkpt lat="48.276737000" lon="-1.450064000">
        <ele>88.714</ele>
        <time>2020-06-01T07:29:08Z</time>
      </trkpt>
      <trkpt lat="48.276572000" lon="-1.449475000">
        <ele>85.899</ele>
        <time>2020-06-01T07:29:08Z</time>
      </trkpt>
      <trkpt lat="48.276334000" lon="-1.449085000">
        <ele>83.783</ele>
        <time>2020-06-01T07:29:08Z</time>
      </trkpt>
      <trkpt lat="48.276191000" lon="-1.448748000">
        <ele>83.309</ele>
        <time>2020-06-01T07:29:08Z</time>
      </trkpt>
      <trkpt lat="48.276426000" lon="-1.447749000">
        <ele>86.245</ele>
        <time>2020-06-01T07:29:08Z</time>
      </trkpt>
      <trkpt lat="48.276446000" lon="-1.447571000">
        <ele>86.335</ele>
        <time>2020-06-01T07:29:08Z</time>
      </trkpt>
      <trkpt lat="48.276451000" lon="-1.447384000">
        <ele>86.335</ele>
        <time>2020-06-01T07:29:08Z</time>
      </trkpt>
      <trkpt lat="48.276515000" lon="-1.446972000">
        <ele>86.971</ele>
        <time>2020-06-01T07:29:08Z</time>
      </trkpt>
      <trkpt lat="48.276540000" lon="-1.446720000">
        <ele>87.467</ele>
        <time>2020-06-01T07:29:08Z</time>
      </trkpt>
      <trkpt lat="48.276545000" lon="-1.446426000">
        <ele>87.923</ele>
        <time>2020-06-01T07:29:08Z</time>
      </trkpt>
      <trkpt lat="48.276510000" lon="-1.446210000">
        <ele>88.127</ele>
        <time>2020-06-01T07:29:08Z</time>
      </trkpt>
      <trkpt lat="48.276507000" lon="-1.446096000">
        <ele>88.346</ele>
        <time>2020-06-01T07:29:08Z</time>
      </trkpt>
      <trkpt lat="48.276538000" lon="-1.445852000">
        <ele>89.004</ele>
        <time>2020-06-01T07:29:08Z</time>
      </trkpt>
      <trkpt lat="48.276555000" lon="-1.445524000">
        <ele>89.537</ele>
        <time>2020-06-01T07:29:08Z</time>
      </trkpt>
      <trkpt lat="48.276532000" lon="-1.445462000">
        <ele>89.517</ele>
        <time>2020-06-01T07:29:08Z</time>
      </trkpt>
      <trkpt lat="48.276503000" lon="-1.445146000">
        <ele>89.817</ele>
        <time>2020-06-01T07:29:08Z</time>
      </trkpt>
      <trkpt lat="48.276349000" lon="-1.444521000">
        <ele>89.952</ele>
        <time>2020-06-01T07:29:08Z</time>
      </trkpt>
      <trkpt lat="48.276318000" lon="-1.444278000">
        <ele>90.389</ele>
        <time>2020-06-01T07:29:08Z</time>
      </trkpt>
      <trkpt lat="48.276347000" lon="-1.444181000">
        <ele>90.817</ele>
        <time>2020-06-01T07:29:08Z</time>
      </trkpt>
      <trkpt lat="48.276348000" lon="-1.444091000">
        <ele>91.070</ele>
        <time>2020-06-01T07:29:08Z</time>
      </trkpt>
      <trkpt lat="48.276310000" lon="-1.443922000">
        <ele>91.291</ele>
        <time>2020-06-01T07:29:08Z</time>
      </trkpt>
      <trkpt lat="48.276326000" lon="-1.443893000">
        <ele>91.461</ele>
        <time>2020-06-01T07:29:08Z</time>
      </trkpt>
      <trkpt lat="48.276186000" lon="-1.443476000">
        <ele>91.635</ele>
        <time>2020-06-01T07:29:08Z</time>
      </trkpt>
      <trkpt lat="48.276112000" lon="-1.443158000">
        <ele>92.007</ele>
        <time>2020-06-01T07:29:08Z</time>
      </trkpt>
      <trkpt lat="48.276026000" lon="-1.442977000">
        <ele>91.733</ele>
        <time>2020-06-01T07:29:08Z</time>
      </trkpt>
      <trkpt lat="48.275921000" lon="-1.442564000">
        <ele>91.557</ele>
        <time>2020-06-01T07:29:08Z</time>
      </trkpt>
      <trkpt lat="48.275887000" lon="-1.442486000">
        <ele>91.429</ele>
        <time>2020-06-01T07:29:08Z</time>
      </trkpt>
      <trkpt lat="48.275693000" lon="-1.442210000">
        <ele>90.450</ele>
        <time>2020-06-01T07:29:08Z</time>
      </trkpt>
      <trkpt lat="48.275482000" lon="-1.441986000">
        <ele>89.534</ele>
        <time>2020-06-01T07:29:08Z</time>
      </trkpt>
      <trkpt lat="48.275367000" lon="-1.441786000">
        <ele>89.555</ele>
        <time>2020-06-01T07:29:08Z</time>
      </trkpt>
      <trkpt lat="48.275200000" lon="-1.441331000">
        <ele>90.293</ele>
        <time>2020-06-01T07:29:08Z</time>
      </trkpt>
      <trkpt lat="48.275157000" lon="-1.441110000">
        <ele>90.829</ele>
        <time>2020-06-01T07:29:08Z</time>
      </trkpt>
      <trkpt lat="48.275166000" lon="-1.440961000">
        <ele>91.359</ele>
        <time>2020-06-01T07:29:08Z</time>
      </trkpt>
      <trkpt lat="48.275224000" lon="-1.440553000">
        <ele>93.293</ele>
        <time>2020-06-01T07:29:08Z</time>
      </trkpt>
      <trkpt lat="48.275166000" lon="-1.439602000">
        <ele>97.165</ele>
        <time>2020-06-01T07:29:08Z</time>
      </trkpt>
      <trkpt lat="48.275062000" lon="-1.439227000">
        <ele>96.880</ele>
        <time>2020-06-01T07:29:08Z</time>
      </trkpt>
      <trkpt lat="48.275003000" lon="-1.438957000">
        <ele>96.906</ele>
        <time>2020-06-01T07:29:08Z</time>
      </trkpt>
      <trkpt lat="48.274983000" lon="-1.438755000">
        <ele>97.024</ele>
        <time>2020-06-01T07:29:08Z</time>
      </trkpt>
      <trkpt lat="48.274937000" lon="-1.438612000">
        <ele>96.901</ele>
        <time>2020-06-01T07:29:08Z</time>
      </trkpt>
      <trkpt lat="48.274935000" lon="-1.438562000">
        <ele>96.945</ele>
        <time>2020-06-01T07:29:08Z</time>
      </trkpt>
      <trkpt lat="48.274958000" lon="-1.438482000">
        <ele>97.201</ele>
        <time>2020-06-01T07:29:08Z</time>
      </trkpt>
      <trkpt lat="48.275100000" lon="-1.438267000">
        <ele>98.421</ele>
        <time>2020-06-01T07:29:08Z</time>
      </trkpt>
      <trkpt lat="48.275188000" lon="-1.438069000">
        <ele>99.284</ele>
        <time>2020-06-01T07:29:08Z</time>
      </trkpt>
      <trkpt lat="48.275323000" lon="-1.437902000">
        <ele>100.410</ele>
        <time>2020-06-01T07:29:08Z</time>
      </trkpt>
      <trkpt lat="48.275411000" lon="-1.437658000">
        <ele>101.322</ele>
        <time>2020-06-01T07:29:08Z</time>
      </trkpt>
      <trkpt lat="48.275426000" lon="-1.437368000">
        <ele>101.978</ele>
        <time>2020-06-01T07:29:08Z</time>
      </trkpt>
      <trkpt lat="48.275413000" lon="-1.436814000">
        <ele>102.793</ele>
        <time>2020-06-01T07:29:08Z</time>
      </trkpt>
      <trkpt lat="48.275392000" lon="-1.436687000">
        <ele>102.739</ele>
        <time>2020-06-01T07:29:08Z</time>
      </trkpt>
      <trkpt lat="48.275394000" lon="-1.436507000">
        <ele>102.987</ele>
        <time>2020-06-01T07:29:08Z</time>
      </trkpt>
      <trkpt lat="48.275427000" lon="-1.436417000">
        <ele>103.384</ele>
        <time>2020-06-01T07:29:08Z</time>
      </trkpt>
      <trkpt lat="48.275425000" lon="-1.436333000">
        <ele>103.468</ele>
        <time>2020-06-01T07:29:08Z</time>
      </trkpt>
      <trkpt lat="48.275362000" lon="-1.436178000">
        <ele>103.048</ele>
        <time>2020-06-01T07:29:08Z</time>
      </trkpt>
      <trkpt lat="48.275293000" lon="-1.435957000">
        <ele>102.704</ele>
        <time>2020-06-01T07:29:08Z</time>
      </trkpt>
      <trkpt lat="48.275058000" lon="-1.435659000">
        <ele>100.514</ele>
        <time>2020-06-01T07:29:08Z</time>
      </trkpt>
      <trkpt lat="48.274882000" lon="-1.435526000">
        <ele>98.550</ele>
        <time>2020-06-01T07:29:08Z</time>
      </trkpt>
      <trkpt lat="48.274834000" lon="-1.435303000">
        <ele>97.980</ele>
        <time>2020-06-01T07:29:08Z</time>
      </trkpt>
      <trkpt lat="48.274916000" lon="-1.434932000">
        <ele>98.725</ele>
        <time>2020-06-01T07:29:08Z</time>
      </trkpt>
      <trkpt lat="48.275160000" lon="-1.434496000">
        <ele>101.939</ele>
        <time>2020-06-01T07:29:08Z</time>
      </trkpt>
      <trkpt lat="48.275169000" lon="-1.434408000">
        <ele>102.146</ele>
        <time>2020-06-01T07:29:08Z</time>
      </trkpt>
      <trkpt lat="48.275193000" lon="-1.434363000">
        <ele>102.465</ele>
        <time>2020-06-01T07:29:08Z</time>
      </trkpt>
      <trkpt lat="48.275417000" lon="-1.434351000">
        <ele>104.962</ele>
        <time>2020-06-01T07:29:08Z</time>
      </trkpt>
      <trkpt lat="48.275486000" lon="-1.434365000">
        <ele>105.704</ele>
        <time>2020-06-01T07:29:08Z</time>
      </trkpt>
      <trkpt lat="48.275576000" lon="-1.434352000">
        <ele>106.728</ele>
        <time>2020-06-01T07:29:08Z</time>
      </trkpt>
      <trkpt lat="48.275681000" lon="-1.434285000">
        <ele>108.000</ele>
        <time>2020-06-01T07:29:08Z</time>
      </trkpt>
      <trkpt lat="48.275755000" lon="-1.434287000">
        <ele>108.825</ele>
        <time>2020-06-01T07:29:08Z</time>
      </trkpt>
      <trkpt lat="48.275876000" lon="-1.434237000">
        <ele>108.799</ele>
        <time>2020-06-01T07:29:08Z</time>
      </trkpt>
      <trkpt lat="48.275902000" lon="-1.434196000">
        <ele>108.769</ele>
        <time>2020-06-01T07:29:08Z</time>
      </trkpt>
      <trkpt lat="48.275930000" lon="-1.434037000">
        <ele>108.808</ele>
        <time>2020-06-01T07:29:08Z</time>
      </trkpt>
      <trkpt lat="48.275926000" lon="-1.433860000">
        <ele>108.904</ele>
        <time>2020-06-01T07:29:08Z</time>
      </trkpt>
      <trkpt lat="48.275966000" lon="-1.433769000">
        <ele>108.932</ele>
        <time>2020-06-01T07:29:08Z</time>
      </trkpt>
      <trkpt lat="48.275969000" lon="-1.433643000">
        <ele>108.997</ele>
        <time>2020-06-01T07:29:08Z</time>
      </trkpt>
      <trkpt lat="48.275940000" lon="-1.433625000">
        <ele>108.986</ele>
        <time>2020-06-01T07:29:08Z</time>
      </trkpt>
      <trkpt lat="48.275955000" lon="-1.433575000">
        <ele>108.967</ele>
        <time>2020-06-01T07:29:08Z</time>
      </trkpt>
      <trkpt lat="48.276085000" lon="-1.433433000">
        <ele>109.092</ele>
        <time>2020-06-01T07:29:08Z</time>
      </trkpt>
      <trkpt lat="48.276123000" lon="-1.433361000">
        <ele>109.194</ele>
        <time>2020-06-01T07:29:08Z</time>
      </trkpt>
      <trkpt lat="48.276304000" lon="-1.433199000">
        <ele>109.365</ele>
        <time>2020-06-01T07:29:08Z</time>
      </trkpt>
      <trkpt lat="48.276569000" lon="-1.432623000">
        <ele>108.607</ele>
        <time>2020-06-01T07:29:08Z</time>
      </trkpt>
      <trkpt lat="48.276630000" lon="-1.432408000">
        <ele>108.892</ele>
        <time>2020-06-01T07:29:08Z</time>
      </trkpt>
      <trkpt lat="48.276554000" lon="-1.432370000">
        <ele>108.973</ele>
        <time>2020-06-01T07:29:08Z</time>
      </trkpt>
      <trkpt lat="48.276277000" lon="-1.432310000">
        <ele>108.888</ele>
        <time>2020-06-01T07:29:08Z</time>
      </trkpt>
      <trkpt lat="48.275974000" lon="-1.432217000">
        <ele>106.546</ele>
        <time>2020-06-01T07:29:08Z</time>
      </trkpt>
      <trkpt lat="48.275784000" lon="-1.432220000">
        <ele>105.212</ele>
        <time>2020-06-01T07:29:08Z</time>
      </trkpt>
      <trkpt lat="48.275605000" lon="-1.432283000">
        <ele>103.948</ele>
        <time>2020-06-01T07:29:08Z</time>
      </trkpt>
      <trkpt lat="48.275501000" lon="-1.432299000">
        <ele>103.071</ele>
        <time>2020-06-01T07:29:08Z</time>
      </trkpt>
      <trkpt lat="48.275334000" lon="-1.432277000">
        <ele>101.678</ele>
        <time>2020-06-01T07:29:08Z</time>
      </trkpt>
      <trkpt lat="48.275105000" lon="-1.432293000">
        <ele>100.153</ele>
        <time>2020-06-01T07:29:08Z</time>
      </trkpt>
      <trkpt lat="48.274874000" lon="-1.432342000">
        <ele>99.000</ele>
        <time>2020-06-01T07:29:08Z</time>
      </trkpt>
      <trkpt lat="48.274080000" lon="-1.432393000">
        <ele>101.685</ele>
        <time>2020-06-01T07:29:08Z</time>
      </trkpt>
      <trkpt lat="48.273383000" lon="-1.432464000">
        <ele>105.648</ele>
        <time>2020-06-01T07:29:08Z</time>
      </trkpt>
      <trkpt lat="48.272939000" lon="-1.432533000">
        <ele>107.036</ele>
        <time>2020-06-01T07:29:08Z</time>
      </trkpt>
      <trkpt lat="48.271985000" lon="-1.432568000">
        <ele>109.720</ele>
        <time>2020-06-01T07:29:08Z</time>
      </trkpt>
      <trkpt lat="48.271706000" lon="-1.432619000">
        <ele>110.218</ele>
        <time>2020-06-01T07:29:08Z</time>
      </trkpt>
      <trkpt lat="48.271602000" lon="-1.432476000">
        <ele>110.565</ele>
        <time>2020-06-01T07:29:08Z</time>
      </trkpt>
      <trkpt lat="48.271126000" lon="-1.432608000">
        <ele>110.985</ele>
        <time>2020-06-01T07:29:08Z</time>
      </trkpt>
      <trkpt lat="48.270149000" lon="-1.432825000">
        <ele>111.987</ele>
        <time>2020-06-01T07:29:08Z</time>
      </trkpt>
      <trkpt lat="48.268309000" lon="-1.433136000">
        <ele>115.384</ele>
        <time>2020-06-01T07:29:08Z</time>
      </trkpt>
      <trkpt lat="48.266088000" lon="-1.433549000">
        <ele>109.816</ele>
        <time>2020-06-01T07:29:08Z</time>
      </trkpt>
      <trkpt lat="48.265367000" lon="-1.433708000">
        <ele>107.628</ele>
        <time>2020-06-01T07:29:08Z</time>
      </trkpt>
      <trkpt lat="48.265035000" lon="-1.433764000">
        <ele>106.780</ele>
        <time>2020-06-01T07:29:08Z</time>
      </trkpt>
      <trkpt lat="48.264842000" lon="-1.433759000">
        <ele>106.127</ele>
        <time>2020-06-01T07:29:08Z</time>
      </trkpt>
      <trkpt lat="48.263024000" lon="-1.433570000">
        <ele>96.529</ele>
        <time>2020-06-01T07:29:08Z</time>
      </trkpt>
      <trkpt lat="48.262485000" lon="-1.433533000">
        <ele>95.315</ele>
        <time>2020-06-01T07:29:08Z</time>
      </trkpt>
      <trkpt lat="48.262071000" lon="-1.433568000">
        <ele>94.510</ele>
        <time>2020-06-01T07:29:08Z</time>
      </trkpt>
      <trkpt lat="48.261452000" lon="-1.433756000">
        <ele>94.000</ele>
        <time>2020-06-01T07:29:08Z</time>
      </trkpt>
      <trkpt lat="48.261114000" lon="-1.433881000">
        <ele>94.000</ele>
        <time>2020-06-01T07:29:08Z</time>
      </trkpt>
      <trkpt lat="48.260853000" lon="-1.433929000">
        <ele>94.004</ele>
        <time>2020-06-01T07:29:08Z</time>
      </trkpt>
      <trkpt lat="48.260507000" lon="-1.433964000">
        <ele>94.103</ele>
        <time>2020-06-01T07:29:08Z</time>
      </trkpt>
      <trkpt lat="48.260168000" lon="-1.434079000">
        <ele>94.785</ele>
        <time>2020-06-01T07:29:08Z</time>
      </trkpt>
      <trkpt lat="48.259676000" lon="-1.434209000">
        <ele>96.540</ele>
        <time>2020-06-01T07:29:08Z</time>
      </trkpt>
      <trkpt lat="48.258841000" lon="-1.434563000">
        <ele>99.270</ele>
        <time>2020-06-01T07:29:08Z</time>
      </trkpt>
      <trkpt lat="48.257285000" lon="-1.435352000">
        <ele>105.000</ele>
        <time>2020-06-01T07:29:08Z</time>
      </trkpt>
      <trkpt lat="48.256692000" lon="-1.435580000">
        <ele>106.000</ele>
        <time>2020-06-01T07:29:08Z</time>
      </trkpt>
      <trkpt lat="48.256535000" lon="-1.435655000">
        <ele>106.000</ele>
        <time>2020-06-01T07:29:08Z</time>
      </trkpt>
      <trkpt lat="48.256253000" lon="-1.435843000">
        <ele>105.580</ele>
        <time>2020-06-01T07:29:08Z</time>
      </trkpt>
      <trkpt lat="48.256323000" lon="-1.436164000">
        <ele>105.906</ele>
        <time>2020-06-01T07:29:08Z</time>
      </trkpt>
      <trkpt lat="48.256433000" lon="-1.436979000">
        <ele>105.986</ele>
        <time>2020-06-01T07:29:08Z</time>
      </trkpt>
      <trkpt lat="48.256533000" lon="-1.439142000">
        <ele>105.200</ele>
        <time>2020-06-01T07:29:08Z</time>
      </trkpt>
      <trkpt lat="48.256506000" lon="-1.439601000">
        <ele>105.150</ele>
        <time>2020-06-01T07:29:08Z</time>
      </trkpt>
      <trkpt lat="48.256530000" lon="-1.440313000">
        <ele>105.360</ele>
        <time>2020-06-01T07:29:08Z</time>
      </trkpt>
      <trkpt lat="48.256486000" lon="-1.440702000">
        <ele>104.684</ele>
        <time>2020-06-01T07:29:08Z</time>
      </trkpt>
      <trkpt lat="48.256431000" lon="-1.440923000">
        <ele>104.130</ele>
        <time>2020-06-01T07:29:08Z</time>
      </trkpt>
      <trkpt lat="48.256366000" lon="-1.441443000">
        <ele>103.142</ele>
        <time>2020-06-01T07:29:08Z</time>
      </trkpt>
      <trkpt lat="48.256284000" lon="-1.441828000">
        <ele>102.252</ele>
        <time>2020-06-01T07:29:08Z</time>
      </trkpt>
      <trkpt lat="48.256259000" lon="-1.442036000">
        <ele>101.861</ele>
        <time>2020-06-01T07:29:08Z</time>
      </trkpt>
      <trkpt lat="48.256213000" lon="-1.442127000">
        <ele>101.531</ele>
        <time>2020-06-01T07:29:08Z</time>
      </trkpt>
      <trkpt lat="48.255894000" lon="-1.442249000">
        <ele>99.916</ele>
        <time>2020-06-01T07:29:08Z</time>
      </trkpt>
      <trkpt lat="48.255214000" lon="-1.442461000">
        <ele>96.528</ele>
        <time>2020-06-01T07:29:08Z</time>
      </trkpt>
      <trkpt lat="48.254631000" lon="-1.442774000">
        <ele>93.166</ele>
        <time>2020-06-01T07:29:08Z</time>
      </trkpt>
      <trkpt lat="48.253823000" lon="-1.443253000">
        <ele>86.565</ele>
        <time>2020-06-01T07:29:08Z</time>
      </trkpt>
      <trkpt lat="48.253474000" lon="-1.443518000">
        <ele>85.111</ele>
        <time>2020-06-01T07:29:08Z</time>
      </trkpt>
      <trkpt lat="48.253303000" lon="-1.443780000">
        <ele>85.354</ele>
        <time>2020-06-01T07:29:08Z</time>
      </trkpt>
      <trkpt lat="48.252910000" lon="-1.444735000">
        <ele>87.100</ele>
        <time>2020-06-01T07:29:08Z</time>
      </trkpt>
      <trkpt lat="48.252875000" lon="-1.444855000">
        <ele>87.145</ele>
        <time>2020-06-01T07:29:08Z</time>
      </trkpt>
      <trkpt lat="48.252772000" lon="-1.445602000">
        <ele>86.151</ele>
        <time>2020-06-01T07:29:08Z</time>
      </trkpt>
      <trkpt lat="48.252673000" lon="-1.445816000">
        <ele>86.234</ele>
        <time>2020-06-01T07:29:08Z</time>
      </trkpt>
      <trkpt lat="48.252546000" lon="-1.445860000">
        <ele>86.646</ele>
        <time>2020-06-01T07:29:08Z</time>
      </trkpt>
      <trkpt lat="48.251615000" lon="-1.445686000">
        <ele>89.860</ele>
        <time>2020-06-01T07:29:08Z</time>
      </trkpt>
      <trkpt lat="48.251489000" lon="-1.445595000">
        <ele>90.193</ele>
        <time>2020-06-01T07:29:08Z</time>
      </trkpt>
      <trkpt lat="48.251130000" lon="-1.445599000">
        <ele>91.293</ele>
        <time>2020-06-01T07:29:08Z</time>
      </trkpt>
      <trkpt lat="48.250962000" lon="-1.445576000">
        <ele>91.876</ele>
        <time>2020-06-01T07:29:08Z</time>
      </trkpt>
      <trkpt lat="48.250739000" lon="-1.445584000">
        <ele>92.695</ele>
        <time>2020-06-01T07:29:08Z</time>
      </trkpt>
      <trkpt lat="48.250285000" lon="-1.445677000">
        <ele>93.815</ele>
        <time>2020-06-01T07:29:08Z</time>
      </trkpt>
      <trkpt lat="48.250072000" lon="-1.445658000">
        <ele>94.000</ele>
        <time>2020-06-01T07:29:08Z</time>
      </trkpt>
      <trkpt lat="48.249977000" lon="-1.445598000">
        <ele>94.000</ele>
        <time>2020-06-01T07:29:08Z</time>
      </trkpt>
      <trkpt lat="48.249577000" lon="-1.445207000">
        <ele>94.461</ele>
        <time>2020-06-01T07:29:08Z</time>
      </trkpt>
      <trkpt lat="48.249424000" lon="-1.445125000">
        <ele>94.911</ele>
        <time>2020-06-01T07:29:08Z</time>
      </trkpt>
      <trkpt lat="48.249276000" lon="-1.445092000">
        <ele>95.379</ele>
        <time>2020-06-01T07:29:08Z</time>
      </trkpt>
      <trkpt lat="48.249016000" lon="-1.445125000">
        <ele>96.452</ele>
        <time>2020-06-01T07:29:08Z</time>
      </trkpt>
      <trkpt lat="48.248530000" lon="-1.445317000">
        <ele>97.506</ele>
        <time>2020-06-01T07:29:08Z</time>
      </trkpt>
      <trkpt lat="48.248535000" lon="-1.445288000">
        <ele>97.539</ele>
        <time>2020-06-01T07:29:08Z</time>
      </trkpt>
      <trkpt lat="48.248532000" lon="-1.445313000">
        <ele>97.507</ele>
        <time>2020-06-01T07:29:08Z</time>
      </trkpt>
      <trkpt lat="48.248528000" lon="-1.445299000">
        <ele>97.537</ele>
        <time>2020-06-01T07:29:08Z</time>
      </trkpt>
      <trkpt lat="48.248540000" lon="-1.445613000">
        <ele>97.022</ele>
        <time>2020-06-01T07:29:08Z</time>
      </trkpt>
      <trkpt lat="48.248667000" lon="-1.445869000">
        <ele>96.380</ele>
        <time>2020-06-01T07:29:08Z</time>
      </trkpt>
      <trkpt lat="48.248914000" lon="-1.446198000">
        <ele>95.825</ele>
        <time>2020-06-01T07:29:08Z</time>
      </trkpt>
      <trkpt lat="48.249124000" lon="-1.446544000">
        <ele>95.330</ele>
        <time>2020-06-01T07:29:08Z</time>
      </trkpt>
      <trkpt lat="48.249231000" lon="-1.446599000">
        <ele>95.146</ele>
        <time>2020-06-01T07:29:08Z</time>
      </trkpt>
      <trkpt lat="48.249341000" lon="-1.446693000">
        <ele>95.159</ele>
        <time>2020-06-01T07:29:08Z</time>
      </trkpt>
      <trkpt lat="48.249406000" lon="-1.446902000">
        <ele>95.335</ele>
        <time>2020-06-01T07:29:08Z</time>
      </trkpt>
      <trkpt lat="48.249304000" lon="-1.447479000">
        <ele>95.914</ele>
        <time>2020-06-01T07:29:08Z</time>
      </trkpt>
      <trkpt lat="48.249142000" lon="-1.448112000">
        <ele>95.943</ele>
        <time>2020-06-01T07:29:08Z</time>
      </trkpt>
      <trkpt lat="48.249116000" lon="-1.448403000">
        <ele>95.838</ele>
        <time>2020-06-01T07:29:08Z</time>
      </trkpt>
      <trkpt lat="48.249214000" lon="-1.449043000">
        <ele>96.000</ele>
        <time>2020-06-01T07:29:08Z</time>
      </trkpt>
      <trkpt lat="48.249246000" lon="-1.449649000">
        <ele>95.414</ele>
        <time>2020-06-01T07:29:08Z</time>
      </trkpt>
      <trkpt lat="48.249328000" lon="-1.450118000">
        <ele>95.000</ele>
        <time>2020-06-01T07:29:08Z</time>
      </trkpt>
      <trkpt lat="48.249486000" lon="-1.450543000">
        <ele>95.000</ele>
        <time>2020-06-01T07:29:08Z</time>
      </trkpt>
      <trkpt lat="48.249526000" lon="-1.450737000">
        <ele>95.000</ele>
        <time>2020-06-01T07:29:08Z</time>
      </trkpt>
      <trkpt lat="48.249535000" lon="-1.450863000">
        <ele>95.000</ele>
        <time>2020-06-01T07:29:08Z</time>
      </trkpt>
      <trkpt lat="48.249528000" lon="-1.451960000">
        <ele>93.971</ele>
        <time>2020-06-01T07:29:08Z</time>
      </trkpt>
      <trkpt lat="48.249512000" lon="-1.452257000">
        <ele>92.683</ele>
        <time>2020-06-01T07:29:08Z</time>
      </trkpt>
      <trkpt lat="48.249439000" lon="-1.452768000">
        <ele>90.225</ele>
        <time>2020-06-01T07:29:08Z</time>
      </trkpt>
      <trkpt lat="48.249318000" lon="-1.453119000">
        <ele>88.090</ele>
        <time>2020-06-01T07:29:08Z</time>
      </trkpt>
      <trkpt lat="48.249111000" lon="-1.453522000">
        <ele>86.256</ele>
        <time>2020-06-01T07:29:08Z</time>
      </trkpt>
      <trkpt lat="48.249129000" lon="-1.453791000">
        <ele>85.361</ele>
        <time>2020-06-01T07:29:08Z</time>
      </trkpt>
      <trkpt lat="48.249223000" lon="-1.454103000">
        <ele>84.966</ele>
        <time>2020-06-01T07:29:08Z</time>
      </trkpt>
      <trkpt lat="48.249363000" lon="-1.454371000">
        <ele>85.401</ele>
        <time>2020-06-01T07:29:08Z</time>
      </trkpt>
      <trkpt lat="48.249536000" lon="-1.454574000">
        <ele>85.588</ele>
        <time>2020-06-01T07:29:08Z</time>
      </trkpt>
      <trkpt lat="48.249674000" lon="-1.454919000">
        <ele>86.230</ele>
        <time>2020-06-01T07:29:08Z</time>
      </trkpt>
      <trkpt lat="48.249844000" lon="-1.455544000">
        <ele>87.629</ele>
        <time>2020-06-01T07:29:08Z</time>
      </trkpt>
      <trkpt lat="48.249835000" lon="-1.455841000">
        <ele>88.507</ele>
        <time>2020-06-01T07:29:08Z</time>
      </trkpt>
      <trkpt lat="48.249779000" lon="-1.456253000">
        <ele>89.838</ele>
        <time>2020-06-01T07:29:08Z</time>
      </trkpt>
      <trkpt lat="48.249738000" lon="-1.456794000">
        <ele>91.402</ele>
        <time>2020-06-01T07:29:08Z</time>
      </trkpt>
      <trkpt lat="48.249680000" lon="-1.457033000">
        <ele>92.012</ele>
        <time>2020-06-01T07:29:08Z</time>
      </trkpt>
      <trkpt lat="48.249555000" lon="-1.457370000">
        <ele>93.210</ele>
        <time>2020-06-01T07:29:08Z</time>
      </trkpt>
      <trkpt lat="48.249230000" lon="-1.457876000">
        <ele>95.081</ele>
        <time>2020-06-01T07:29:08Z</time>
      </trkpt>
      <trkpt lat="48.249106000" lon="-1.458107000">
        <ele>95.614</ele>
        <time>2020-06-01T07:29:08Z</time>
      </trkpt>
      <trkpt lat="48.249002000" lon="-1.457997000">
        <ele>95.785</ele>
        <time>2020-06-01T07:29:08Z</time>
      </trkpt>
      <trkpt lat="48.248801000" lon="-1.457968000">
        <ele>95.753</ele>
        <time>2020-06-01T07:29:08Z</time>
      </trkpt>
      <trkpt lat="48.248425000" lon="-1.458045000">
        <ele>95.073</ele>
        <time>2020-06-01T07:29:08Z</time>
      </trkpt>
      <trkpt lat="48.248200000" lon="-1.458139000">
        <ele>94.742</ele>
        <time>2020-06-01T07:29:08Z</time>
      </trkpt>
      <trkpt lat="48.248064000" lon="-1.458251000">
        <ele>94.628</ele>
        <time>2020-06-01T07:29:08Z</time>
      </trkpt>
      <trkpt lat="48.247978000" lon="-1.458108000">
        <ele>94.224</ele>
        <time>2020-06-01T07:29:08Z</time>
      </trkpt>
      <trkpt lat="48.247853000" lon="-1.458070000">
        <ele>93.901</ele>
        <time>2020-06-01T07:29:08Z</time>
      </trkpt>
    </trkseg>
  </trk>
</gpx>
